Id,Source,Site name,Address,Zip,Phone,Fax,Program Name,Length of Day,IDHS Provider ID,Agency,Neighborhood,Funded Enrollment,Program Option,Number per Site EHS,Number per Site HS,Director,Head Start Fund,Eearly Head Start Fund,CC fund,Progmod,Website,Executive Director,Center Director,ECE Available Programs,NAEYC Valid Until,NAEYC Program Id,Email Address,Ounce of Prevention Description,Purple binder service type,Column,Column2
3018,purple_binder_early_childhood.csv, A Karrasel Nursery School & Kindergarten,3030 N Kedzie Avenue ,60618,4636151,,,,,,,,,,,,,,,,,,,,,,,,,,Child Care
3019,purple_binder_early_childhood.csv, A Step Ahead Day Care Center,4208 N Broadway Street 10 ,60612,4048664,,,,,,,,,,,,,,,,,,,,,,,,,,Child Care
3020,purple_binder_early_childhood.csv, ABC & Me Day Care Center,1100 W Lawrence Avenue ,60640,5614488,,,,,,,,,,,,,,,,,,,,,,,,,,Child Care
3021,purple_binder_early_childhood.csv, ABC Academy,2714 W Pratt Boulevard ,60645,3381033,,,,,,,,,,,,,,,,,,,,,,,,,,Child Care
3022,purple_binder_early_childhood.csv, ABLA Child Development Center,1342 S Racine Avenue ,60608,7335992,,,,,,,,,,,,,,,,,,,,,,,,,,Child Care
3023,purple_binder_early_childhood.csv, Abraham Lincoln Centre,7239 S Dobson Avenue ,60619,4934496,,,,,,,,,,,,,,,,,,,,,,,,,,Child Care
3024,purple_binder_early_childhood.csv, Abraham Lincoln Centre,5659 S Union Avenue ,60621,7832828,,,,,,,,,,,,,,,,,,,,,,,,,,Child Care
3025,purple_binder_early_childhood.csv, Abraham Lincoln Centre,7 E 119th Street ,60628,2647633,,,,,,,,,,,,,,,,,,,,,,,,,,Child Care
3026,purple_binder_early_childhood.csv, Abraham Lincoln Centre,1354 W 61st Street ,60636,4715100,,,,,,,,,,,,,,,,,,,,,,,,,,Child Care
3027,purple_binder_early_childhood.csv, Abraham Lincoln Centre,3858 S Cottage Grove Avenue ,60653,3736600,,,,,,,,,,,,,,,,,,,,,,,,,,Child Care
3028,purple_binder_early_childhood.csv, Abraham Lincoln Centre - Berkley Center,4210 S Berkeley Avenue ,60653,4513360,,,,,,,,,,,,,,,,,,,,,,,,,,Child Care
3029,purple_binder_early_childhood.csv, Abraham Lincoln Centre - Lincoln/King,4314 S Cottage Grove Avenue ,60653,7472310,,,,,,,,,,,,,,,,,,,,,,,,,,Child Care
3030,purple_binder_early_childhood.csv, Accounters Community Center,1155 W 81st Street ,60620,9945514,,,,,,,,,,,,,,,,,,,,,,,,,,Child Care
3031,purple_binder_early_childhood.csv, Ada S. McKinley Community Services,725 S Wells Street ,60607,3852000,,,,,,,,,,,,,,,,,,,,,,,,,,Child Care
3032,purple_binder_early_childhood.csv, Ada S. McKinley Community Services,4543 S Princeton Avenue ,60609,6249799,,,,,,,,,,,,,,,,,,,,,,,,,,Child Care
3033,purple_binder_early_childhood.csv, Ada S. McKinley Community Services,2647 E 88th Street ,60617,3751999,,,,,,,,,,,,,,,,,,,,,,,,,,Child Care
3034,purple_binder_early_childhood.csv, Ada S. McKinley Community Services - Ersula Howard,7222 S Exchange Avenue ,60649,2219711,,,,,,,,,,,,,,,,,,,,,,,,,,Child Care
3035,purple_binder_early_childhood.csv, Ada S. McKinley Community Services - Maggie Drummond,4301 S Wabash ,60653,3738200,,,,,,,,,,,,,,,,,,,,,,,,,,Child Care
3036,purple_binder_early_childhood.csv, Ada S. McKinley Community Services - Roseland,11410 S Edbrooke Avenue ,60628,4681918,,,,,,,,,,,,,,,,,,,,,,,,,,Child Care
3037,purple_binder_early_childhood.csv, Ada S. McKinley Community Services - Wright Renaissance,7939 S Western Avenue ,60620,4768805,,,,,,,,,,,,,,,,,,,,,,,,,,Child Care
3038,purple_binder_early_childhood.csv, Ada S. McKinley Services - McKinley - Trumbull,10530 S Oglesby Avenue ,60617,3757022,,,,,,,,,,,,,,,,,,,,,,,,,,Child Care
3039,purple_binder_early_childhood.csv, Albany Park Community Center,3403 W Lawrence Avenue ,60625,4333204,,,,,,,,,,,,,,,,,,,,,,,,,,Child Care
3040,purple_binder_early_childhood.csv, Albany Park Community Center - Ainslie,3401 W Ainslie Street ,60625,5395907,,,,,,,,,,,,,,,,,,,,,,,,,,Child Care
3041,purple_binder_early_childhood.csv, Albany Park Community Center - Kimball,5121 N Kimball Avenue ,60625,5095650,,,,,,,,,,,,,,,,,,,,,,,,,,Child Care
3042,purple_binder_early_childhood.csv, All Nations Development Center,8435 S Stony Island Avenue ,60617,3757000,,,,,,,,,,,,,,,,,,,,,,,,,,Child Care
3043,purple_binder_early_childhood.csv, Appeal for Charities Ebenezer,7058 S LaFayette Avenue ,60621,6515400,,,,,,,,,,,,,,,,,,,,,,,,,,Child Care
3044,purple_binder_early_childhood.csv, Appeal for Charities Emmanuel,50 W 71st Street ,60621,6515400,,,,,,,,,,,,,,,,,,,,,,,,,,Child Care
3045,purple_binder_early_childhood.csv, BBF Family Services,1512 S Pulaski Road ,60623,2779582,,,,,,,,,,,,,,,,,,,,,,,,,,Child Care
3046,purple_binder_early_childhood.csv, Bernard Horwich Jewish Community Center,3003 W Touhy Avenue ,60645,7619100,,,,,,,,,,,,,,,,,,,,,,,,,,Child Care
3047,purple_binder_early_childhood.csv, Bethel New Life,4950 W Thomas Street ,60651,4737870,,,,,,,,,,,,,,,,,,,,,,,,,,Child Care
3048,purple_binder_early_childhood.csv, Bethel New Life School,1120 N Lamon Avenue ,60651,6267760,,,,,,,,,,,,,,,,,,,,,,,,,,Child Care
3049,purple_binder_early_childhood.csv," Boys & Girls Clubs of Chicago - Dr Martin Luther King, Jr. Club",2950 W Washington Boulevard ,60612,6385464,,,,,,,,,,,,,,,,,,,,,,,,,,Child Care
3050,purple_binder_early_childhood.csv, Boys & Girls Clubs of Chicago - Ida Mae Fletcher,3140 W Ogden Avenue ,60623,7627383,,,,,,,,,,,,,,,,,,,,,,,,,,Child Care
3051,purple_binder_early_childhood.csv, Boys & Girls Clubs of Chicago - James Jordan Club,2102 W Monroe Street ,60612,4324294,,,,,,,,,,,,,,,,,,,,,,,,,,Child Care
3052,purple_binder_early_childhood.csv, Boys & Girls Clubs of Chicago - Yancey,6245 S Wabash Avenue ,60637,3634733,,,,,,,,,,,,,,,,,,,,,,,,,,Child Care
3053,purple_binder_early_childhood.csv, Bray Temple Day Care,1049 E 73rd Street ,60619,4937092,,,,,,,,,,,,,,,,,,,,,,,,,,Child Care
3054,purple_binder_early_childhood.csv, Bright Horizons at Fourth Presbyterian Children's Center,126 E Chestnut Street ,60611,6244532,,,,,,,,,,,,,,,,,,,,,,,,,,Child Care
3055,purple_binder_early_childhood.csv, Bunnyland Developmental Day Care Center,545 W 119th Street ,60628,5685200,,,,,,,,,,,,,,,,,,,,,,,,,,Child Care
3056,purple_binder_early_childhood.csv, C.C.C. Learning Center,78 W Van Buren Street ,60605,4273342,,,,,,,,,,,,,,,,,,,,,,,,,,Child Care
3057,purple_binder_early_childhood.csv, C.C.C. Learning Center,610 S Canal Street ,60606,3538687,,,,,,,,,,,,,,,,,,,,,,,,,,Child Care
3058,purple_binder_early_childhood.csv, Cambodian Association of Illinois,2831 W Lawrence Avenue ,60625,8787090,,,,,,,,,,,,,,,,,,,,,,,,,,Child Care
3059,purple_binder_early_childhood.csv, Care-A-Lot Child Development Center,5522 N Milwaukee Avenue ,60630,7630888,,,,,,,,,,,,,,,,,,,,,,,,,,Child Care
3060,purple_binder_early_childhood.csv, Care-a-Lot Child Development Center,6441 N Central Avenue ,60646,7638888,,,,,,,,,,,,,,,,,,,,,,,,,,Child Care
3061,purple_binder_early_childhood.csv, Carole Robertson Center for Learning,2020 W Roosevelt Road ,60608,2437300,,,,,,,,,,,,,,,,,,,,,,,,,,Child Care
3062,purple_binder_early_childhood.csv, Carole Robertson Center for Learning,3701 W Ogden Avenue ,60623,5228400,,,,,,,,,,,,,,,,,,,,,,,,,,Child Care
3063,purple_binder_early_childhood.csv, Carole Robertson Center for Learning,2929 W 19th Street ,60623,5211600,,,,,,,,,,,,,,,,,,,,,,,,,,Child Care
3064,purple_binder_early_childhood.csv, Casa Central - Casa Infantil Child Development Center,2222 N Kedzie Avenue ,60647,7721170,,,,,,,,,,,,,,,,,,,,,,,,,,Child Care
3065,purple_binder_early_childhood.csv, Casa Central - CSC Child Development Center,1343 N California Avenue ,60622,6452300,,,,,,,,,,,,,,,,,,,,,,,,,,Child Care
3066,purple_binder_early_childhood.csv, Catholic Charities Chicago,721 N LaSalle Street ,60654,6557000,,,,,,,,,,,,,,,,,,,,,,,,,,Child Care
3067,purple_binder_early_childhood.csv, Catholic Charities Chicago - Chicago Lawn,3001 W 59th Street ,60629,9251085,,,,,,,,,,,,,,,,,,,,,,,,,,Child Care
3068,purple_binder_early_childhood.csv, Catholic Charities Chicago - Cordi-Marian,1100 S May Street ,60607,6663787,,,,,,,,,,,,,,,,,,,,,,,,,,Child Care
3069,purple_binder_early_childhood.csv, Catholic Charities Chicago - Ebenezer,1652 W Foster Avenue ,60640,8789925,,,,,,,,,,,,,,,,,,,,,,,,,,Child Care
3070,purple_binder_early_childhood.csv, Catholic Charities Chicago - Grace Mission School,5332 S Western Avenue ,60609,4761990,,,,,,,,,,,,,,,,,,,,,,,,,,Child Care
3071,purple_binder_early_childhood.csv, Catholic Charities Chicago - Maria's Garden,7320 S Yale Avenue ,60621,9943016,,,,,,,,,,,,,,,,,,,,,,,,,,Child Care
3072,purple_binder_early_childhood.csv, Catholic Charities Chicago - St. Joseph,4800 S Paulina Street ,60609,9272524,,,,,,,,,,,,,,,,,,,,,,,,,,Child Care
3073,purple_binder_early_childhood.csv, Catholic Charities Chicago - St. Kevin,10509 S Torrence Avenue ,60617,3746466,,,,,,,,,,,,,,,,,,,,,,,,,,Child Care
3074,purple_binder_early_childhood.csv, Catholic Charities Chicago - St. Mark,1041 N Campbell Avenue ,60622,7726606,,,,,,,,,,,,,,,,,,,,,,,,,,Child Care
3075,purple_binder_early_childhood.csv, Catholic Charities Chicago - St. Michael,8235 S Shore Drive ,60617,9337676,,,,,,,,,,,,,,,,,,,,,,,,,,Child Care
3076,purple_binder_early_childhood.csv, Centers for New Horizons - Altgeld,941 E 132nd Street ,60827,4683055,,,,,,,,,,,,,,,,,,,,,,,,,,Child Care
3077,purple_binder_early_childhood.csv, Centers for New Horizons - Altgeld Gardens II Early Learning Center,939 E 132nd Street ,60827,4686033,,,,,,,,,,,,,,,,,,,,,,,,,,Child Care
3078,purple_binder_early_childhood.csv, Centers for New Horizons - Edison Hoard,3948 S State ,60609,5362187,,,,,,,,,,,,,,,,,,,,,,,,,,Child Care
3079,purple_binder_early_childhood.csv, Centers for New Horizons - Head Start,226 E 43rd Street ,60653,6240061,,,,,,,,,,,,,,,,,,,,,,,,,,Child Care
3080,purple_binder_early_childhood.csv, Centers for New Horizons Dr. King High School,4445 S Drexel Boulevard ,60653,2853327,,,,,,,,,,,,,,,,,,,,,,,,,,Child Care
3081,purple_binder_early_childhood.csv, Centers for New Horizons Hyde Park,5600 S Woodlawn ,60637,6672525,,,,,,,,,,,,,,,,,,,,,,,,,,Child Care
3082,purple_binder_early_childhood.csv, Centers for New Horizons Ida B. Wells,3641 S Rhodes Avenue ,60653,3733460,,,,,,,,,,,,,,,,,,,,,,,,,,Child Care
3083,purple_binder_early_childhood.csv, Centers for New Horizons Raymond School,3663 S Wabash Avenue ,60653,3735673,,,,,,,,,,,,,,,,,,,,,,,,,,Child Care
3084,purple_binder_early_childhood.csv, Centers for New Horizons Robert Taylor II,5120 S Federal Street ,60609,6240666,,,,,,,,,,,,,,,,,,,,,,,,,,Child Care
3085,purple_binder_early_childhood.csv, Centers For New Horizons Robert Taylor School,5140 S Federal Street ,60609,5360510,,,,,,,,,,,,,,,,,,,,,,,,,,Child Care
3086,purple_binder_early_childhood.csv, Centers for New Horizons Washington Park,6225 S Wabash Avenue ,60637,6672065,,,,,,,,,,,,,,,,,,,,,,,,,,Child Care
3087,purple_binder_early_childhood.csv, Central Baptist Bridgeport School,3053 S Normal Avenue ,60616,8425566,,,,,,,,,,,,,,,,,,,,,,,,,,Child Care
3088,purple_binder_early_childhood.csv, Chicago Child Care Society School,5467 S University Avenue ,60615,6430452,,,,,,,,,,,,,,,,,,,,,,,,,,Child Care
3089,purple_binder_early_childhood.csv, Chicago Commons,3645 W Chicago Avenue ,60651,6385600,,,,,,,,,,,,,,,,,,,,,,,,,,Child Care
3090,purple_binder_early_childhood.csv, Chicago Commons - Guadalupano Family Center,1814 S Paulina Street ,60608,6663883,,,,,,,,,,,,,,,,,,,,,,,,,,Child Care
3091,purple_binder_early_childhood.csv, Chicago Commons - Nia Family Center,744 N Monticello Avenue ,60624,7220115,,,,,,,,,,,,,,,,,,,,,,,,,,Child Care
3092,purple_binder_early_childhood.csv, Chicago Commons - Taylor Center School,1633 N Hamlin Avenue ,60647,2278551,,,,,,,,,,,,,,,,,,,,,,,,,,Child Care
3093,purple_binder_early_childhood.csv, Chicago Commons Association New City,4600 S McDowell ,60609,3761657,,,,,,,,,,,,,,,,,,,,,,,,,,Child Care
3094,purple_binder_early_childhood.csv, Chicago Commons Association Paulo Freire,1633 W 43rd Street ,60609,8262669,,,,,,,,,,,,,,,,,,,,,,,,,,Child Care
3095,purple_binder_early_childhood.csv, Chicago Department of Human Services - North Area,4740 N Sheridan Road ,60640,7442580,,,,,,,,,,,,,,,,,,,,,,,,,,Child Care
3096,purple_binder_early_childhood.csv, Chicago Department of Human Services - South Chicago,8759 S Commercial Avenue ,60617,7470331,,,,,,,,,,,,,,,,,,,,,,,,,,Child Care
3097,purple_binder_early_childhood.csv, Chicago Metropolitan Association for the Education of Young Children,30 E Adams Street ,60603,4275399,,,,,,,,,,,,,,,,,,,,,,,,,,Child Care
3098,purple_binder_early_childhood.csv, Chicago Urban Day School,1248 W 69th Street ,60636,4833555,,,,,,,,,,,,,,,,,,,,,,,,,,Child Care
3099,purple_binder_early_childhood.csv, Chicago Youth Centers,461 E 111th Street ,60628,4684660,,,,,,,,,,,,,,,,,,,,,,,,,,Child Care
3100,purple_binder_early_childhood.csv, Chicago Youth Centers - ABC Youth Center,3415 W 13th Place ,60623,7625655,,,,,,,,,,,,,,,,,,,,,,,,,,Child Care
3101,purple_binder_early_childhood.csv, Chicago Youth Centers - BBR Youth Center,1530 S Hamlin Avenue ,60623,7621140,,,,,,,,,,,,,,,,,,,,,,,,,,Child Care
3102,purple_binder_early_childhood.csv, Chicago Youth Centers - Centro Nuestro,3222 W Division Street ,60651,4893157,,,,,,,,,,,,,,,,,,,,,,,,,,Child Care
3103,purple_binder_early_childhood.csv, Chicago Youth Centers - Dorothy Gautreaux,975 E 132nd Street ,60827,2911000,,,,,,,,,,,,,,,,,,,,,,,,,,Child Care
3104,purple_binder_early_childhood.csv, Chicago Youth Centers - Elliott Donnelley Center,3947 S Michigan Avenue ,60653,2683815,,,,,,,,,,,,,,,,,,,,,,,,,,Child Care
3105,purple_binder_early_childhood.csv, Chicago Youth Centers - Mt. Moriah-Taylor,1501 N Harding Avenue ,60651,2785837,,,,,,,,,,,,,,,,,,,,,,,,,,Child Care
3106,purple_binder_early_childhood.csv, Chicago Youth Centers - Rebecca Crown,7601 S Phillips Avenue ,60649,7310444,,,,,,,,,,,,,,,,,,,,,,,,,,Child Care
3107,purple_binder_early_childhood.csv, Children's Campus,7250 W Touhy Avenue ,60631,6313632,,,,,,,,,,,,,,,,,,,,,,,,,,Child Care
3108,purple_binder_early_childhood.csv, Children's Home and Aid - Englewood Family Center,1701 W 53rd Avenue ,60609,4766998,,,,,,,,,,,,,,,,,,,,,,,,,,Child Care
3109,purple_binder_early_childhood.csv, Children's Place Association,3059 W Augusta Boulevard ,60622,8261230,,,,,,,,,,,,,,,,,,,,,,,,,,Child Care
3110,purple_binder_early_childhood.csv, Children's Playhouse,3342 W Bryn Mawr Avenue ,60659,4783888,,,,,,,,,,,,,,,,,,,,,,,,,,Child Care
3111,purple_binder_early_childhood.csv, Childrens Home and Aid Society,125 S Wacker Drive ,60606,4240200,,,,,,,,,,,,,,,,,,,,,,,,,,Child Care
3112,purple_binder_early_childhood.csv, ChildServ - St Matthew Head Start,1000 N Orleans Street ,60610,9443403,,,,,,,,,,,,,,,,,,,,,,,,,,Child Care
3113,purple_binder_early_childhood.csv, Childserv Englewood,7928 S Ashland Avenue ,60620,,,,,,,,,,,,,,,,,,,,,,,,,,,Child Care
3114,purple_binder_early_childhood.csv, Childserv Lawndale,3210 W Arthington ,60624,5677669,,,,,,,,,,,,,,,,,,,,,,,,,,Child Care
3115,purple_binder_early_childhood.csv, ChildServ West Englewood School,1711 W Garfield Boulevard ,60636,8677350,,,,,,,,,,,,,,,,,,,,,,,,,,Child Care
3116,purple_binder_early_childhood.csv, Chinese American Service League,310 W 24th Place ,60616,7910418,,,,,,,,,,,,,,,,,,,,,,,,,,Child Care
3117,purple_binder_early_childhood.csv, Christopher House,2507 N Greenview Avenue ,60614,4721083,,,,,,,,,,,,,,,,,,,,,,,,,,Child Care
3118,purple_binder_early_childhood.csv, Christopher House - Lakeshore,850 W Eastwood Avenue ,60640,2719403,,,,,,,,,,,,,,,,,,,,,,,,,,Child Care
3119,purple_binder_early_childhood.csv, Christopher House - Rogers Park,7059 N Greenview Avenue ,60626,2745477,,,,,,,,,,,,,,,,,,,,,,,,,,Child Care
3120,purple_binder_early_childhood.csv, Christopher House - Uptown Child Development Center,4701 N Winthrop Avenue ,60640,7694540,,,,,,,,,,,,,,,,,,,,,,,,,,Child Care
3121,purple_binder_early_childhood.csv, Christopher House Buena Park,4303 N Kenmore Avenue ,60613,8830288,,,,,,,,,,,,,,,,,,,,,,,,,,Child Care
3122,purple_binder_early_childhood.csv, Christopher House Logan Square,2610 N Francisco Avenue ,60647,2354073,,,,,,,,,,,,,,,,,,,,,,,,,,Child Care
3123,purple_binder_early_childhood.csv, Christopher House Palmer Square,2140 N Richmond Street ,60647,9480010,,,,,,,,,,,,,,,,,,,,,,,,,,Child Care
3124,purple_binder_early_childhood.csv, Church of God Community Day Care Center,1738 W Marquette Road ,60636,4715222,,,,,,,,,,,,,,,,,,,,,,,,,,Child Care
3125,purple_binder_early_childhood.csv, Community Learning Center,10612 S Wentworth Avenue ,60628,9284104,,,,,,,,,,,,,,,,,,,,,,,,,,Child Care
3126,purple_binder_early_childhood.csv, Concordia Child Care Center,3855 N Seeley Avenue ,60618,9353739,,,,,,,,,,,,,,,,,,,,,,,,,,Child Care
3127,purple_binder_early_childhood.csv, Congregation K.I.N.S. Nursery School/Kinderland,2800 W North Shore Avenue ,60645,7614000,,,,,,,,,,,,,,,,,,,,,,,,,,Child Care
3128,purple_binder_early_childhood.csv, Consuelo Lee Corretjer Day Care Center,2739 W Division Street ,60622,3428866,,,,,,,,,,,,,,,,,,,,,,,,,,Child Care
3129,purple_binder_early_childhood.csv, Cook County/City of Chicago Child Development Center,40 N Dearborn Street ,60602,6244532,,,,,,,,,,,,,,,,,,,,,,,,,,Child Care
3130,purple_binder_early_childhood.csv, Dawson Technical Institute,3901 S State Street ,60609,4512000,,,,,,,,,,,,,,,,,,,,,,,,,,Child Care
3131,purple_binder_early_childhood.csv, Dorsey Developmental Institute School,2050 E 93rd Street ,60617,3754300,,,,,,,,,,,,,,,,,,,,,,,,,,Child Care
3132,purple_binder_early_childhood.csv, Douglas-Tubman Child Development Center,5010 W Chicago Avenue ,60651,2683053,,,,,,,,,,,,,,,,,,,,,,,,,,Child Care
3133,purple_binder_early_childhood.csv, Downtown Children's Learning Place,400 N McClurg Court ,60611,8289590,,,,,,,,,,,,,,,,,,,,,,,,,,Child Care
3134,purple_binder_early_childhood.csv, Dr. Deton J. Brooks Head Start,6921 S Stony Island Avenue ,60649,9552818,,,,,,,,,,,,,,,,,,,,,,,,,,Child Care
3135,purple_binder_early_childhood.csv, Easter Seal Society Gilchrist Marchment,2345 W North Avenue ,60647,2764000,,,,,,,,,,,,,,,,,,,,,,,,,,Child Care
3136,purple_binder_early_childhood.csv, Educare Center,5044 S Wabash Avenue ,60615,9242334,,,,,,,,,,,,,,,,,,,,,,,,,,Child Care
3137,purple_binder_early_childhood.csv, El Hogar Del Nino,1718 S Loomis Street ,60608,5639796,,,,,,,,,,,,,,,,,,,,,,,,,,Child Care
3138,purple_binder_early_childhood.csv, El Hogar del Nino,1854 S Racine Avenue ,60608,2430011,,,,,,,,,,,,,,,,,,,,,,,,,,Child Care
3139,purple_binder_early_childhood.csv, El Hogar Del Nino Cuidar,2325 S California Avenue ,60608,5231629,,,,,,,,,,,,,,,,,,,,,,,,,,Child Care
3140,purple_binder_early_childhood.csv, El Valor Guadalupe Reyes,1951 W 19th Street ,60608,9972021,,,,,,,,,,,,,,,,,,,,,,,,,,Child Care
3141,purple_binder_early_childhood.csv, El Valor Rey Gonzalez Child Care,3050 E 92nd Street ,60617,7219311,,,,,,,,,,,,,,,,,,,,,,,,,,Child Care
3142,purple_binder_early_childhood.csv, Erie Neighborhood House,1701 W Superior Street ,60622,5635800,,,,,,,,,,,,,,,,,,,,,,,,,,Child Care
3143,purple_binder_early_childhood.csv, Erie Neighborhood House,2510 W Cortez Street ,60622,4867161,,,,,,,,,,,,,,,,,,,,,,,,,,Child Care
3144,purple_binder_early_childhood.csv, Erie Neighborhood House,1347 W Erie Street ,60642,6663430,,,,,,,,,,,,,,,,,,,,,,,,,,Child Care
3145,purple_binder_early_childhood.csv, Eyes on the Future Child Care Center,6969 N Ravenswood Avenue ,60626,9730771,,,,,,,,,,,,,,,,,,,,,,,,,,Child Care
3146,purple_binder_early_childhood.csv, Ezzard Charles School,7946 S Ashland Avenue ,60620,4870227,,,,,,,,,,,,,,,,,,,,,,,,,,Child Care
3147,purple_binder_early_childhood.csv, Family Rescue Ridgeland,6824 S Ridgeland Avenue ,60649,6671073,,,,,,,,,,,,,,,,,,,,,,,,,,Child Care
3148,purple_binder_early_childhood.csv, Fellowship House Day Care Center,844 W 32nd Street ,60608,3262282,,,,,,,,,,,,,,,,,,,,,,,,,,Child Care
3149,purple_binder_early_childhood.csv, Fifth City Chicago Child Development Institute,3411 W Fifth Avenue ,60624,8268686,,,,,,,,,,,,,,,,,,,,,,,,,,Child Care
3150,purple_binder_early_childhood.csv, Firman Community Services,37 W 47th Street ,60609,3733400,,,,,,,,,,,,,,,,,,,,,,,,,,Child Care
3151,purple_binder_early_childhood.csv, Firman Community Services,4910 S King Drive ,60615,3732083,,,,,,,,,,,,,,,,,,,,,,,,,,Child Care
3152,purple_binder_early_childhood.csv, Firman Community Services - School Age Program,4644 S Dearborn Street ,60609,3733400,,,,,,,,,,,,,,,,,,,,,,,,,,Child Care
3153,purple_binder_early_childhood.csv, First Church of Love and Faith,2140 W 79th Street ,60620,8739155,,,,,,,,,,,,,,,,,,,,,,,,,,Child Care
3154,purple_binder_early_childhood.csv, First Presbyterian Church,6400 S Kimbark Avenue ,60637,3630505,,,,,,,,,,,,,,,,,,,,,,,,,,Child Care
3155,purple_binder_early_childhood.csv, Florence Heller Jewish Community Center,524 W Melrose Avenue ,60657,8716780,,,,,,,,,,,,,,,,,,,,,,,,,,Child Care
3156,purple_binder_early_childhood.csv, Fresh Start Day Care,6924 W North Avenue ,60707,4792870,,,,,,,,,,,,,,,,,,,,,,,,,,Child Care
3157,purple_binder_early_childhood.csv, Gads Hill Center,1919 W Cullerton Street ,60608,2260963,,,,,,,,,,,,,,,,,,,,,,,,,,Child Care
3158,purple_binder_early_childhood.csv, Gads Hill Center - Cesar Chavez Elementary,4747 S Marshfield Avenue ,60609,,,,,,,,,,,,,,,,,,,,,,,,,,,Child Care
3159,purple_binder_early_childhood.csv, Grant AME Church Day Care Center,4025 S Drexel Boulevard ,60653,2858440,,,,,,,,,,,,,,,,,,,,,,,,,,Child Care
3160,purple_binder_early_childhood.csv, Greenview Children's Center,1507 W Sunnyside Avenue ,60640,7281777,,,,,,,,,,,,,,,,,,,,,,,,,,Child Care
3161,purple_binder_early_childhood.csv, Habilitative Systems,415 S Kilpatrick Avenue ,60644,2612252,,,,,,,,,,,,,,,,,,,,,,,,,,Child Care
3162,purple_binder_early_childhood.csv, Happy Child Day Center,7750 W Devon Avenue ,60631,7757969,,,,,,,,,,,,,,,,,,,,,,,,,,Child Care
3163,purple_binder_early_childhood.csv, Harry S. Truman College Child Development Center,1145 W Wilson Avenue ,60640,9074740,,,,,,,,,,,,,,,,,,,,,,,,,,Child Care
3164,purple_binder_early_childhood.csv, Heartland Alliance for Human Needs and Human Rights - Learning Center,615 W Wellington Avenue ,60657,7511870,,,,,,,,,,,,,,,,,,,,,,,,,,Child Care
3165,purple_binder_early_childhood.csv, Henry Booth Family Rescue,2850 S Michigan Avenue ,60616,9492151,,,,,,,,,,,,,,,,,,,,,,,,,,Child Care
3166,purple_binder_early_childhood.csv, Henry Booth House - Hilliard Head Start,2401 S Wabash Street ,60616,6639450,,,,,,,,,,,,,,,,,,,,,,,,,,Child Care
3167,purple_binder_early_childhood.csv, Henry Booth Near South School,2929 S Wabash Suite 200 ,60616,7910424,,,,,,,,,,,,,,,,,,,,,,,,,,Child Care
3168,purple_binder_early_childhood.csv, High Ridge YMCA Educational Center,2424 W Touhy Avenue ,60645,2628300,,,,,,,,,,,,,,,,,,,,,,,,,,Child Care
3169,purple_binder_early_childhood.csv, Home of Life,4647 W Washington Boulevard ,60644,6268655,,,,,,,,,,,,,,,,,,,,,,,,,,Child Care
3170,purple_binder_early_childhood.csv, Howard Area Community Center,7648 N Paulina Street ,60626,2626622,,,,,,,,,,,,,,,,,,,,,,,,,,Child Care
3171,purple_binder_early_childhood.csv, Howard Area Community Services,7610 N Ashland Avenue ,60626,7647610,,,,,,,,,,,,,,,,,,,,,,,,,,Child Care
3172,purple_binder_early_childhood.csv, Hull House Association - Humboldt Park,1132 S Spaulding Avenue ,60624,2767968,,,,,,,,,,,,,,,,,,,,,,,,,,Child Care
3173,purple_binder_early_childhood.csv, Hull House Association - Lawndale,1401 S Sacramento Drive ,60623,9068600,,,,,,,,,,,,,,,,,,,,,,,,,,Child Care
3174,purple_binder_early_childhood.csv, Hull House Association - LeClaire Hearst Community Center,4340 S Lamon Avenue ,60638,7671516,,,,,,,,,,,,,,,,,,,,,,,,,,Child Care
3175,purple_binder_early_childhood.csv, Hull House Association - LeClaire-Ryder,4410 S LaPorte Avenue ,60638,7675170,,,,,,,,,,,,,,,,,,,,,,,,,,Child Care
3176,purple_binder_early_childhood.csv, Hull House Association - Lincoln Square,4754 N Leavitt Street ,60625,8788651,,,,,,,,,,,,,,,,,,,,,,,,,,Child Care
3177,purple_binder_early_childhood.csv, Hull House Association - Orr Infant and Family Development Center,730 N Pulaski Road ,60624,8261090,,,,,,,,,,,,,,,,,,,,,,,,,,Child Care
3178,purple_binder_early_childhood.csv, Hull House Association - Parkway Community House,500 E 67th Street ,60637,4931306,,,,,,,,,,,,,,,,,,,,,,,,,,Child Care
3179,purple_binder_early_childhood.csv, Hull House Association - Uptown West,4520 N Beacon Street ,60640,5613500,,,,,,,,,,,,,,,,,,,,,,,,,,Child Care
3180,purple_binder_early_childhood.csv, Hull House Association Child Development,3212 N Broadway Street ,60657,5345814,,,,,,,,,,,,,,,,,,,,,,,,,,Child Care
3181,purple_binder_early_childhood.csv, Human Resources Development Institute,222 S Jefferson Street ,60661,4686959,,,,,,,,,,,,,,,,,,,,,,,,,,Child Care
3182,purple_binder_early_childhood.csv, Hyde Park Neighborhood Club,5480 S Kenwood Avenue ,60615,6434062,,,,,,,,,,,,,,,,,,,,,,,,,,Child Care
3183,purple_binder_early_childhood.csv, Irving Park Early Learning Center,3023 W Montrose Avenue ,60618,5397422,,,,,,,,,,,,,,,,,,,,,,,,,,Child Care
3184,purple_binder_early_childhood.csv, JCYS Lakeview Family Center,957 W Grace Street ,60613,2812533,,,,,,,,,,,,,,,,,,,,,,,,,,Child Care
3185,purple_binder_early_childhood.csv, Jewish Child and Family Services,216 W Jackson Boulevard ,60606,3574800,,,,,,,,,,,,,,,,,,,,,,,,,,Child Care
3186,purple_binder_early_childhood.csv, Jewish Child and Family Services - Joy Faith Knapp Children's Center,3145 W Pratt Boulevard ,60645,4673700,,,,,,,,,,,,,,,,,,,,,,,,,,Child Care
3187,purple_binder_early_childhood.csv, Jewish Community Centers of Chicago,30 S Wells Street ,60606,3574700,,,,,,,,,,,,,,,,,,,,,,,,,,Child Care
3188,purple_binder_early_childhood.csv, Jewish Community Centers of Chicago - Hyde Park,5200 S Hyde Park Boulevard ,60615,7533080,,,,,,,,,,,,,,,,,,,,,,,,,,Child Care
3189,purple_binder_early_childhood.csv, Jolly Fun House Playschool,7559 W Addison Street ,60634,,,,,,,,,,,,,,,,,,,,,,,,,,,Child Care
3190,purple_binder_early_childhood.csv, Kennedy-King College,6301 S Halsted Street ,60621,6025340,,,,,,,,,,,,,,,,,,,,,,,,,,Child Care
3191,purple_binder_early_childhood.csv, Kennedy-King College,6800 S Wentworth Avenue ,60621,6025340,,,,,,,,,,,,,,,,,,,,,,,,,,Child Care
3192,purple_binder_early_childhood.csv, Kenyatta's Day Care,2334 E 75th Street ,60649,2213777,,,,,,,,,,,,,,,,,,,,,,,,,,Child Care
3193,purple_binder_early_childhood.csv, Kids Hope United,111 E Wacker Drive ,60601,9226733,,,,,,,,,,,,,,,,,,,,,,,,,,Child Care
3194,purple_binder_early_childhood.csv, Kids Hope United - Harris Child Development Center,6200 S Drexel Avenue ,60637,3245612,,,,,,,,,,,,,,,,,,,,,,,,,,Child Care
3195,purple_binder_early_childhood.csv, Kids Hope United - Kids Hope Child Development Center,5244 N Lakewood Avenue ,60640,9070278,,,,,,,,,,,,,,,,,,,,,,,,,,Child Care
3196,purple_binder_early_childhood.csv, Kidwatch Plus,3901 N Ridgeway Avenue ,60618,5395431,,,,,,,,,,,,,,,,,,,,,,,,,,Child Care
3197,purple_binder_early_childhood.csv, Kinara Community Services Day Care Center,6201 S Sangamon Street ,60621,3710720,,,,,,,,,,,,,,,,,,,,,,,,,,Child Care
3198,purple_binder_early_childhood.csv, Kinder Care Kiddy College,7536 S Stewart ,60620,2243569,,,,,,,,,,,,,,,,,,,,,,,,,,Child Care
3199,purple_binder_early_childhood.csv, KinderCare,1501 S State Street ,60605,9131557,,,,,,,,,,,,,,,,,,,,,,,,,,Child Care
3200,purple_binder_early_childhood.csv, Korean American Community Services,4300 N California Avenue ,60618,5835501,,,,,,,,,,,,,,,,,,,,,,,,,,Child Care
3201,purple_binder_early_childhood.csv, Lake Shore Preparatory School,300 W Hill Street ,60610,2662020,,,,,,,,,,,,,,,,,,,,,,,,,,Child Care
3202,purple_binder_early_childhood.csv, Lake Shore School,5611 N Clark Street ,60660,5616707,,,,,,,,,,,,,,,,,,,,,,,,,,Child Care
3203,purple_binder_early_childhood.csv, LaSalle Street Cycle,735 W Division Street ,60610,6642880,,,,,,,,,,,,,,,,,,,,,,,,,,Child Care
3204,purple_binder_early_childhood.csv, Laurance Armour Day School,2150 W Harrison Avenue ,60612,9426501,,,,,,,,,,,,,,,,,,,,,,,,,,Child Care
3205,purple_binder_early_childhood.csv, Literacy Chicago,17 N State Street ,60602,8701100,,,,,,,,,,,,,,,,,,,,,,,,,,Child Care
3206,purple_binder_early_childhood.csv, Little Angels Day Care Center,6407 N Maplewood ,60645,3389770,,,,,,,,,,,,,,,,,,,,,,,,,,Child Care
3207,purple_binder_early_childhood.csv, Little Harvard Academy,2708 W Peterson Avenue ,60659,9731500,,,,,,,,,,,,,,,,,,,,,,,,,,Child Care
3208,purple_binder_early_childhood.csv, Little People Day Care School,7428 N Rogers Avenue ,60626,7612305,,,,,,,,,,,,,,,,,,,,,,,,,,Child Care
3209,purple_binder_early_childhood.csv, Loyola University Chicago - Preschool/Day Care,1052 W Loyola Avenue ,60626,5083444,,,,,,,,,,,,,,,,,,,,,,,,,,Child Care
3210,purple_binder_early_childhood.csv, Lutheran Day Nursery School,1802 N Fairfield Avenue ,60647,4864222,,,,,,,,,,,,,,,,,,,,,,,,,,Child Care
3211,purple_binder_early_childhood.csv, Lutheran Family Mission - North Avenue,5251 W North Avenue ,60639,6372344,,,,,,,,,,,,,,,,,,,,,,,,,,Child Care
3212,purple_binder_early_childhood.csv, Lutheran Family Mission Family Center,4920 W Madison Street ,60644,2872921,,,,,,,,,,,,,,,,,,,,,,,,,,Child Care
3213,purple_binder_early_childhood.csv, Lutheran Social Services - North Austin,1500 N Mason Avenue ,60651,6354600,,,,,,,,,,,,,,,,,,,,,,,,,,Child Care
3214,purple_binder_early_childhood.csv, Lutheran Social Services - Rogers Park,1754 W Devon Avenue ,60660,6354600,,,,,,,,,,,,,,,,,,,,,,,,,,Child Care
3215,purple_binder_early_childhood.csv, Lutheran Social Services - Winthrop Children's Center,4848 N Winthrop Avenue ,60640,8783210,,,,,,,,,,,,,,,,,,,,,,,,,,Child Care
3216,purple_binder_early_childhood.csv, Luv N Care Day School,5776 N Lincoln Avenue ,60659,7459591,,,,,,,,,,,,,,,,,,,,,,,,,,Child Care
3217,purple_binder_early_childhood.csv, Lydia Home Association - Lydia Learn and Care,4300 W Irving Park Road ,60641,7361447,,,,,,,,,,,,,,,,,,,,,,,,,,Child Care
3218,purple_binder_early_childhood.csv, Malcolm X College,1900 W Van Buren Street ,60612,8507300,,,,,,,,,,,,,,,,,,,,,,,,,,Child Care
3219,purple_binder_early_childhood.csv, Marcy Newberry Association,1073 W Maxwell Street ,60608,8297555,,,,,,,,,,,,,,,,,,,,,,,,,,Child Care
3220,purple_binder_early_childhood.csv, Marcy Newberry Association - Ashland Community Center,1440 S Ashland Avenue ,60608,6662036,,,,,,,,,,,,,,,,,,,,,,,,,,Child Care
3221,purple_binder_early_childhood.csv, Marcy Newberry Association - Austin Town Hall,5610 W Lake Street ,60644,2611505,,,,,,,,,,,,,,,,,,,,,,,,,,Child Care
3222,purple_binder_early_childhood.csv, Marcy Newberry Association - Marcy Center,1539 S Springfield Avenue ,60623,7612300,,,,,,,,,,,,,,,,,,,,,,,,,,Child Care
3223,purple_binder_early_childhood.csv, Marcy Newberry Association - North Austin Headstart,1256 N Waller Avenue ,60651,2611700,,,,,,,,,,,,,,,,,,,,,,,,,,Child Care
3224,purple_binder_early_childhood.csv, Marcy Newberry Association - Rockwell Center,2540 W Jackson Boulevard ,60612,6662931,,,,,,,,,,,,,,,,,,,,,,,,,,Child Care
3225,purple_binder_early_childhood.csv, Marillac Social Center,2114 W 22nd Place ,60612,7227440,,,,,,,,,,,,,,,,,,,,,,,,,,Child Care
3226,purple_binder_early_childhood.csv, Marillac Social Center Supportive Services,212 S Francisco Avenue ,60612,7227440,,,,,,,,,,,,,,,,,,,,,,,,,,Child Care
3227,purple_binder_early_childhood.csv, Mary Craine Center,1545 W Morse Avenue ,60626,2621390,,,,,,,,,,,,,,,,,,,,,,,,,,Child Care
3228,purple_binder_early_childhood.csv, Mary Crane Center North,2905 N Leavitt Street ,60618,9753322,,,,,,,,,,,,,,,,,,,,,,,,,,Child Care
3229,purple_binder_early_childhood.csv, Mary Crane Family and Day Care Center,2905 N Clybourn Avenue ,60618,3485528,,,,,,,,,,,,,,,,,,,,,,,,,,Child Care
3230,purple_binder_early_childhood.csv, McKinney's Home Day Care Center,1109 N Laramie Avenue ,60651,3791685,,,,,,,,,,,,,,,,,,,,,,,,,,Child Care
3231,purple_binder_early_childhood.csv, Metropolitan Family Services - Calumet Center,235 E 103rd Street ,60628,3713600,,,,,,,,,,,,,,,,,,,,,,,,,,Child Care
3232,purple_binder_early_childhood.csv, Metropolitan Family Services Children's Center,3215 W 63rd Street ,60629,8842350,,,,,,,,,,,,,,,,,,,,,,,,,,Child Care
3233,purple_binder_early_childhood.csv, Near the Pier Development Center,540 N Lake Shore Drive ,60611,5272223,,,,,,,,,,,,,,,,,,,,,,,,,,Child Care
3234,purple_binder_early_childhood.csv, New Concept School,7825 S Ellis Avenue ,60619,6519599,,,,,,,,,,,,,,,,,,,,,,,,,,Child Care
3235,purple_binder_early_childhood.csv, New Pisgah Day Care Center,8130 S Racine Avenue ,60620,8735392,,,,,,,,,,,,,,,,,,,,,,,,,,Child Care
3236,purple_binder_early_childhood.csv, North Avenue Day Nursery,2001 W Pierce Street ,60622,3424499,,,,,,,,,,,,,,,,,,,,,,,,,,Child Care
3237,purple_binder_early_childhood.csv, Northshore Academy for Children,6711 N Sheridan Road ,60626,7434744,,,,,,,,,,,,,,,,,,,,,,,,,,Child Care
3238,purple_binder_early_childhood.csv, Olive-Harvey College,10001 S Woodlawn Avenue ,60628,2916700,,,,,,,,,,,,,,,,,,,,,,,,,,Child Care
3239,purple_binder_early_childhood.csv, Onward Neighborhood House,600 N Leavitt Street ,60612,6666726,,,,,,,,,,,,,,,,,,,,,,,,,,Child Care
3240,purple_binder_early_childhood.csv, Onward Neighborhood House - After School,2158 W Ohio Street ,60612,2437920,,,,,,,,,,,,,,,,,,,,,,,,,,Child Care
3241,purple_binder_early_childhood.csv, Our Lady of Guadalupe Early Childhood Center,9129 S Burley Avenue ,60617,9785320,,,,,,,,,,,,,,,,,,,,,,,,,,Child Care
3242,purple_binder_early_childhood.csv, Our Lady of Lourdes Early Childhood Center,1449 S Keeler Avenue ,60623,5213126,,,,,,,,,,,,,,,,,,,,,,,,,,Child Care
3243,purple_binder_early_childhood.csv, Our Lady of Tepeyac Early Childhood Center,2414 S Albany Avenue ,60623,2775888,,,,,,,,,,,,,,,,,,,,,,,,,,Child Care
3244,purple_binder_early_childhood.csv, Progressive Community Center,56 E 48th Street ,60615,9246564,,,,,,,,,,,,,,,,,,,,,,,,,,Child Care
3245,purple_binder_early_childhood.csv, Resurrection Child Care Center,7435 W Talcott Avenue ,60631,7925253,,,,,,,,,,,,,,,,,,,,,,,,,,Child Care
3246,purple_binder_early_childhood.csv, Resurrection Day Care Center,1849 N Hermitage Avenue ,60622,3847142,,,,,,,,,,,,,,,,,,,,,,,,,,Child Care
3247,purple_binder_early_childhood.csv, Richard J. Daley College,7500 S Pulaski Road ,60652,8387803,,,,,,,,,,,,,,,,,,,,,,,,,,Child Care
3248,purple_binder_early_childhood.csv, Rogers Park Montessori School,1800 W Balmoral Avenue ,60640,2711700,,,,,,,,,,,,,,,,,,,,,,,,,,Child Care
3249,purple_binder_early_childhood.csv, Roseland Christian Ministries Center,10858 S Michigan Avenue ,60628,2645665,,,,,,,,,,,,,,,,,,,,,,,,,,Child Care
3250,purple_binder_early_childhood.csv, Ruthie Ann's Day Care Center,423 S Central Park Avenue ,60624,7222827,,,,,,,,,,,,,,,,,,,,,,,,,,Child Care
3251,purple_binder_early_childhood.csv, Saint Bronislava Early Childhood Center,8716 S Colfax Avenue ,60617,6557305,,,,,,,,,,,,,,,,,,,,,,,,,,Child Care
3252,purple_binder_early_childhood.csv, Saint Paul's House and Health Care Center - Byron,2815 W Byron Street ,60618,5838385,,,,,,,,,,,,,,,,,,,,,,,,,,Child Care
3253,purple_binder_early_childhood.csv, Salvation Army - Child Care,1515 W Monroe Street ,60607,7332533,,,,,,,,,,,,,,,,,,,,,,,,,,Child Care
3254,purple_binder_early_childhood.csv, Salvation Army - Columbus Park School,500 S Central Avenue ,60644,9214162,,,,,,,,,,,,,,,,,,,,,,,,,,Child Care
3255,purple_binder_early_childhood.csv, Salvation Army - Chicago Temple Corps Community Center,1 N Ogden Avenue ,60607,2262649,,,,,,,,,,,,,,,,,,,,,,,,,,Child Care
3256,purple_binder_early_childhood.csv, Salvation Army - Edsel Albert Ammons Nursery,549 E 76th Street ,60619,4837040,,,,,,,,,,,,,,,,,,,,,,,,,,Child Care
3257,purple_binder_early_childhood.csv, Salvation Army - Family Outreach Initiative,845 W 69th Street ,60621,3824706,,,,,,,,,,,,,,,,,,,,,,,,,,Child Care
3258,purple_binder_early_childhood.csv, Salvation Army - New Hope School,4255 W Division Street ,60651,7224908,,,,,,,,,,,,,,,,,,,,,,,,,,Child Care
3259,purple_binder_early_childhood.csv, Salvation Army - Shiloah School,9211 S Justine Street ,60620,8814142,,,,,,,,,,,,,,,,,,,,,,,,,,Child Care
3260,purple_binder_early_childhood.csv, Sinai Preschool,15 W Delaware Place ,60610,8677010,,,,,,,,,,,,,,,,,,,,,,,,,,Child Care
3261,purple_binder_early_childhood.csv, South Central Community Service,7001 S Union Avenue ,60621,6028120,,,,,,,,,,,,,,,,,,,,,,,,,,Child Care
3262,purple_binder_early_childhood.csv, South East Asia Center,1134 W Ainslie Street ,60640,9897433,,,,,,,,,,,,,,,,,,,,,,,,,,Child Care
3263,purple_binder_early_childhood.csv, South Harper Montessori Preschool,8358 S Stony Island Avenue ,60617,7343120,,,,,,,,,,,,,,,,,,,,,,,,,,Child Care
3264,purple_binder_early_childhood.csv, South Shore Bible Baptist Church Marantha,1631 E 71st Street ,60649,4937500,,,,,,,,,,,,,,,,,,,,,,,,,,Child Care
3265,purple_binder_early_childhood.csv, South-East Asia Center,1112 W Foster Avenue ,60640,9897433,,,,,,,,,,,,,,,,,,,,,,,,,,Child Care
3266,purple_binder_early_childhood.csv, South-East Asia Center,5120 N Broadway Avenue ,60640,9896927,,,,,,,,,,,,,,,,,,,,,,,,,,Child Care
3267,purple_binder_early_childhood.csv, Sr. Bonaventure Children's Center,3522 N Central Avenue ,60634,2023540,,,,,,,,,,,,,,,,,,,,,,,,,,Child Care
3268,purple_binder_early_childhood.csv, St Augustine College - Canillatas School,1333 W Argyle Street ,60640,8783231,,,,,,,,,,,,,,,,,,,,,,,,,,Child Care
3269,purple_binder_early_childhood.csv, St. Augustine College Flamboyan,3401 W McLean Avenue ,60647,2763423,,,,,,,,,,,,,,,,,,,,,,,,,,Child Care
3270,purple_binder_early_childhood.csv, St. Paul-Chaney Ford Child Care,4528 S Wabash Avenue ,60653,2858721,,,,,,,,,,,,,,,,,,,,,,,,,,Child Care
3271,purple_binder_early_childhood.csv, St. Timothy Day Care Center,3555 W Huron Street ,60624,8541662,,,,,,,,,,,,,,,,,,,,,,,,,,Child Care
3272,purple_binder_early_childhood.csv, St. Vincent De Paul Center,2145 N Halsted Street ,60614,9436776,,,,,,,,,,,,,,,,,,,,,,,,,,Child Care
3273,purple_binder_early_childhood.csv, Sunshine Preschool,2100 W Devon Avenue ,60659,7649815,,,,,,,,,,,,,,,,,,,,,,,,,,Child Care
3274,purple_binder_early_childhood.csv, Swedish Covenant Hospital Child Care,5140 N California Avenue ,60625,9071008,,,,,,,,,,,,,,,,,,,,,,,,,,Child Care
3275,purple_binder_early_childhood.csv, Teach 21 Day Care Inc,4343 N Clarendon Avenue ,60613,2810069,,,,,,,,,,,,,,,,,,,,,,,,,,Child Care
3276,purple_binder_early_childhood.csv, The Honey Tree Child Care,201 N Clark Street Floor 2 ,60606,5539100,,,,,,,,,,,,,,,,,,,,,,,,,,Child Care
3277,purple_binder_early_childhood.csv, Thresholds - Mother's Project,1110 W Belmont Avenue ,60657,5373290,,,,,,,,,,,,,,,,,,,,,,,,,,Child Care
3278,purple_binder_early_childhood.csv, Trinity Day Care Center,532 W 95th Street ,60628,4883511,,,,,,,,,,,,,,,,,,,,,,,,,,Child Care
3279,purple_binder_early_childhood.csv, Trinity Resources Hope for Youth,5900 W Iowa Street ,60651,6260323,,,,,,,,,,,,,,,,,,,,,,,,,,Child Care
3280,purple_binder_early_childhood.csv, Trinity Resources Progressive True Vine,5035 W Ohio Street ,60644,6268254,,,,,,,,,,,,,,,,,,,,,,,,,,Child Care
3281,purple_binder_early_childhood.csv, Urban Family and Community Centers,4241 W Washington Boulevard ,60624,7228333,,,,,,,,,,,,,,,,,,,,,,,,,,Child Care
3282,purple_binder_early_childhood.csv, V and J Day Care Center,1 E 113th Street ,60628,7853940,,,,,,,,,,,,,,,,,,,,,,,,,,Child Care
3283,purple_binder_early_childhood.csv, Wayman Daycare Center,511 W Elm Street ,60610,9432120,,,,,,,,,,,,,,,,,,,,,,,,,,Child Care
3284,purple_binder_early_childhood.csv, Woodlawn AME,6456 S Evans Avenue ,60637,6671400,,,,,,,,,,,,,,,,,,,,,,,,,,Child Care
3285,purple_binder_early_childhood.csv, Woodlawn Organization,6040 S Harper Avenue ,60637,2885840,,,,,,,,,,,,,,,,,,,,,,,,,,Child Care
3286,purple_binder_early_childhood.csv, Woodlawn Organization - Early Childhood Development Center,6450 S Champlain Avenue ,60637,3631238,,,,,,,,,,,,,,,,,,,,,,,,,,Child Care
3287,purple_binder_early_childhood.csv, Woodlawn Organization - Early Childhood Development Center,950 E 61st Street ,60637,6673300,,,,,,,,,,,,,,,,,,,,,,,,,,Child Care
3288,purple_binder_early_childhood.csv, Woodlawn T.W.O. Infant Toddler School,1445 E 65th Street ,60637,3245880,,,,,,,,,,,,,,,,,,,,,,,,,,Child Care
3289,purple_binder_early_childhood.csv, YMCA Austin School,501 N Central Avenue ,60644,2879120,,,,,,,,,,,,,,,,,,,,,,,,,,Child Care
3290,purple_binder_early_childhood.csv, YMCA Bowen School,2710 E 89th Street ,60617,9330166,,,,,,,,,,,,,,,,,,,,,,,,,,Child Care
3291,purple_binder_early_childhood.csv, YMCA Duncan School,1001 W Roosevelt Road ,60608,7385456,,,,,,,,,,,,,,,,,,,,,,,,,,Child Care
3292,purple_binder_early_childhood.csv, YMCA Garfield School,7 N Homan Avenue ,60624,2653900,,,,,,,,,,,,,,,,,,,,,,,,,,Child Care
3293,purple_binder_early_childhood.csv, YMCA McCormick Tribune School,1834 N Lawndale Avenue ,60647,2352525,,,,,,,,,,,,,,,,,,,,,,,,,,Child Care
3294,purple_binder_early_childhood.csv, YMCA North Lawndale,3449 W Arthington Street ,60624,6380773,,,,,,,,,,,,,,,,,,,,,,,,,,Child Care
3295,purple_binder_early_childhood.csv, YMCA South Chicago II,8902 S Brandon Avenue ,60617,7217230,,,,,,,,,,,,,,,,,,,,,,,,,,Child Care
3296,purple_binder_early_childhood.csv, YMCA South Chicago School,3039 E 91st Street ,60617,7219100,,,,,,,,,,,,,,,,,,,,,,,,,,Child Care
3297,purple_binder_early_childhood.csv, YMCA South Side,6330 S Stony Island Avenue ,60637,9470700,,,,,,,,,,,,,,,,,,,,,,,,,,Child Care
3298,purple_binder_early_childhood.csv, YMCA Wabash,3763 S Wabash Avenue ,60653,2850020,,,,,,,,,,,,,,,,,,,,,,,,,,Child Care
3299,purple_binder_early_childhood.csv, YMCA West Side,5080 W Harrison Street ,60644,9553100,,,,,,,,,,,,,,,,,,,,,,,,,,Child Care
3300,purple_binder_early_childhood.csv, YWCA Metropolitan Chicago,360 N Michigan Avenue ,60601,3726600,,,,,,,,,,,,,,,,,,,,,,,,,,Child Care
3301,purple_binder_early_childhood.csv, Beasley,5255 S State Street ,60609,5351230,,,,,,,,,,,,,,,,,,,,,,,,,,Child Parent Center
3302,purple_binder_early_childhood.csv, Delano,3905 W Wilcox Street ,60624,5346450,,,,,,,,,,,,,,,,,,,,,,,,,,Child Parent Center
3303,purple_binder_early_childhood.csv, Dewey,638 W 54th Place ,60609,5351671,,,,,,,,,,,,,,,,,,,,,,,,,,Child Parent Center
3304,purple_binder_early_childhood.csv, Ferguson CPC,1420 N Hudson Avenue ,60610,5348580,,,,,,,,,,,,,,,,,,,,,,,,,,Child Parent Center
3305,purple_binder_early_childhood.csv, Hansberry,4055 W Arthington Street ,60624,5346931,,,,,,,,,,,,,,,,,,,,,,,,,,Child Parent Center
3306,purple_binder_early_childhood.csv, Herzl CPC,1401 S Hamlin Avenue ,60623,5341751,,,,,,,,,,,,,,,,,,,,,,,,,,Child Parent Center
3307,purple_binder_early_childhood.csv, Overton,4935 S Indiana Avenue ,60615,5351811,,,,,,,,,,,,,,,,,,,,,,,,,,Child Parent Center
3308,purple_binder_early_childhood.csv, Parker,328 W 69th Street ,60621,5353853,,,,,,,,,,,,,,,,,,,,,,,,,,Child Parent Center
3309,purple_binder_early_childhood.csv, Von Humboldt,1345 N Rockwell Street ,60622,5344668,,,,,,,,,,,,,,,,,,,,,,,,,,Child Parent Center
3310,purple_binder_early_childhood.csv, Wheatley,902 E 133rd Place ,60627,5355718,,,,,,,,,,,,,,,,,,,,,,,,,,Child Parent Center
3311,purple_binder_early_childhood.csv, Carole Robertson Center For Learning,3701 W Ogden Avenue ,60623,5228400,,,,,,,,,,,,,,,,,,,,,,,,,,Early Head Start
3312,purple_binder_early_childhood.csv, Carole Robertson Center For Learning,2929 W 19th Street ,60623,5211600,,,,,,,,,,,,,,,,,,,,,,,,,,Early Head Start
3313,purple_binder_early_childhood.csv, Catholic Charities Chicago - Chicago Lawn,3001 W 59th Street ,60629,9251085,,,,,,,,,,,,,,,,,,,,,,,,,,Early Head Start
3314,purple_binder_early_childhood.csv, Centers for New Horizons - Altgeld,941 E 132nd Street ,60627,4683055,,,,,,,,,,,,,,,,,,,,,,,,,,Early Head Start
3315,purple_binder_early_childhood.csv, Diversey Day Care,3003 W Touhy Avenue ,60647,3427777,,,,,,,,,,,,,,,,,,,,,,,,,,Early Head Start
3316,purple_binder_early_childhood.csv, El Hogar Del Nino,1718 S Loomis Street ,60608,5639796,,,,,,,,,,,,,,,,,,,,,,,,,,Early Head Start
3317,purple_binder_early_childhood.csv, Erie Neighborhood House,1347 W Erie Street ,60642,6663430,,,,,,,,,,,,,,,,,,,,,,,,,,Early Head Start
3318,purple_binder_early_childhood.csv, Firman Community Services - Early Beginnings,4705 S State Street ,60609,,,,,,,,,,,,,,,,,,,,,,,,,,,Early Head Start
3319,purple_binder_early_childhood.csv, First Start Children's Academy,4753 W Washington Boulevard ,60644,3794928,,,,,,,,,,,,,,,,,,,,,,,,,,Early Head Start
3320,purple_binder_early_childhood.csv, Gads Hill Center - Sinai Community Institute,2653 W Ogden Avenue ,60608,5211196,,,,,,,,,,,,,,,,,,,,,,,,,,Early Head Start
3321,purple_binder_early_childhood.csv, Hektoen Institute,1900 W Polk Street ,60612,8646560,,,,,,,,,,,,,,,,,,,,,,,,,,Early Head Start
3322,purple_binder_early_childhood.csv, Henry Booth House - Allison's Infant & Toddler Center,234 E 114th Street ,60628,8404502,,,,,,,,,,,,,,,,,,,,,,,,,,Early Head Start
3323,purple_binder_early_childhood.csv, Marcy Newberry Association,1073 W Maxwell Street ,60608,8297555,,,,,,,,,,,,,,,,,,,,,,,,,,Early Head Start
3324,purple_binder_early_childhood.csv, Marcy Newberry Association,1312 S Racine Avenue ,60608,7466024,,,,,,,,,,,,,,,,,,,,,,,,,,Early Head Start
3325,purple_binder_early_childhood.csv, North Avenue Day Nursery,2001 W Pierce Street ,60622,3424499,,,,,,,,,,,,,,,,,,,,,,,,,,Early Head Start
3326,purple_binder_early_childhood.csv, North Avenue Day Nursery,4339 W McLean Avenue ,60639,,,,,,,,,,,,,,,,,,,,,,,,,,,Early Head Start
3327,purple_binder_early_childhood.csv, Precious Infants & Tots Learning Center,624 E 47th Street ,60653,2682685,,,,,,,,,,,,,,,,,,,,,,,,,,Early Head Start
3328,purple_binder_early_childhood.csv, Rachel's Learning Center #1,3430 W Roosevelt Road ,60624,5330444,,,,,,,,,,,,,,,,,,,,,,,,,,Early Head Start
3329,purple_binder_early_childhood.csv, Rachel's Learning Center #2,5242 W North Avenue ,60639,2371444,,,,,,,,,,,,,,,,,,,,,,,,,,Early Head Start
3330,purple_binder_early_childhood.csv, Salvation Army,1631 E 71st Street ,60649,4937500,,,,,,,,,,,,,,,,,,,,,,,,,,Early Head Start
3331,purple_binder_early_childhood.csv, Whiz Kids Nursery Center,518 W 103rd Street ,60628,2339445,,,,,,,,,,,,,,,,,,,,,,,,,,Early Head Start
3332,purple_binder_early_childhood.csv, YMCA Garfield,7 N Homan Avenue ,60624,2653900,,,,,,,,,,,,,,,,,,,,,,,,,,Early Head Start
3333,purple_binder_early_childhood.csv, YMCA Marshall,3250 W Adams Street ,60624,2650145,,,,,,,,,,,,,,,,,,,,,,,,,,Early Head Start
3334,purple_binder_early_childhood.csv, YMCA North Lawndale,3449 W Arthington Street ,60624,6380773,,,,,,,,,,,,,,,,,,,,,,,,,,Early Head Start
3335,purple_binder_early_childhood.csv, C.C.C. Learning Center,219 S Dearborn Street ,60605,3538687,,,,,,,,,,,,,,,,,,,,,,,,,,Child Care
3336,purple_binder_early_childhood.csv, Haymarket Center,932 W. Washington Blvd ,60607,2267984,,,,,,,,,,,,,,,,,,,,,,,,,,Early Head Start
