Id,Source,Site name,Address,Zip,Phone,Fax,Program Name,Length of Day,IDHS Provider ID,Agency,Neighborhood,Funded Enrollment,Program Option,Number per Site EHS,Number per Site HS,Director,Head Start Fund,Eearly Head Start Fund,CC fund,Progmod,Website,Executive Director,Center Director,ECE Available Programs,NAEYC Valid Until,NAEYC Program Id,Email Address,Ounce of Prevention Description,Purple binder service type,Column,Column2
1904,DFSS_AgencySiteLies_2012.csv,Abraham Lincoln Center Abraham-Lincoln,3858 S. Cottage Grove ,60654,2851390,,,,,,,Abraham Lincoln Center,,,,,,,,,,,www.abelink.org,Zirl Smith,Rosalyn Lee,,,,,,
1905,DFSS_AgencySiteLies_2012.csv,Abraham Lincoln Center Lincoln Roseland,7 E. 119th St. ,60628,2647633,,,,,,,Abraham Lincoln Center,,,,,,,,,,,www.abelink.org,Zirl Smith,Barbara Woods,,,,,,
1906,DFSS_AgencySiteLies_2012.csv,Abraham Lincoln Center Lincoln/King,4314 S. Cottage Grove ,60653,7472310,,,,,,,Abraham Lincoln Center,,,,,,,,,,,www.abelink.org,Zirl Smith,Keita King,,,,,,
1907,DFSS_AgencySiteLies_2012.csv,"Ada S. McKinley
Community Services Albany Location",5954 S Albany ,60629,7377810,,,,,,,"Ada S. McKinley
Community Services",,,,,,,,,,,www.adasmckinley.org,"George Jones, Jr.",Mildred Burnside,,,,,,
1908,DFSS_AgencySiteLies_2012.csv,"Ada S. McKinley
Community Services Children's Center (Halsted)",12803 S Halsted ,60628,2645171,,,,,,,"Ada S. McKinley
Community Services",,,,,,,,,,,www.adasmckinley.org,"George Jones, Jr.",Rosalyn Patton,,,,,,
1909,DFSS_AgencySiteLies_2012.csv,"Ada S. McKinley
Community Services Little Genius",11439 S Michigan Ave. ,60628,6298091,,,,,,,"Ada S. McKinley
Community Services",,,,,,,,,,,www.adasmckinley.org,"George Jones, Jr.",Vera Webbs,,,,,,
1910,DFSS_AgencySiteLies_2012.csv,"Ada S. McKinley
Community Services Little Hands",7146 S Ashland Ave. ,60636,4710662,,,,,,,"Ada S. McKinley
Community Services",,,,,,,,,,,www.adasmckinley.org,"George Jones, Jr.",Lafredia Hobson,,,,,,
1911,DFSS_AgencySiteLies_2012.csv,"Ada S. McKinley
Community Services McKinley-Ersula Howard",7222 S. Exchange ,60649,2219711,,,,,,,"Ada S. McKinley
Community Services",,,,,,,,,,,www.adasmckinley.org,"George Jones, Jr.",Joni Rudds,,,,,,
1912,DFSS_AgencySiteLies_2012.csv,"Ada S. McKinley
Community Services McKinley-Maggie Drummond",4301 S. Wabash ,60653,3738200,,,,,,,"Ada S. McKinley
Community Services",,,,,,,,,,,www.adasmckinley.org,"George Jones, Jr.",Lyris Clark,,,,,,
1913,DFSS_AgencySiteLies_2012.csv,"Ada S. McKinley
Community Services McKinley-Roseland",11410 S. Edbrooke ,60628,4681918,,,,,,,"Ada S. McKinley
Community Services",,,,,,,,,,,www.adasmckinley.org,"George Jones, Jr.",Anna Luna,,,,,,
1914,DFSS_AgencySiteLies_2012.csv,"Ada S. McKinley
Community Services McKinley-Trumbull Park",10530 S. Oglesby ,60617,9785341,,,,,,,"Ada S. McKinley
Community Services",,,,,,,,,,,www.adasmckinley.org,"George Jones, Jr.",Damita Collins,,,,,,
1915,DFSS_AgencySiteLies_2012.csv,"Ada S. McKinley
Community Services McKinley-Wright Renaissance",7939 S. Western ,60620,4768805,,,,,,,"Ada S. McKinley
Community Services",,,,,,,,,,,www.adasmckinley.org,"George Jones, Jr.",Corllis Wright,,,,,,
1916,DFSS_AgencySiteLies_2012.csv,"Ada S. McKinley
Community Services Montessori Academy",11025 S Halsted Ave. ,60628,2810069,,,,,,,"Ada S. McKinley
Community Services",,,,,,,,,,,www.adasmckinley.org,"George Jones, Jr.",Gloria Walker,,,,,,
1917,DFSS_AgencySiteLies_2012.csv,"Ada S. McKinley
Community Services Stepping Stones CCC",1300 E 75th St. ,60619,4930000,,,,,,,"Ada S. McKinley
Community Services",,,,,,,,,,,www.adasmckinley.org,"George Jones, Jr.",Dr. Nelda Jones,,,,,,
1918,DFSS_AgencySiteLies_2012.csv,"Albany Park Community
Center Ainslie",3401 W. Ainslie ,60625,5395907,,,,,,,"Albany Park Community
Center",,,,,,,,,,,www.apcc-chgo.org,Harold Rice,John DeJulio,,,,,,
1919,DFSS_AgencySiteLies_2012.csv,"Albany Park Community
Center Kimball",5121 N. Kimball ,60625,5095657,,,,,,,"Albany Park Community
Center",,,,,,,,,,,www.apcc-chgo.org,Harold Rice,Eve Volin,,,,,,
1920,DFSS_AgencySiteLies_2012.csv,"Appeal for Charities and
Goodwill Appeals for Charities",50 W. 71st St ,60621,6515400,,,,,,,"Appeal for Charities and
Goodwill",,,,,,,,,,,,P.A. Onsei-Bonsu,Charlotte Osei-Bonsu,,,,,,
1921,DFSS_AgencySiteLies_2012.csv,BBF Family Services BBF Family Service,1512 S. Pulaski ,60623,2779582,,,,,,,BBF Family Services,,,,,,,,,,,www.betterboys.org,,,,,,,,
1922,DFSS_AgencySiteLies_2012.csv,Beacon Therapeutic Beacon Therapeutic,1912 W 103rd St ,60643,2981243,,,,,,,Beacon Therapeutic,,,,,,,,,,,www.beacon-therapeutic.org,Susan Reyna-Guerrero,Susan Reyna-Guerrero,,,,,,
1923,DFSS_AgencySiteLies_2012.csv,"Board Trustees-City
Colleges of Chicago Daley College",7500 S Pulaski Rd. ,60652,8387562,,,,,,,"Board Trustees-City
Colleges of Chicago",,,,,,,,,,,www.ccc.edu,Phyllis Daniels-Ward,Marcey Reyes,,,,,,
1924,DFSS_AgencySiteLies_2012.csv,"Board Trustees-City
Colleges of Chicago Kennedy-King College",710 W 65th Building Z ,60621,6025481,,,,,,,"Board Trustees-City
Colleges of Chicago",,,,,,,,,,,www.ccc.edu,Phyllis Daniels-Ward,Guadalupe Pacias,,,,,,
1925,DFSS_AgencySiteLies_2012.csv,"Board Trustees-City
Colleges of Chicago Malcolm X College",1900 W. Van Buren ,60612,8507176,,,,,,,"Board Trustees-City
Colleges of Chicago",,,,,,,,,,,www.ccc.edu,Phyllis Daniels-Ward,Aisha Ruther,,,,,,
1926,DFSS_AgencySiteLies_2012.csv,"Board Trustees-City
Colleges of Chicago Olive-Harvey College",10001 S. Woodlawn ,60628,2916317,,,,,,,"Board Trustees-City
Colleges of Chicago",,,,,,,,,,,www.ccc.edu,Phyllis Daniels-Ward,Tiffany Carter,,,,,,
1927,DFSS_AgencySiteLies_2012.csv,"Board Trustees-City
Colleges of Chicago Truman College",1145 W. Wilson Ave ,60640,8784740,,,,,,,"Board Trustees-City
Colleges of Chicago",,,,,,,,,,,www.ccc.edu,Phyllis Daniels-Ward,Dexter Smith,,,,,,
1928,DFSS_AgencySiteLies_2012.csv,"Carole Robertson Center
For Learning Carole  Robertson Center-2929",2929 W. 19th St. ,60623,5211600,,,,,,,"Carole Robertson Center
For Learning",,,,,,,,,,,www.crcl.net,Gail Nelson,Ruby Walker,,,,,,
1929,DFSS_AgencySiteLies_2012.csv,"Carole Robertson Center
For Learning Carole Robertson Center -
3701(OGDEN)",3701 W. Ogden ,60623,5228400,,,,,,,"Carole Robertson Center
For Learning",,,,,,,,,,,www.crcl.net,Gail Nelson,Tracey Young,,,,,,
1930,DFSS_AgencySiteLies_2012.csv,"Carole Robertson Center
For Learning Carole Robertson Center-2020",2020 W. Roosevlet Rd ,60608,2437300,,,,,,,"Carole Robertson Center
For Learning",,,,,,,,,,,www.crcl.net,Gail Nelson,Betty Lee,,,,,,
1931,DFSS_AgencySiteLies_2012.csv,"Catholic Charities of the
Archdiocese of Chicago Chicago Lawn",3001 W. 59th St. ,60629,9251085,,,,,,,"Catholic Charities of the
Archdiocese of Chicago",,,,,,,,,,,www.catholiccharities.net,Laura Rios,Virginia Carrillo,,,,,,
1932,DFSS_AgencySiteLies_2012.csv,"Catholic Charities of the
Archdiocese of Chicago Grace Mission",5332 S. Western ,60609,4761990,,,,,,,"Catholic Charities of the
Archdiocese of Chicago",,,,,,,,,,,www.catholiccharities.net,Laura Rios,Francine Johnson,,,,,,
1933,DFSS_AgencySiteLies_2012.csv,"Catholic Charities of the
Archdiocese of Chicago Our Lady of Lourdes",1449 S. Keeler ,60623,5213126,,,,,,,"Catholic Charities of the
Archdiocese of Chicago",,,,,,,,,,,www.catholiccharities.net,Laura Rios,Deborah O'Brien,,,,,,
1934,DFSS_AgencySiteLies_2012.csv,"Catholic Charities of the
Archdiocese of Chicago Our Lady of Tepeyac",2414 S. Albany ,60623,2775888,,,,,,,"Catholic Charities of the
Archdiocese of Chicago",,,,,,,,,,,www.catholiccharities.net,Laura Rios,Petra Gutierrez,,,,,,
1935,DFSS_AgencySiteLies_2012.csv,"Catholic Charities of the
Archdiocese of Chicago St. Joseph",4800 S. Paulina ,60609,9272524,,,,,,,"Catholic Charities of the
Archdiocese of Chicago",,,,,,,,,,,www.catholiccharities.net,Laura Rios,Janice  Williams,,,,,,
1936,DFSS_AgencySiteLies_2012.csv,Centers For New Horizons Altgeld I,941 E. 132nd St. ,60627,4683055,,,,,,,Centers For New Horizons,,,,,,,,,,,www.cnh.org,"Sokoni Karanja, Pres.",Gloria Lawson,,,,,,
1937,DFSS_AgencySiteLies_2012.csv,Centers For New Horizons Effie Ellis,4301 S Cottage Grove ,60653,5489839,,,,,,,Centers For New Horizons,,,,,,,,,,,www.cnh.org,"Sokoni Karanja, Pres.",Valerie Jones,,,,,,
1938,DFSS_AgencySiteLies_2012.csv,Centers For New Horizons Ida B. Wells at Dawson,3901 S. State ,60609,5367864,,,,,,,Centers For New Horizons,,,,,,,,,,,www.cnh.org,"Sokoni Karanja, Pres.",Carolyn Terry,,,,,,
1939,DFSS_AgencySiteLies_2012.csv,Chicago Child Care Society Chicago Child Care Society,5467 S University Ave ,60615,6430452,,,,,,,Chicago Child Care Society,,,,,,,,,,,www.cccsociety.org,Pamela Flowers-Thomas,Elizabeth Rogers,,,,,,
1940,DFSS_AgencySiteLies_2012.csv,"Chicago Commons
Association A-Z Mall World",2629 S Lawndale ,60623,77352211561150,,,,,,,"Chicago Commons
Association",,,,,,,,,,,www.chicagocommons.org,Dan Valliere,,,,,,,
1941,DFSS_AgencySiteLies_2012.csv,"Chicago Commons
Association Betty's Daycare Academy",5725 W Chicago Ave ,60651,2611433,,,,,,,"Chicago Commons
Association",,,,,,,,,,,www.chicagocommons.org,Dan Valliere,Betty Hughes,,,,,,
1942,DFSS_AgencySiteLies_2012.csv,"Chicago Commons
Association Chicago Urban Daycare",1248 W 69th St ,60636,4833555,,,,,,,"Chicago Commons
Association",,,,,,,,,,,www.chicagocommons.org,Dan Valliere,Rene Jordan,,,,,,
1943,DFSS_AgencySiteLies_2012.csv,"Chicago Commons
Association Children's World",3356 S. Ashland ,60609,5230100,,,,,,,"Chicago Commons
Association",,,,,,,,,,,www.chicagocommons.org,Dan Valliere,Paula Montilla,,,,,,
1944,DFSS_AgencySiteLies_2012.csv,"Chicago Commons
Association Computer Preschool Academy",1400 W Garfield Blvd ,60609,6275000,,,,,,,"Chicago Commons
Association",,,,,,,,,,,www.chicagocommons.org,Dan Valliere,Paris Woody,,,,,,
1945,DFSS_AgencySiteLies_2012.csv,"Chicago Commons
Association Diversey Day Care","3007 W Diversey, Chicago ",60647,3427777,,,,,"Chicago Commons
Association",,,,,,,,,,,www.chicagocommons.org,Dan Valliere,Sharon Holiday,,,,,,,,
1946,DFSS_AgencySiteLies_2012.csv,"Chicago Commons
Association Eyes on the Future",6969 N. Ravenswood ,60626,9730771,,,,,,,"Chicago Commons
Association",,,,,,,,,,,www.chicagocommons.org,Dan Valliere,Azieb  Gebrehiiwet,,,,,,
1947,DFSS_AgencySiteLies_2012.csv,"Chicago Commons
Association Guadalupano Family Center",1814 S. Paulina ,60639,6663883,,,,,,,"Chicago Commons
Association",,,,,,,,,,,www.chicagocommons.org,Dan Valliere,Esmeralda Arroyo,,,,,,
1948,DFSS_AgencySiteLies_2012.csv,"Chicago Commons
Association Joyful Noise Day Care",4843 W North Ave ,60639,2525990,,,,,,,"Chicago Commons
Association",,,,,,,,,,,www.chicagocommons.org,Dan Valliere,Maria Gonzalez,,,,,,
1949,DFSS_AgencySiteLies_2012.csv,"Chicago Commons
Association Kiddie Garden Little Angels",4235 S Kedzie Ave ,60632,3928199,,,,,,,"Chicago Commons
Association",,,,,,,,,,,www.chicagocommons.org,Dan Valliere,Sandra McPherson,,,,,,
1950,DFSS_AgencySiteLies_2012.csv,"Chicago Commons
Association Kimball Day Care",1636 N Kimball Ave ,60647,2357200,,,,,,,"Chicago Commons
Association",,,,,,,,,,,www.chicagocommons.org,Dan Valliere,Alberta Varda,,,,,,
1951,DFSS_AgencySiteLies_2012.csv,"Chicago Commons
Association Little People's Day Care",7428 N Rogers Ave ,60626,7612305,,,,,,,"Chicago Commons
Association",,,,,,,,,,,www.chicagocommons.org,Dan Valliere,Reyna Nava,,,,,,
1952,DFSS_AgencySiteLies_2012.csv,"Chicago Commons
Association Los Pequenos Angelitos",3711 W 55th St ,60632,7355827,,,,,,,"Chicago Commons
Association",,,,,,,,,,,www.chicagocommons.org,Dan Valliere,Angeles Nunez,,,,,,
1953,DFSS_AgencySiteLies_2012.csv,"Chicago Commons
Association My Precious Little Angels",7012 W North Ave ,60707,6371708,,,,,,,"Chicago Commons
Association",,,,,,,,,,,www.chicagocommons.org,Dan Valliere,Doris Gadberry,,,,,,
1954,DFSS_AgencySiteLies_2012.csv,"Chicago Commons
Association Nia Family Center",744 N. Monticello ,60612,7220115,,,,,,,"Chicago Commons
Association",,,,,,,,,,,www.chicagocommons.org,Dan Valliere,Erica Barbara,,,,,,
1955,DFSS_AgencySiteLies_2012.csv,"Chicago Commons
Association Panda Montessori",6921 N. Ridge ,60645,3386755,,,,,,,"Chicago Commons
Association",,,,,,,,,,,www.chicagocommons.org,Dan Valliere,Angela Perry,,,,,,
1956,DFSS_AgencySiteLies_2012.csv,"Chicago Commons
Association Paulo Freire",1653 W. 43rd St ,60609,8266260,,,,,,,"Chicago Commons
Association",,,,,,,,,,,www.chicagocommons.org,Dan Valliere,Nilda Vargas,,,,,,
1957,DFSS_AgencySiteLies_2012.csv,"Chicago Commons
Association Rainbow Daycare",3250 W Irving Park Rd ,60618,4788182,,,,,,,"Chicago Commons
Association",,,,,,,,,,,www.chicagocommons.org,Dan Valliere,James Limson,,,,,,
1958,DFSS_AgencySiteLies_2012.csv,"Chicago Commons
Association St Catherine's - St. Lucy School",27 Washington Oak Park IL 60302,,3865286,,,,,"Chicago Commons
Association",,,,,,,,,,,www.chicagocommons.org,Dan Valliere,Sister Marion Cypser,,,,,,,,
1959,DFSS_AgencySiteLies_2012.csv,"Chicago Commons
Association Taylor Center for New
Experiences",1633 N. Hamlin ,60647,2278551,,,,,,,"Chicago Commons
Association",,,,,,,,,,,www.chicagocommons.org,Dan Valliere,Vanessa Powell,,,,,,
1960,DFSS_AgencySiteLies_2012.csv,"Chicago Commons
Association Tots Express Learning Center",1705 E 87th St ,60617,7218687,,,,,,,"Chicago Commons
Association",,,,,,,,,,,www.chicagocommons.org,Dan Valliere,Clara Cureton,,,,,,
1961,DFSS_AgencySiteLies_2012.csv,"Chicago Commons
Association V & J Day Care Center",1 E 113th St ,60628,7853940,,,,,,,"Chicago Commons
Association",,,,,,,,,,,www.chicagocommons.org,Dan Valliere,Reaver Barlow-Bell,,,,,,
1962,DFSS_AgencySiteLies_2012.csv,"Chicago Public Schools Aldridge, Ira F.",630 E. 131st St. ,60827,5355614,,,,,,,Chicago Public Schools,,,,,,,,,,,www.cps.edu,Paula Cottone,Mr. Vincent Payne,,,,,,
1963,DFSS_AgencySiteLies_2012.csv,"Chicago Public Schools Altgeld, John P.",7007 S. Loomis ,60636,5353250,,,,,,,Chicago Public Schools,,,,,,,,,,,www.cps.edu,Paula Cottone,Gloria Davis,,,,,,
1964,DFSS_AgencySiteLies_2012.csv,"Chicago Public Schools Azuela, Mariano",4707 W. Marquette ,60629,5357395,,,,,,,Chicago Public Schools,,,,,,,,,,,www.cps.edu,Paula Cottone,Carmen Navarro,,,,,,
1965,DFSS_AgencySiteLies_2012.csv,"Chicago Public Schools Barton, Clara",7650 S. Wolcott Ave ,60620,5353260,,,,,,,Chicago Public Schools,,,,,,,,,,,www.cps.edu,Paula Cottone,Mr. Frank Gettridge,,,,,,
1966,DFSS_AgencySiteLies_2012.csv,"Chicago Public Schools Beethoven, Ludwig V.",25 W. 47th St. ,60609,5351480,,,,,,,Chicago Public Schools,,,,,,,,,,,www.cps.edu,Paula Cottone,Ms. Dyrice Garner,,,,,,
1967,DFSS_AgencySiteLies_2012.csv,"Chicago Public Schools Beidler, Jacob",3151 W. Walnut ,60612,5346811,,,,,,,Chicago Public Schools,,,,,,,,,,,www.cps.edu,Paula Cottone,Mr Charles Anderson,,,,,,
1968,DFSS_AgencySiteLies_2012.csv,"Chicago Public Schools Bethune, Mary McLeod",3033  W. Arthington ,60612,5346890,,,,,,,Chicago Public Schools,,,,,,,,,,,www.cps.edu,Paula Cottone,Ms. Zipporah Hightower,,,,,,
1969,DFSS_AgencySiteLies_2012.csv,"Chicago Public Schools Bond, Carrie Jacobs","7050 S. May, Chicago ",60621,5353480,,,,,Chicago Public Schools,,,,,,,,,,,www.cps.edu,Paula Cottone,Ms. Valesta Cobbs,,,,,,,,
1970,DFSS_AgencySiteLies_2012.csv,"Chicago Public Schools Bradwell, Myra",7736 S. Burnham ,60649,5356600,,,,,,,Chicago Public Schools,,,,,,,,,,,www.cps.edu,Paula Cottone,Bennette/Kimberly Henderson,,,,,,
1971,DFSS_AgencySiteLies_2012.csv,"Chicago Public Schools Brown, Ronald",12607 S Union ,60628,5355385,,,,,,,Chicago Public Schools,,,,,,,,,,,www.cps.edu,Paula Cottone,Ms. Gale Baker,,,,,,
1972,DFSS_AgencySiteLies_2012.csv,"Chicago Public Schools Brunson Math & Science, Milton",932 N. Central ,60651,5346025,,,,,,,Chicago Public Schools,,,,,,,,,,,www.cps.edu,Paula Cottone,Carol Wilson,,,,,,
1973,DFSS_AgencySiteLies_2012.csv,"Chicago Public Schools Burke, Edmond",5356 S. King Dr ,60615,5351325,,,,,,,Chicago Public Schools,,,,,,,,,,,www.cps.edu,Paula Cottone,Nicholas Gaines,,,,,,
1974,DFSS_AgencySiteLies_2012.csv,"Chicago Public Schools Cameron, Daniel R.",1234 N. Monticello ,60651,5344290,,,,,,,Chicago Public Schools,,,,,,,,,,,www.cps.edu,Paula Cottone,Mr. Stephen D Harden,,,,,,
1975,DFSS_AgencySiteLies_2012.csv,"Chicago Public Schools Cardenas, Lazaro",2345 S. Millard ,60623,5341475,,,,,,,Chicago Public Schools,,,,,,,,,,,www.cps.edu,Paula Cottone,Dr. Jeremy Feiwell,,,,,,
1976,DFSS_AgencySiteLies_2012.csv,"Chicago Public Schools Carson, Rachel",5516 S. Mapplewood Ave ,60629,5359222,,,,,,,Chicago Public Schools,,,,,,,,,,,www.cps.edu,Paula Cottone,Javier Arriola-Lopez,,,,,,
1977,DFSS_AgencySiteLies_2012.csv,"Chicago Public Schools Cather, Willa",2908 W. Washington Blvd. ,60612,5346780,,,,,,,Chicago Public Schools,,,,,,,,,,,www.cps.edu,Paula Cottone,Ms. Hattie B. King,,,,,,
1978,DFSS_AgencySiteLies_2012.csv,"Chicago Public Schools Chalmers, Thomas",2745 W. Roosevelt ,60608,5341720,,,,,,,Chicago Public Schools,,,,,,,,,,,www.cps.edu,Paula Cottone,Mr. Kent Nolen,,,,,,
1979,DFSS_AgencySiteLies_2012.csv,Chicago Public Schools Chase Elementary,2021 N. Point St ,60647,5344185,,,,,,,Chicago Public Schools,,,,,,,,,,,www.cps.edu,Paula Cottone,Ms. Raquel Saucedo,,,,,,
1980,DFSS_AgencySiteLies_2012.csv,"Chicago Public Schools Chopin, Frederic",2450 W. Rice ,60622,5344080,,,,,,,Chicago Public Schools,,,,,,,,,,,www.cps.edu,Paula Cottone,Ms. Antuanette  Mester,,,,,,
1981,DFSS_AgencySiteLies_2012.csv,"Chicago Public Schools Claremont Math and Science
Academy",2300 W. 64th St. ,60636,5358110,,,,,,,Chicago Public Schools,,,,,,,,,,,www.cps.edu,Paula Cottone,Mrs. Rebecca L. Stinson,,,,,,
1982,DFSS_AgencySiteLies_2012.csv,"Chicago Public Schools Cockrell, Oneida",30 East 61st Street ,60637,5350650,,,,,,,Chicago Public Schools,,,,,,,,,,,www.cps.edu,Paula Cottone,Rashid Shabazz,,,,,,
1983,DFSS_AgencySiteLies_2012.csv,"Chicago Public Schools Cooper Dual Language
Academy, Peter",1624 W. 19th Street ,60608,5347205,,,,,,,Chicago Public Schools,,,,,,,,,,,www.cps.edu,Paula Cottone,Ms. Martha Monrroy,,,,,,
1984,DFSS_AgencySiteLies_2012.csv,"Chicago Public Schools Corkery, Daniel",2510 S Kildare Ave ,60623,5341650,,,,,,,Chicago Public Schools,,,,,,,,,,,www.cps.edu,Paula Cottone,Bertha Arredondo,,,,,,
1985,DFSS_AgencySiteLies_2012.csv,"Chicago Public Schools Curtis, George W.",32 East 115th Street ,60628,5355050,,,,,,,Chicago Public Schools,,,,,,,,,,,www.cps.edu,Paula Cottone,Evelyn Robbins,,,,,,
1986,DFSS_AgencySiteLies_2012.csv,"Chicago Public Schools Daley, Richard J.",5024 S Wolcott Ave ,60609,5359091,,,,,,,Chicago Public Schools,,,,,,,,,,,www.cps.edu,Paula Cottone,Rhonda Hoskins,,,,,,
1987,DFSS_AgencySiteLies_2012.csv,"Chicago Public Schools Davis, Nathan",3014 W. 39th Place ,60632,5354540,,,,,,,Chicago Public Schools,,,,,,,,,,,www.cps.edu,Paula Cottone,Mr. Santos Gomez,,,,,,
1988,DFSS_AgencySiteLies_2012.csv,"Chicago Public Schools Deneen, Charles S.",7257 S. State ,60619,5353035,,,,,,,Chicago Public Schools,,,,,,,,,,,www.cps.edu,Paula Cottone,Annise Lewis,,,,,,
1989,DFSS_AgencySiteLies_2012.csv,"Chicago Public Schools DePriest, Oscar",139 S Parkside Ave ,60639,5346800,,,,,,,Chicago Public Schools,,,,,,,,,,,www.cps.edu,Paula Cottone,Minnie Watson,,,,,,
1990,DFSS_AgencySiteLies_2012.csv,"Chicago Public Schools Dett, R. Nathaniel",2306 West Maypole ,60612,5347160,,,,,,,Chicago Public Schools,,,,,,,,,,,www.cps.edu,Paula Cottone,Ms. Deborah J. Bonner,,,,,,
1991,DFSS_AgencySiteLies_2012.csv,"Chicago Public Schools Dodge Renaissance Academy, Mary Mapes",2651 West Washington ,60612,5346640,,,,,,,Chicago Public Schools,,,,,,,,,,,www.cps.edu,Paula Cottone,Edward Morris/Debra Moriarty,,,,,,
1992,DFSS_AgencySiteLies_2012.csv,"Chicago Public Schools Doolittle, James R.",535 East 35th Street ,60653,5351040,,,,,,,Chicago Public Schools,,,,,,,,,,,www.cps.edu,Paula Cottone,Ms. Lauren Norwood,,,,,,
1993,DFSS_AgencySiteLies_2012.csv,"Chicago Public Schools Dulles, John Foster",6311 South Calumet ,60637,5350690,,,,,,,Chicago Public Schools,,,,,,,,,,,www.cps.edu,Paula Cottone,Ms. Pamela Creed,,,,,,
1994,DFSS_AgencySiteLies_2012.csv,"Chicago Public Schools Dvorak Math & Science Tech
Academy, Anton",3615 West 16th ,60623,5341690,,,,,,,Chicago Public Schools,,,,,,,,,,,www.cps.edu,Paula Cottone,Ms. Alma Thompson,,,,,,
1995,DFSS_AgencySiteLies_2012.csv,"Chicago Public Schools Eberhart, John F.",3400 W 65th Pl. ,60629,5359190,,,,,,,Chicago Public Schools,,,,,,,,,,,www.cps.edu,Paula Cottone,Nneka Gunn,,,,,,
1996,DFSS_AgencySiteLies_2012.csv,"Chicago Public Schools Edwards, Richard",4950 S. LaPorte ,60632,5352000,,,,,,,Chicago Public Schools,,,,,,,,,,,www.cps.edu,Paula Cottone,Mrs. Judith Sauri,,,,,,
1997,DFSS_AgencySiteLies_2012.csv,"Chicago Public Schools Ellington, Edward ""Duke"" K.",243 North Parkside ,60644,5346361,,,,,,,Chicago Public Schools,,,,,,,,,,,www.cps.edu,Paula Cottone,Ms. Shirley M. Scott,,,,,,
1998,DFSS_AgencySiteLies_2012.csv,Chicago Public Schools Esmond Elementary,1865 West Montvale ,60643,5352650,,,,,,,Chicago Public Schools,,,,,,,,,,,www.cps.edu,Paula Cottone,Dr. Angela Tucker,,,,,,
1999,DFSS_AgencySiteLies_2012.csv,"Chicago Public Schools Finkl, William F.",2332 S Western Ave. ,60608,5355850,,,,,,,Chicago Public Schools,,,,,,,,,,,www.cps.edu,Paula Cottone,Mr. Abelino Quintero,,,,,,
2000,DFSS_AgencySiteLies_2012.csv,"Chicago Public Schools Fiske, John",6145 South Ingleside ,60637,5350990,,,,,,,Chicago Public Schools,,,,,,,,,,,www.cps.edu,Paula Cottone,Ms. Cynthia Miller,,,,,,
2001,DFSS_AgencySiteLies_2012.csv,"Chicago Public Schools Fuller, Melville W.",4214 S. St. Lawrence ,60653,5351687,,,,,,,Chicago Public Schools,,,,,,,,,,,www.cps.edu,Paula Cottone,Ms Camilla Young,,,,,,
2002,DFSS_AgencySiteLies_2012.csv,"Chicago Public Schools Fulton, Robert",5300 S. Hermitage ,60609,5359000,,,,,,,Chicago Public Schools,,,,,,,,,,,www.cps.edu,Paula Cottone,Ms. Cherie Novak,,,,,,
2003,DFSS_AgencySiteLies_2012.csv,"Chicago Public Schools Funston, Frederick",2010 N Central Park ,60647,5344125,,,,,,,Chicago Public Schools,,,,,,,,,,,www.cps.edu,Paula Cottone,Ms. Nilma Osiecki,,,,,,
2004,DFSS_AgencySiteLies_2012.csv,"Chicago Public Schools Gale Comm. Acad., Stephen F.",1631 W. Jonquil Terrace ,60626,5342100,,,,,,,Chicago Public Schools,,,,,,,,,,,www.cps.edu,Paula Cottone,Ms. Cassandra Washington,,,,,,
2005,DFSS_AgencySiteLies_2012.csv,"Chicago Public Schools Gary, Joseph E.",3740 W. 31st St. ,60623,5341455,,,,,,,Chicago Public Schools,,,,,,,,,,,www.cps.edu,Paula Cottone,Mr. Alberto  Juarez,,,,,,
2006,DFSS_AgencySiteLies_2012.csv,"Chicago Public Schools Goldblatt, Nathan R.",4257 W. Adams ,60624,5346860,,,,,,,Chicago Public Schools,,,,,,,,,,,www.cps.edu,Paula Cottone,Ms. Yvette R. Currington,,,,,,
2007,DFSS_AgencySiteLies_2012.csv,"Chicago Public Schools Goudy, William C.",5120 N. Winthrop ,60640,5342480,,,,,,,Chicago Public Schools,,,,,,,,,,,www.cps.edu,Paula Cottone,Pamela S. Brandt,,,,,,
2008,DFSS_AgencySiteLies_2012.csv,"Chicago Public Schools Graham, Alexander",4436 S. Union ,60609,5351308,,,,,,,Chicago Public Schools,,,,,,,,,,,www.cps.edu,Paula Cottone,Mr. John Nichols,,,,,,
2009,DFSS_AgencySiteLies_2012.csv,"Chicago Public Schools Gresham, Walter Q.",8524 S. Green ,60620,5353350,,,,,,,Chicago Public Schools,,,,,,,,,,,www.cps.edu,Paula Cottone,Ms. Diedrus U. Brown,,,,,,
2010,DFSS_AgencySiteLies_2012.csv,"Chicago Public Schools Guggenheim, Simon",7141 S. Morgan St. ,60621,5353587,,,,,,,Chicago Public Schools,,,,,,,,,,,www.cps.edu,Paula Cottone,Vikki Stokes,,,,,,
2011,DFSS_AgencySiteLies_2012.csv,"Chicago Public Schools Haley, Alex",11411 S. Eggleston ,60628,5355345,,,,,,,Chicago Public Schools,,,,,,,,,,,www.cps.edu,Paula Cottone,Ms. Vaida Williams,,,,,,
2012,DFSS_AgencySiteLies_2012.csv,"Chicago Public Schools Hamline, John H",4652 S. Bishop ,60609,5354520,,,,,,,Chicago Public Schools,,,,,,,,,,,www.cps.edu,Paula Cottone,Valerie Brown,,,,,,
2013,DFSS_AgencySiteLies_2012.csv,"Chicago Public Schools Hay Comm. Academy, John",1018 N. Laramie ,60651,5346000,,,,,,,Chicago Public Schools,,,,,,,,,,,www.cps.edu,Paula Cottone,Mr. Wayne Williams,,,,,,
2014,DFSS_AgencySiteLies_2012.csv,"Chicago Public Schools Henson, Matthew A.",1326 S. Avers ,60623,5341804,,,,,,,Chicago Public Schools,,,,,,,,,,,www.cps.edu,Paula Cottone,Mr. Demetrius D. Hobson,,,,,,
2015,DFSS_AgencySiteLies_2012.csv,"Chicago Public Schools Herbert, Victor",2131 W. Monroe ,60612,5347809,,,,,,,Chicago Public Schools,,,,,,,,,,,www.cps.edu,Paula Cottone,Ms. Denise J. Gillespie,,,,,,
2016,DFSS_AgencySiteLies_2012.csv,"Chicago Public Schools Higgins C.A., Thomas J.",11710 S. Morgan ,60643,5355625,,,,,,,Chicago Public Schools,,,,,,,,,,,www.cps.edu,Paula Cottone,Dr. Mabel Alfred,,,,,,
2017,DFSS_AgencySiteLies_2012.csv,"Chicago Public Schools Hinton, William Augustus",644 W. 71st Street ,60621,5353875,,,,,,,Chicago Public Schools,,,,,,,,,,,www.cps.edu,Paula Cottone,Ms. Pamela Brunson-Allen,,,,,,
2018,DFSS_AgencySiteLies_2012.csv,"Chicago Public Schools Holmes, Oliver Wendell",955 W. Garfield ,60621,5359025,,,,,,,Chicago Public Schools,,,,,,,,,,,www.cps.edu,Paula Cottone,Ms. Angela L. Thomas,,,,,,
2019,DFSS_AgencySiteLies_2012.csv,"Chicago Public Schools Hughes, Langston",240 W. 104th St. ,60628,5355075,,,,,,,Chicago Public Schools,,,,,,,,,,,www.cps.edu,Paula Cottone,Anita Muse,,,,,,
2020,DFSS_AgencySiteLies_2012.csv,"Chicago Public Schools Hurley, Edward N.",3849 W. 69th Place ,60629,5352068,,,,,,,Chicago Public Schools,,,,,,,,,,,www.cps.edu,Paula Cottone,Mrs. Dolores  Cupp,,,,,,
2021,DFSS_AgencySiteLies_2012.csv,"Chicago Public Schools Jenner Academy of the Arts, Edward",1119 N. Cleveland ,60610,5348440,,,,,,,Chicago Public Schools,,,,,,,,,,,www.cps.edu,Paula Cottone,Ms. Berlinder Fry,,,,,,
2022,DFSS_AgencySiteLies_2012.csv,"Chicago Public Schools Johnson, James Weldon",1420 S. Albany ,60623,5341829,,,,,,,Chicago Public Schools,,,,,,,,,,,www.cps.edu,Paula Cottone,Ms. Alice F. Henry,,,,,,
2023,DFSS_AgencySiteLies_2012.csv,Chicago Public Schools Jordan Comm.,7414 North Wolcott ,60626,5342220,,,,,,,Chicago Public Schools,,,,,,,,,,,www.cps.edu,Paula Cottone,Willie  White,,,,,,
2024,DFSS_AgencySiteLies_2012.csv,"Chicago Public Schools Jungman, Joseph",1746 S. Miller ,60608,5347375,,,,,,,Chicago Public Schools,,,,,,,,,,,www.cps.edu,Paula Cottone,Mrs. Zaida Hernandez,,,,,,
2025,DFSS_AgencySiteLies_2012.csv,"Chicago Public Schools Kershaw, Joshua D.",6450 S. Lowe ,60621,5353050,,,,,,,Chicago Public Schools,,,,,,,,,,,www.cps.edu,Paula Cottone,Veronica Nash,,,,,,
2026,DFSS_AgencySiteLies_2012.csv,"Chicago Public Schools Kohn, Alfred David",10414 S. State ,60628,5355489,,,,,,,Chicago Public Schools,,,,,,,,,,,www.cps.edu,Paula Cottone,Kimberly Moore,,,,,,
2027,DFSS_AgencySiteLies_2012.csv,"Chicago Public Schools Lafayette, Jean De",2714 W. Augusta Blvd. ,60622,5344326,,,,,,,Chicago Public Schools,,,,,,,,,,,www.cps.edu,Paula Cottone,Mrs. Trisha Shrode,,,,,,
2028,DFSS_AgencySiteLies_2012.csv,"Chicago Public Schools Lavizzo, Mildred I.",138 W. 109th St ,60628,5355300,,,,,,,Chicago Public Schools,,,,,,,,,,,www.cps.edu,Paula Cottone,Mrs.Tracey Stelly,,,,,,
2029,DFSS_AgencySiteLies_2012.csv,Chicago Public Schools Lawndale Comm. Academy,3500 W. Douglas Blvd ,60623,5341635,,,,,,,Chicago Public Schools,,,,,,,,,,,www.cps.edu,Paula Cottone,Mr. Wilard Willette,,,,,,
2030,DFSS_AgencySiteLies_2012.csv,"Chicago Public Schools Linne, Carl Von",3221 N. Sacramento ,60618,5345262,,,,,,,Chicago Public Schools,,,,,,,,,,,www.cps.edu,Paula Cottone,Ms. Renee P. Mackin,,,,,,
2031,DFSS_AgencySiteLies_2012.csv,Chicago Public Schools Little Village,2620 S Lawndale Ave ,60623,5341880,,,,,,,Chicago Public Schools,,,,,,,,,,,www.cps.edu,Paula Cottone,Elsa Carmona,,,,,,
2032,DFSS_AgencySiteLies_2012.csv,"Chicago Public Schools Lloyd, Henry D.",2103 N. Lamon Av ,60639,5343070,,,,,,,Chicago Public Schools,,,,,,,,,,,www.cps.edu,Paula Cottone,Mr. Kiltae Kim,,,,,,
2033,DFSS_AgencySiteLies_2012.csv,"Chicago Public Schools Madison, James",7433 S. Dorchester ,60619,5350551,,,,,,,Chicago Public Schools,,,,,,,,,,,www.cps.edu,Paula Cottone,Dr. Beverly J. Greene,,,,,,
2034,DFSS_AgencySiteLies_2012.csv,"Chicago Public Schools Mason, Roswell B.",4216 W. 19th St ,60623,5341530,,,,,,,Chicago Public Schools,,,,,,,,,,,www.cps.edu,Paula Cottone,Ms. Tonya Tolbert,,,,,,
2035,DFSS_AgencySiteLies_2012.csv,"Chicago Public Schools May Community Academy, Horatio",512 S. Lavergne ,60644,5346140,,,,,,,Chicago Public Schools,,,,,,,,,,,www.cps.edu,Paula Cottone,Roger Lewis,,,,,,
2036,DFSS_AgencySiteLies_2012.csv,"Chicago Public Schools Mayo, William J. & Charles H.",249 E. 37th St ,60653,5351260,,,,,,,Chicago Public Schools,,,,,,,,,,,www.cps.edu,Paula Cottone,Stephen Bournes,,,,,,
2037,DFSS_AgencySiteLies_2012.csv,"Chicago Public Schools McClellan, George B.",3527 S. Wallace ,60609,5351732,,,,,,,Chicago Public Schools,,,,,,,,,,,www.cps.edu,Paula Cottone,Joseph Shoffner,,,,,,
2038,DFSS_AgencySiteLies_2012.csv,"Chicago Public Schools McCormick, Cyrus H.",2712 S Sawyer Ave. ,60623,5357252,,,,,,,Chicago Public Schools,,,,,,,,,,,www.cps.edu,Paula Cottone,Ms. Cristina Romo,,,,,,
2039,DFSS_AgencySiteLies_2012.csv,"Chicago Public Schools McCutcheon Main, John T.",4846 N. Sheridan ,60640,5342680,,,,,,,Chicago Public Schools,,,,,,,,,,,www.cps.edu,Paula Cottone,Dr. Carol Ann Lang,,,,,,
2040,DFSS_AgencySiteLies_2012.csv,"Chicago Public Schools McDowell, Mary E.",1419 E. 89th St. ,60619,5356404,,,,,,,Chicago Public Schools,,,,,,,,,,,www.cps.edu,Paula Cottone,Dr. Jo La Tanya Easterling-Hood,,,,,,
2041,DFSS_AgencySiteLies_2012.csv,"Chicago Public Schools McKay, Francis M.",7060 S. Washtenaw ,60629,5359340,,,,,,,Chicago Public Schools,,,,,,,,,,,www.cps.edu,Paula Cottone,Mrs. Dawn Prather-Hawk,,,,,,
2042,DFSS_AgencySiteLies_2012.csv,"Chicago Public Schools McNair Academy Center, Ronald
E.",4820 W. Walton ,60651,5348980,,,,,,,Chicago Public Schools,,,,,,,,,,,www.cps.edu,Paula Cottone,Dr. Shirley Dillard,,,,,,
2043,DFSS_AgencySiteLies_2012.csv,"Chicago Public Schools McPherson, James B.",4728 N. Wolcott Av ,60640,5342625,,,,,,,Chicago Public Schools,,,,,,,,,,,www.cps.edu,Paula Cottone,Ms. Carmen A. Mendoza,,,,,,
2044,DFSS_AgencySiteLies_2012.csv,"Chicago Public Schools Monroe, James",3651 W. Schubert Ave ,60647,5344155,,,,,,,Chicago Public Schools,,,,,,,,,,,www.cps.edu,Paula Cottone,Mr. Edwin Rivera,,,,,,
2045,DFSS_AgencySiteLies_2012.csv,"Chicago Public Schools Morgan, Garrett A.",8407 S. Kerfoot ,60620,5353366,,,,,,,Chicago Public Schools,,,,,,,,,,,www.cps.edu,Paula Cottone,Jerrold Washington,,,,,,
2046,DFSS_AgencySiteLies_2012.csv,Chicago Public Schools Morton Career Academy,431 N.Troy ,60612,5346791,,,,,,,Chicago Public Schools,,,,,,,,,,,www.cps.edu,Paula Cottone,Ms. Angel L. Turner,,,,,,
2047,DFSS_AgencySiteLies_2012.csv,"Chicago Public Schools N.T.A. (National Teachers
Academy)",55 W. Cermak ,60616,5349970,,,,,,,Chicago Public Schools,,,,,,,,,,,www.cps.edu,Paula Cottone,Ms. Amy G. Rome,,,,,,
2048,DFSS_AgencySiteLies_2012.csv,"Chicago Public Schools Nash, Henry H.",4837 W. Erie St. ,60644,5346125,,,,,,,Chicago Public Schools,,,,,,,,,,,www.cps.edu,Paula Cottone,Ms. Tresa D. Dunbar,,,,,,
2049,DFSS_AgencySiteLies_2012.csv,Chicago Public Schools New Field Primary School,1707 W. Morse ,60626,5342760,,,,,,,Chicago Public Schools,,,,,,,,,,,www.cps.edu,Paula Cottone,Ms. Susan M. Kilbane,,,,,,
2050,DFSS_AgencySiteLies_2012.csv,Chicago Public Schools Nicholson Math and Science,6006 S Peoria St ,60621,5353285,,,,,,,Chicago Public Schools,,,,,,,,,,,www.cps.edu,Paula Cottone,Mr. Rodney L. Hull,,,,,,
2051,DFSS_AgencySiteLies_2012.csv,"Chicago Public Schools Nixon, William P.",2121 N Keeler Ave. ,60639,5344375,,,,,,,Chicago Public Schools,,,,,,,,,,,www.cps.edu,Paula Cottone,Herman Escobar,,,,,,
2052,DFSS_AgencySiteLies_2012.csv,"Chicago Public Schools O'Keeffe, Isabell C.",6940 S. Merrill ,60649,5350600,,,,,,,Chicago Public Schools,,,,,,,,,,,www.cps.edu,Paula Cottone,Stephen Parker,,,,,,
2053,DFSS_AgencySiteLies_2012.csv,"Chicago Public Schools O'Toole, Luke",6550 S. Seeley ,60636,5359040,,,,,,,Chicago Public Schools,,,,,,,,,,,www.cps.edu,Paula Cottone,Mr. King Hall,,,,,,
2054,DFSS_AgencySiteLies_2012.csv,"Chicago Public Schools Peabody, Elizabeth",1444 W. Augusta Blvd. ,60622,5344170,,,,,,,Chicago Public Schools,,,,,,,,,,,www.cps.edu,Paula Cottone,Mr. Federico  Flores,,,,,,
2055,DFSS_AgencySiteLies_2012.csv,Chicago Public Schools Peck School,4026 W. 59th Street ,60629,5352450,,,,,,,Chicago Public Schools,,,,,,,,,,,www.cps.edu,Paula Cottone,Okab Hassan,,,,,,
2056,DFSS_AgencySiteLies_2012.csv,"Chicago Public Schools Penn, William",1616 S. Avers ,60623,5341665,,,,,,,Chicago Public Schools,,,,,,,,,,,www.cps.edu,Paula Cottone,Mrs. Sherryl Moore-Ollie,,,,,,
2057,DFSS_AgencySiteLies_2012.csv,"Chicago Public Schools Perez, Manuel",1241 W. 19th Street ,60608,5347650,,,,,,,Chicago Public Schools,,,,,,,,,,,www.cps.edu,Paula Cottone,Ms. Vicky Kleros,,,,,,
2058,DFSS_AgencySiteLies_2012.csv,"Chicago Public Schools Piccolo Specialty School, Brian",1040 N. Keeler Avenue ,60651,5344425,,,,,,,Chicago Public Schools,,,,,,,,,,,www.cps.edu,Paula Cottone,Ms. Tiffany S. Allison,,,,,,
2059,DFSS_AgencySiteLies_2012.csv,"Chicago Public Schools Pickard, Josiah L.",2301 W. 21st Street ,60608,5357280,,,,,,,Chicago Public Schools,,,,,,,,,,,www.cps.edu,Paula Cottone,Rigo  Hernandez,,,,,,
2060,DFSS_AgencySiteLies_2012.csv,Chicago Public Schools Pilsen Comm. Academy,1420 W. 17th Street ,60608,5347675,,,,,,,Chicago Public Schools,,,,,,,,,,,www.cps.edu,Paula Cottone,Dr. Adel M. Ali,,,,,,
2061,DFSS_AgencySiteLies_2012.csv,"Chicago Public Schools Reavis, William Claude",834 E. 50th Street ,60615,5351060,,,,,,,Chicago Public Schools,,,,,,,,,,,www.cps.edu,Paula Cottone,Mr. Michael T. Johnson,,,,,,
2062,DFSS_AgencySiteLies_2012.csv,"Chicago Public Schools Revere, Paul",1010 E. 72nd Street ,60619,5350618,,,,,,,Chicago Public Schools,,,,,,,,,,,www.cps.edu,Paula Cottone,Mrs. Veronica J. Thompson,,,,,,
2063,DFSS_AgencySiteLies_2012.csv,"Chicago Public Schools Robinson, Jackie R.",4225 S. Lake Park Ave. ,60653,5351777,,,,,,,Chicago Public Schools,,,,,,,,,,,www.cps.edu,Paula Cottone,Ms. Sonja Spiller,,,,,,
2064,DFSS_AgencySiteLies_2012.csv,"Chicago Public Schools Ruggles, Martha M.",7831 S. Prairie Ave. ,60619,5353085,,,,,,,Chicago Public Schools,,,,,,,,,,,www.cps.edu,Paula Cottone,Ida Patterson,,,,,,
2065,DFSS_AgencySiteLies_2012.csv,"Chicago Public Schools Ryder, William H.",8716 S. Wallace Street ,60620,5353843,,,,,,,Chicago Public Schools,,,,,,,,,,,www.cps.edu,Paula Cottone,Mrs. Janice  Preston,,,,,,
2066,DFSS_AgencySiteLies_2012.csv,"Chicago Public Schools Ryerson, Martin A.",646 N Lawndale ,60624,5346700,,,,,,,Chicago Public Schools,,,,,,,,,,,www.cps.edu,Paula Cottone,Mr. Lorenzo Russell,,,,,,
2067,DFSS_AgencySiteLies_2012.csv,"Chicago Public Schools Sandoval, Socorro",5534 S Saint Louis Ave ,60629,5350457,,,,,,,Chicago Public Schools,,,,,,,,,,,www.cps.edu,Paula Cottone,Dr. Ana Expinoza,,,,,,
2068,DFSS_AgencySiteLies_2012.csv,"Chicago Public Schools Saucedo Scholastic Academy, Maria",2850 W. 24 th Blvd ,60623,5341770,,,,,,,Chicago Public Schools,,,,,,,,,,,www.cps.edu,Paula Cottone,Isamar Vargas Colon,,,,,,
2069,DFSS_AgencySiteLies_2012.csv,"Chicago Public Schools Seward, William H.",4600 S Hermitage Ave. ,60609,5354890,,,,,,,Chicago Public Schools,,,,,,,,,,,www.cps.edu,Paula Cottone,Nora Cardenas,,,,,,
2070,DFSS_AgencySiteLies_2012.csv,"Chicago Public Schools Sexton, Austin O.",6020 S. Langley ,60637,5350640,,,,,,,Chicago Public Schools,,,,,,,,,,,www.cps.edu,Paula Cottone,Mrs. Ginger V. Bryant,,,,,,
2071,DFSS_AgencySiteLies_2012.csv,"Chicago Public Schools Sherwood, Jessie",245 W 57th St ,60621,5350829,,,,,,,Chicago Public Schools,,,,,,,,,,,www.cps.edu,Paula Cottone,Alice Buzanis,,,,,,
2072,DFSS_AgencySiteLies_2012.csv,"Chicago Public Schools Shields, James",4250 S Rockwell St. ,60632,5357285,,,,,,,Chicago Public Schools,,,,,,,,,,,www.cps.edu,Paula Cottone,Philip Salemi,,,,,,
2073,DFSS_AgencySiteLies_2012.csv,Chicago Public Schools Songhai Learning Institute,11725 S. Perry Ave ,60628,5355547,,,,,,,Chicago Public Schools,,,,,,,,,,,www.cps.edu,Paula Cottone,Kathy Farr,,,,,,
2074,DFSS_AgencySiteLies_2012.csv,"Chicago Public Schools Spencer Math and Science
Academy",214 N. Lavergne ,60644,5346150,,,,,,,Chicago Public Schools,,,,,,,,,,,www.cps.edu,Paula Cottone,Mr. Shawn L. Jackson,,,,,,
2075,DFSS_AgencySiteLies_2012.csv,"Chicago Public Schools Stagg, Amos A.",7424 S. Morgan St. ,60621,5353565,,,,,,,Chicago Public Schools,,,,,,,,,,,www.cps.edu,Paula Cottone,Ms. Ruth A. Miller,,,,,,
2076,DFSS_AgencySiteLies_2012.csv,"Chicago Public Schools Stewart, Graeme",4525 N. Kenmore ,60640,5342640,,,,,,,Chicago Public Schools,,,,,,,,,,,www.cps.edu,Paula Cottone,Ms. Juliet Rempa,,,,,,
2077,DFSS_AgencySiteLies_2012.csv,"Chicago Public Schools Stockton, Joseph",4423 N. Magnolia ,60640,5342510,,,,,,,Chicago Public Schools,,,,,,,,,,,www.cps.edu,Paula Cottone,Ms. Jill Besenjak,,,,,,
2078,DFSS_AgencySiteLies_2012.csv,"Chicago Public Schools Stowe, Harriet Beecher",3444 W. Wabansia ,60647,5344175,,,,,,,Chicago Public Schools,,,,,,,,,,,www.cps.edu,Paula Cottone,Dr. Charles L. Kyle,,,,,,
2079,DFSS_AgencySiteLies_2012.csv,"Chicago Public Schools Tanner, Henry O.",7350 S. Evans ,60619,5353870,,,,,,,Chicago Public Schools,,,,,,,,,,,www.cps.edu,Paula Cottone,Kenndell Smith ,,,,,,
2080,DFSS_AgencySiteLies_2012.csv,"Chicago Public Schools Thomas Center, Velma",3625 S Hoyne ,60609,5354088,,,,,,,Chicago Public Schools,,,,,,,,,,,www.cps.edu,Paula Cottone,Elizabeth Najera ,,,,,,
2081,DFSS_AgencySiteLies_2012.csv,"Chicago Public Schools Thorp, James N.",8914 S Buffalo Ave. ,60617,5356250,,,,,,,Chicago Public Schools,,,,,,,,,,,www.cps.edu,Paula Cottone,Tony Fisher,,,,,,
2082,DFSS_AgencySiteLies_2012.csv,"Chicago Public Schools Ward, Laura S.",410 N. Monticello ,60624,5346440,,,,,,,Chicago Public Schools,,,,,,,,,,,www.cps.edu,Paula Cottone,Ms. Relanda Hobbs ,,,,,,
2083,DFSS_AgencySiteLies_2012.csv,"Chicago Public Schools Whittier, John Greenleaf",1900 W. 23rd St ,60608,5354590,,,,,,,Chicago Public Schools,,,,,,,,,,,www.cps.edu,Paula Cottone,Ms. Zoila Garcia ,,,,,,
2084,DFSS_AgencySiteLies_2012.csv,"Chicago Public Schools Williams, Daniel H.",2710 S. Dearborn ,60616,5349226,,,,,,,Chicago Public Schools,,,,,,,,,,,www.cps.edu,Paula Cottone,Ms. Lashonn Graham,,,,,,
2085,DFSS_AgencySiteLies_2012.csv,Chicago Public Schools Woodlawn Community School,6657 S Kimbark Ave ,60637,5350801,,,,,,,Chicago Public Schools,,,,,,,,,,,www.cps.edu,Paula Cottone,Frank Embil,,,,,,
2086,DFSS_AgencySiteLies_2012.csv,"Chicago Public Schools Woodson South, Carter G.",44511 S. Evans ,60653,5351822,,,,,,,Chicago Public Schools,,,,,,,,,,,www.cps.edu,Paula Cottone,Tamara Littlejohn ,,,,,,
2087,DFSS_AgencySiteLies_2012.csv,"Chicago Public Schools Yates, Richard",1839 N. Richmond ,60647,5344550,,,,,,,Chicago Public Schools,,,,,,,,,,,www.cps.edu,Paula Cottone,Mr. Harry Randell ,,,,,,
2088,DFSS_AgencySiteLies_2012.csv,"Chicago Public Schools Young, Ella Flagg",1434 N. Parkside ,60651,5346200,,,,,,,Chicago Public Schools,,,,,,,,,,,www.cps.edu,Paula Cottone,Ms. Crystal Bell ,,,,,,
2089,DFSS_AgencySiteLies_2012.csv,Chicago Public Schools Zapata Academy,2728 S. Kostner Ave. ,60623,5341390,,,,,,,Chicago Public Schools,,,,,,,,,,,www.cps.edu,Paula Cottone,Ms. Ruth F. Garcia,,,,,,
2090,DFSS_AgencySiteLies_2012.csv,Chicago State University Grant Creative Learning Center,4025 S Drexel Blvd. ,60653,2858440,,,,,,,Chicago State University,,,,,,,,,,,www.gamechicago.org,Grace Ratliff,Grace Ratliff,,,,,,
2091,DFSS_AgencySiteLies_2012.csv,Chicago State University Raise Up a Child,124 E. 113 St. ,60628,7851172,,,,,,,Chicago State University,,,,,,,,,,,www.gamechicago.org,Grace Ratliff,Sherrie Smith,,,,,,
2092,DFSS_AgencySiteLies_2012.csv,Chicago State University Shining Star Early Learning Academy - II,854 E 79th St ,60619,4191994,,,,,,,Chicago State University,,,,,,,,,,,www.gamechicago.org,Grace Ratliff,Shanida Wray,,,,,,
2093,DFSS_AgencySiteLies_2012.csv,Chicago State University Shining Star Early Learning Academy - III,338 E 103rd St ,60628,9957827,,,,,,,Chicago State University,,,,,,,,,,,www.gamechicago.org,Grace Ratliff,Erica Shirley ,,,,,,
2094,DFSS_AgencySiteLies_2012.csv,Chicago State University The Love Learning Center,228 E 61st St ,60637,7520243,,,,,,,Chicago State University,,,,,,,,,,,www.gamechicago.org,Grace Ratliff,Burchell Love ,,,,,,
2095,DFSS_AgencySiteLies_2012.csv,Chicago State University Tiny Tots Villa,8128 S. King Dr. ,60641,4836251,,,,,,,Chicago State University,,,,,,,,,,,www.gamechicago.org,Grace Ratliff,Judith Tyson,,,,,,
2096,DFSS_AgencySiteLies_2012.csv,Chicago Youth Centers ABC,3415 W. 13th Pl. ,60623,7625655,,,,,,,Chicago Youth Centers,,,,,,,,,,,www.chicagoyouthcenters.org,Harry Wells,Tamarra White ,,,,,,
2097,DFSS_AgencySiteLies_2012.csv,Chicago Youth Centers Centro Nuestro,3222 W. Division ,60651,4893157,,,,,,,Chicago Youth Centers,,,,,,,,,,,www.chicagoyouthcenters.org,Harry Wells,Beth Mrofcza ,,,,,,
2098,DFSS_AgencySiteLies_2012.csv,Chicago Youth Centers Cuddle Care Academy,4800 S Lake Park Ave ,60615,2851114,,,,,,,Chicago Youth Centers,,,,,,,,,,,www.chicagoyouthcenters.org,Harry Wells,Robbin Cole ,,,,,,
2099,DFSS_AgencySiteLies_2012.csv,Chicago Youth Centers Dorothy Gautreaux,975 E. 132nd St. ,60627,2911000,,,,,,,Chicago Youth Centers,,,,,,,,,,,www.chicagoyouthcenters.org,Harry Wells,Glenda Williams ,,,,,,
2100,DFSS_AgencySiteLies_2012.csv,Chicago Youth Centers Ezzard Charles School,7946 S Ashland Ave ,60620,4870227,,,,,,,Chicago Youth Centers,,,,,,,,,,,www.chicagoyouthcenters.org,Harry Wells,Eldora Davis ,,,,,,
2101,DFSS_AgencySiteLies_2012.csv,Chicago Youth Centers Fellowship House,844 W. 32nd St. ,60608,3262282,,,,,,,Chicago Youth Centers,,,,,,,,,,,www.chicagoyouthcenters.org,Harry Wells,Levory Wilder ,,,,,,
2102,DFSS_AgencySiteLies_2012.csv,Chicago Youth Centers Kids R Us,7453 S. Vincennes ,60621,8465437,,,,,,,Chicago Youth Centers,,,,,,,,,,,www.chicagoyouthcenters.org,Harry Wells,Tammy Oliver ,,,,,,
2103,DFSS_AgencySiteLies_2012.csv,Chicago Youth Centers Lotts of Love,1139 W. 79th St. ,60620,8744954,,,,,,,Chicago Youth Centers,,,,,,,,,,,www.chicagoyouthcenters.org,Harry Wells,Carol Quinn,,,,,,
2104,DFSS_AgencySiteLies_2012.csv,Chicago Youth Centers Mt. Moriah-Taylor,1501 N. Harding ,60651,2785837,,,,,,,Chicago Youth Centers,,,,,,,,,,,www.chicagoyouthcenters.org,Harry Wells,Elizabeth Heilbronn ,,,,,,
2105,DFSS_AgencySiteLies_2012.csv,Chicago Youth Centers Pathway,6535 S. Kedzie ,60629,7780017,,,,,,,Chicago Youth Centers,,,,,,,,,,,www.chicagoyouthcenters.org,Harry Wells,Tracy Baker ,,,,,,
2106,DFSS_AgencySiteLies_2012.csv,Chicago Youth Centers Pathways to Learning CC,3418 W 79th St ,60652,7765439,,,,,,,Chicago Youth Centers,,,,,,,,,,,www.chicagoyouthcenters.org,Harry Wells,Carol Quinn ,,,,,,
2107,DFSS_AgencySiteLies_2012.csv,Chicago Youth Centers Pathways to Learning CC1,3460 W. 79th St. ,60652,4369244,,,,,,,Chicago Youth Centers,,,,,,,,,,,www.chicagoyouthcenters.org,Harry Wells,Carol Quinn ,,,,,,
2108,DFSS_AgencySiteLies_2012.csv,Chicago Youth Centers Rachel's 1,3430 W. Roosevelt Rd ,60624,5330444,,,,,,,Chicago Youth Centers,,,,,,,,,,,www.chicagoyouthcenters.org,Harry Wells,Carol Quinn ,,,,,,
2109,DFSS_AgencySiteLies_2012.csv,Chicago Youth Centers Rachel's 2,5242 W. North Ave ,60639,2371444,,,,,,,Chicago Youth Centers,,,,,,,,,,,www.chicagoyouthcenters.org,Harry Wells,Carol Quinn ,,,,,,
2110,DFSS_AgencySiteLies_2012.csv,Chicago Youth Centers Rebecca Crown,7601 S. Phillips ,60649,7310444,,,,,,,Chicago Youth Centers,,,,,,,,,,,www.chicagoyouthcenters.org,Harry Wells,Eddie Wilson ,,,,,,
2111,DFSS_AgencySiteLies_2012.csv,Chicago Youth Centers Roseland Child Development,461 E. 111th St. ,60627,4684405,,,,,,,Chicago Youth Centers,,,,,,,,,,,www.chicagoyouthcenters.org,Harry Wells,Leola Clay,,,,,,
2112,DFSS_AgencySiteLies_2012.csv,Chicago Youth Centers Shining Star 1,3012-16 E. 92nd St. ,60617,9787827,,,,,,,Chicago Youth Centers,,,,,,,,,,,www.chicagoyouthcenters.org,Harry Wells,Carol Quinn,,,,,,
2113,DFSS_AgencySiteLies_2012.csv,Chinese American Service League Chinese American Service League Child Dev Ctr,2141 S. Tan Court ,60616,7910454,,,,,,,Chinese American Service League,,,,,,,,,,,www.caslservice.org,Esther Wong,Brenda Arksey,,,,,,
2114,DFSS_AgencySiteLies_2012.csv,Christopher House Greenview,2507 N. Greenview ,60614,4721083,,,,,,,Christopher House,,,,,,,,,,,www.christopherhouse.org,Lori Baas,Aimee Washington,,,,,,
2115,DFSS_AgencySiteLies_2012.csv,Christopher House Logan Square,3255 W. Altgeld ,60647,2354073,,,,,,,Christopher House,,,,,,,,,,,www.christopherhouse.org,Lori Baas,Carmen Velez,,,,,,
2116,DFSS_AgencySiteLies_2012.csv,Christopher House Rogers Park,7059 N. Greenview ,60626,2745477,,,,,,,Christopher House,,,,,,,,,,,www.christopherhouse.org,Lori Baas,Atena Danner-McPhaden,,,,,,
2117,DFSS_AgencySiteLies_2012.csv,Christopher House Uptown,4701 N. Winthrop ,60640,7694540,,,,,,,Christopher House,,,,,,,,,,,www.christopherhouse.org,Lori Baas,Karen Ross William,,,,,,
2118,DFSS_AgencySiteLies_2012.csv,Church of God True Believers CHURCH OF GOD COMMUNITY DAY CARE,1738 W. Marquette St. ,60636,4769562,,,,,,,Church of God True Believers,,,,,,,,,,,,Rev. Sheila Sims,Rev. Sheila Sims,,,,,,
2119,DFSS_AgencySiteLies_2012.csv,Community Learning Center Community Learning Center,10612 S. Wentworth ,60628,9284104,,,,,,,Community Learning Center,,,,,,,,,,,,Wanda Avery,Wanda Avery,,,,,,
2120,DFSS_AgencySiteLies_2012.csv,Dorothy Sutton Branch Dorothy Sutton Branch,8601 S. State St ,60619,7234445,,,,,,,Dorothy Sutton Branch,,,,,,,,,,,,Ola Kirksey,Ms. Ola Kirksey,,,,,,
2121,DFSS_AgencySiteLies_2012.csv,Easter Seals Society of Metropolitan Chicago Allison's Infant & Toddler Center,234 E 114th St ,60628,8404502,,,,,,,Easter Seals Society of Metropolitan Chicago,,,,,,,,,,,www.easterseaslchicago.org,Barbara Zawacki,Allison Caldwell,,,,,,
2122,DFSS_AgencySiteLies_2012.csv,Easter Seals Society of Metropolitan Chicago Channings Child Care,5701 W Division St ,60651,4572990,,,,,,,Easter Seals Society of Metropolitan Chicago,,,,,,,,,,,www.easterseaslchicago.org,Barbara Zawacki,Ruth Kimble,,,,,,
2123,DFSS_AgencySiteLies_2012.csv,Easter Seals Society of Metropolitan Chicago Children's International Academy,5850 W. Roosevelt Rd. ,60644,2870808,,,,,,,Easter Seals Society of Metropolitan Chicago,,,,,,,,,,,www.easterseaslchicago.org,Barbara Zawacki,Gaby Servin,,,,,,
2124,DFSS_AgencySiteLies_2012.csv,Easter Seals Society of Metropolitan Chicago Chipper Preschool,8225 S Kedzie ,60652,7785757,,,,,,,Easter Seals Society of Metropolitan Chicago,,,,,,,,,,,www.easterseaslchicago.org,Barbara Zawacki,Ms.Amaryllis Nelson,,,,,,
2125,DFSS_AgencySiteLies_2012.csv,Easter Seals Society of Metropolitan Chicago FIFTH CITY,3411 W Jackson ,60624,8268686,,,,,,,Easter Seals Society of Metropolitan Chicago,,,,,,,,,,,www.easterseaslchicago.org,Barbara Zawacki,Ms.Bettie Veal,,,,,,
2126,DFSS_AgencySiteLies_2012.csv,Easter Seals Society of Metropolitan Chicago First Start Children's Academy,4753 W. Washington Blvd ,60644,3794928,,,,,,,Easter Seals Society of Metropolitan Chicago,,,,,,,,,,,www.easterseaslchicago.org,Barbara Zawacki,P. Cachet Cook,,,,,,
2127,DFSS_AgencySiteLies_2012.csv,Easter Seals Society of Metropolitan Chicago First Start Children's Academy South,5700 S Ashland Ave  1st Fl ,60636,77327770904244100,,,,,,,Easter Seals Society of Metropolitan Chicago,,,,,,,,,,,www.easterseaslchicago.org,Barbara Zawacki,Beverly Mims ,,,,,,
2128,DFSS_AgencySiteLies_2012.csv,Easter Seals Society of Metropolitan Chicago Fresh Start Day Care Center,6924 W. North Avenue ,60635,4792870,,,,,,,Easter Seals Society of Metropolitan Chicago,,,,,,,,,,,www.easterseaslchicago.org,Barbara Zawacki,Claudia Aguayo ,,,,,,
2129,DFSS_AgencySiteLies_2012.csv,Easter Seals Society of Metropolitan Chicago Gilchrist Marchman,1001 W Roosevelt Rd ,60608,4927402,,,,,,,Easter Seals Society of Metropolitan Chicago,,,,,,,,,,,www.easterseaslchicago.org,Barbara Zawacki,Morayma Cancel ,,,,,,
2130,DFSS_AgencySiteLies_2012.csv,Easter Seals Society of Metropolitan Chicago Imani's Children,11443 S Halsted St ,60628,6609667,,,,,,,Easter Seals Society of Metropolitan Chicago,,,,,,,,,,,www.easterseaslchicago.org,Barbara Zawacki,Marianne Powell ,,,,,,
2131,DFSS_AgencySiteLies_2012.csv,Easter Seals Society of Metropolitan Chicago Little Giants,3863 W. Harrison ,60624,2656330,,,,,,,Easter Seals Society of Metropolitan Chicago,,,,,,,,,,,www.easterseaslchicago.org,Barbara Zawacki,Ms.Gloria Granberry ,,,,,,
2132,DFSS_AgencySiteLies_2012.csv,Easter Seals Society of Metropolitan Chicago Liz-Ney-Land #1,4610 S Pulaski Rd ,60632,2479779,,,,,,,Easter Seals Society of Metropolitan Chicago,,,,,,,,,,,www.easterseaslchicago.org,Barbara Zawacki,Liz Medrano,,,,,,
2133,DFSS_AgencySiteLies_2012.csv,Easter Seals Society of Metropolitan Chicago Liz-Ney-Land #2,6010 S. Pulaski ,60632,5828355,,,,,,,Easter Seals Society of Metropolitan Chicago,,,,,,,,,,,www.easterseaslchicago.org,Barbara Zawacki,Liz Medrano ,,,,,,
2134,DFSS_AgencySiteLies_2012.csv,Easter Seals Society of Metropolitan Chicago Lordanchild Daycare,3344 W 79th St ,60652,4344918,,,,,,,Easter Seals Society of Metropolitan Chicago,,,,,,,,,,,www.easterseaslchicago.org,Barbara Zawacki,Quentin Donald ,,,,,,
2135,DFSS_AgencySiteLies_2012.csv,Easter Seals Society of Metropolitan Chicago Mother's Touch,2501 W 71st St ,60629,4363177,,,,,,,Easter Seals Society of Metropolitan Chicago,,,,,,,,,,,www.easterseaslchicago.org,Barbara Zawacki,Ethel Daniels ,,,,,,
2136,DFSS_AgencySiteLies_2012.csv,Easter Seals Society of Metropolitan Chicago Near South Side Child Development Center,2214 S Federal St ,60616,5483614,,,,,,,Easter Seals Society of Metropolitan Chicago,,,,,,,,,,,www.easterseaslchicago.org,Barbara Zawacki,Catherine Rokusek ,,,,,,
2137,DFSS_AgencySiteLies_2012.csv,Easter Seals Society of Metropolitan Chicago Rachel's Learning Center #1,3430 W Roosevelt Rd ,60624,5330444,,,,,,,Easter Seals Society of Metropolitan Chicago,,,,,,,,,,,www.easterseaslchicago.org,Barbara Zawacki,Rochelle Ray ,,,,,,
2138,DFSS_AgencySiteLies_2012.csv,Easter Seals Society of Metropolitan Chicago Rachel's Learning Center #2,5242 W North Ave ,60639,2371444,,,,,,,Easter Seals Society of Metropolitan Chicago,,,,,,,,,,,www.easterseaslchicago.org,Barbara Zawacki,Rochelle Ray,,,,,,
2139,DFSS_AgencySiteLies_2012.csv,Easter Seals Society of Metropolitan Chicago Whiz Kids Nursery Center,518 W 103rd St. ,60628,2339445,,,,,,,Easter Seals Society of Metropolitan Chicago,,,,,,,,,,,www.easterseaslchicago.org,Barbara Zawacki,Diana Ross,,,,,,
2140,DFSS_AgencySiteLies_2012.csv,El Hogar Del Nino Loomis El Hogar,1718 S Loomis ,60608,5630644,,,,,,,El Hogar Del Nino,,,,,,,,,,,www.elhogardelnino.org,Rebecca Estrada,Kimberly Johnson,,,,,,
2141,DFSS_AgencySiteLies_2012.csv,El Valor Amazing Grace Child Care Center,11123 S Halsted St ,60628,2643636,,,,,,,El Valor,,,,,,,,,,,www.elvalor.org,Vincent Allocco,Rachel Adesola ,,,,,,
2142,DFSS_AgencySiteLies_2012.csv,El Valor Brenda's Kids Club,3552 E 118th St. ,60617,6460007,,,,,,,El Valor,,,,,,,,,,,www.elvalor.org,Vincent Allocco,Brenda Lopez ,,,,,,
2143,DFSS_AgencySiteLies_2012.csv,El Valor Carlos Cantu,2434 S. Kildare ,60623,2422700,,,,,,,El Valor,,,,,,,,,,,www.elvalor.org,Vincent Allocco,Irma Carmona ,,,,,,
2144,DFSS_AgencySiteLies_2012.csv,El Valor Centro Infantil (Puerto Rican Comm),2739 W Division ,60622,3428866,,,,,,,El Valor,,,,,,,,,,,www.elvalor.org,Vincent Allocco,Xochiti Ramirez,,,,,,
2145,DFSS_AgencySiteLies_2012.csv,El Valor Chicago Pre-School Academy,532 E 87th St ,60619,4884495,,,,,,,El Valor,,,,,,,,,,,www.elvalor.org,Vincent Allocco,Deneen Grover,,,,,,
2146,DFSS_AgencySiteLies_2012.csv,El Valor Guadalupe Reyes Children & Family Center,1951 W. 19th St. ,60608,9972021,,,,,,,El Valor,,,,,,,,,,,www.elvalor.org,Vincent Allocco,Rosa Moreno ,,,,,,
2147,DFSS_AgencySiteLies_2012.csv,El Valor Kiddy Kare Learning Center,4444 S. Kedzie ,60632,2476642,,,,,,,El Valor,,,,,,,,,,,www.elvalor.org,Vincent Allocco,Marina Lopez ,,,,,,
2148,DFSS_AgencySiteLies_2012.csv,El Valor Kidz Colony,6287 South Archer Ave ,60638,7678522,,,,,,,El Valor,,,,,,,,,,,www.elvalor.org,Vincent Allocco,Joy Avila,,,,,,
2149,DFSS_AgencySiteLies_2012.csv,El Valor Little Brown Bear Pre-School,8046 S Western Ave ,60620,4343500,,,,,,,El Valor,,,,,,,,,,,www.elvalor.org,Vincent Allocco,Deborah Broyles ,,,,,,
2150,DFSS_AgencySiteLies_2012.csv,El Valor Little Kids Village,2656 W. 71st St. ,60629,7764753,,,,,,,El Valor,,,,,,,,,,,www.elvalor.org,Vincent Allocco,Sherri Thompson ,,,,,,
2151,DFSS_AgencySiteLies_2012.csv,El Valor Little Learners,5923 W. 63rd Street ,60638,5815541,,,,,,,El Valor,,,,,,,,,,,www.elvalor.org,Vincent Allocco,Paula Parrilli,,,,,,
2152,DFSS_AgencySiteLies_2012.csv,El Valor Little Tykes I,1711 W. 35th Street ,60609,2547710,,,,,,,El Valor,,,,,,,,,,,www.elvalor.org,Vincent Allocco,Sara Matta,,,,,,
2153,DFSS_AgencySiteLies_2012.csv,El Valor Little Tykes II,1723 W. 35th Street ,60609,5791791,,,,,,,El Valor,,,,,,,,,,,www.elvalor.org,Vincent Allocco,Laura Gonzalez ,,,,,,
2154,DFSS_AgencySiteLies_2012.csv,El Valor Mari's Bumble Bee Academy,9725 S Commercial Ave ,60617,2217692,,,,,,,El Valor,,,,,,,,,,,www.elvalor.org,Vincent Allocco,Marisol Lopez ,,,,,,
2155,DFSS_AgencySiteLies_2012.csv,El Valor New Age Preparatory,8940 S Cottage Grove Ave ,60619,7832431,,,,,,,El Valor,,,,,,,,,,,www.elvalor.org,Vincent Allocco,Tanya Furlow,,,,,,
2156,DFSS_AgencySiteLies_2012.csv,El Valor New Age Preparatory Academy,10951 S Michigan Ave ,60628,7857737,,,,,,,El Valor,,,,,,,,,,,www.elvalor.org,Vincent Allocco,Tanya Furlow,,,,,,
2157,DFSS_AgencySiteLies_2012.csv,El Valor Rey Gonzalez Children and Family Center,3050 E. 92nd St. ,60617,7219311,,,,,,,El Valor,,,,,,,,,,,www.elvalor.org,Vincent Allocco,Carmen Flores,,,,,,
2158,DFSS_AgencySiteLies_2012.csv,El Valor Teddy Bear 1,2649 W 51st St. ,60632,4760700,,,,,,,El Valor,,,,,,,,,,,www.elvalor.org,Vincent Allocco,Francy Torres ,,,,,,
2159,DFSS_AgencySiteLies_2012.csv,El Valor Teddy Bear 2,3473 W Columbus ,60652,4342327,,,,,,,El Valor,,,,,,,,,,,www.elvalor.org,Vincent Allocco,Connie Guyton ,,,,,,
2160,DFSS_AgencySiteLies_2012.csv,El Valor Teddy Bear 3,6401 S Pulaski Rd. ,60629,2842292,,,,,,,El Valor,,,,,,,,,,,www.elvalor.org,Vincent Allocco,Natasha Catchings ,,,,,,
2161,DFSS_AgencySiteLies_2012.csv,El Valor Teddy Bear 5,5160 S Pulaski Rd. ,60632,2847030,,,,,,,El Valor,,,,,,,,,,,www.elvalor.org,Vincent Allocco,Mary Zirngibl,,,,,,
2162,DFSS_AgencySiteLies_2012.csv,El Valor Young Scholars Dev. Ins.,3038 W. 59th St. ,60629,9181944,,,,,,,El Valor,,,,,,,,,,,www.elvalor.org,Vincent Allocco,Elizabeth Campbell,,,,,,
2163,DFSS_AgencySiteLies_2012.csv,Erie Neighborhood House Charter School,1405 N Washtenaw Ave ,60622,4867234,,,,,,,Erie Neighborhood House,,,,,,,,,,,www.eriehouse.org,Celena Roldan,,,,,,,
2164,DFSS_AgencySiteLies_2012.csv,Erie Neighborhood House Erie Community Center,1701 W. Superior ,60622,5635800,,,,,,,Erie Neighborhood House,,,,,,,,,,,www.eriehouse.org,Celena Roldan,Celena Roldan,,,,,,
2165,DFSS_AgencySiteLies_2012.csv,Erie Neighborhood House Erie House,1347 W. Erie ,60622,6663430,,,,,,,Erie Neighborhood House,,,,,,,,,,,www.eriehouse.org,Celena Roldan,Valery Sheppard,,,,,,
2166,DFSS_AgencySiteLies_2012.csv,Firman Community Services Firman House East,4910 S. King ,60615,3732083,,,,,,,Firman Community Services,,,,,,,,,,, www.firmancs.org,Marguerite Young,Ms. Earline Moore ,,,,,,
2167,DFSS_AgencySiteLies_2012.csv,Firman Community Services Firman House West,37 W. 47th St. ,60609,3733400,,,,,,,Firman Community Services,,,,,,,,,,, www.firmancs.org,Marguerite Young,Dontrease Thomas ,,,,,,
2168,DFSS_AgencySiteLies_2012.csv,Firman Community Services Firman West II SA 4644 S. Dearborn,4644 S. Dearborn ,60609,3733400,,,,,,,Firman Community Services,,,,,,,,,,, www.firmancs.org,Marguerite Young,Dontrease Thomas,,,,,,
2169,DFSS_AgencySiteLies_2012.csv,First Church of Love And Faith FIRST CHURCH OF LOVE AND FAITH#1,2140 W. 79th St. ,60620,2246800,,,,,,,First Church of Love And Faith,,,,,,,,,,,,Archbishop Lucius Hall,Barbara Mosley,,,,,,
2170,DFSS_AgencySiteLies_2012.csv,First Church of Love And Faith FIRST CHURCH OF LOVE AND FAITH#2,2141 W. 79th St. ,60200,8739155,,,,,,,First Church of Love And Faith,,,,,,,,,,,,Archbishop Lucius Hall,Barbara Mosley,,,,,,
2171,DFSS_AgencySiteLies_2012.csv,Gads Hill Center GH Cullerton Location,1919 W. Cullerton ,60608,2260963,,,,,,,Gads Hill Center,,,,,,,,,,,www.gadshillcenter.org,Barbara Castellan,Mr. Montes de Oca,,,,,,
2172,DFSS_AgencySiteLies_2012.csv,Gads Hill Center GH Sinai Community Ogden,2653 W. Ogden ,60608,5211196,,,,,,,Gads Hill Center,,,,,,,,,,,www.gadshillcenter.org,Barbara Castellan,Rick Baldwin,,,,,,
2173,DFSS_AgencySiteLies_2012.csv,Gads Hill Center Hunt's Early Childhood Educational Academy,2701 W 79th St. ,60652,8638260,,,,,,,Gads Hill Center,,,,,,,,,,,www.gadshillcenter.org,Barbara Castellan,Sallie Hunt ,,,,,,
2174,DFSS_AgencySiteLies_2012.csv,Gads Hill Center Kove Learning Academy,3137 W 71st St. ,60629,4763083,,,,,,,Gads Hill Center,,,,,,,,,,,www.gadshillcenter.org,Barbara Castellan,Olivia Hargon ,,,,,,
2175,DFSS_AgencySiteLies_2012.csv,Gads Hill Center M & E Daycare - 79th Street Day Care,3728 W 79th St. ,60652,5857979,,,,,,,Gads Hill Center,,,,,,,,,,,www.gadshillcenter.org,Barbara Castellan,Lisa Pearson,,,,,,
2176,DFSS_AgencySiteLies_2012.csv,Haymarket Center Haymarket Center,120 N Sangamon ,60607,2267984,,,,,,,Haymarket Center,,,,,,,,,,,www.hcenter.org,Bakahia Madison,Bakahia Madison,,,,,,
2177,DFSS_AgencySiteLies_2012.csv,Haymarket Center Wholly Innocence Day Care Center,34 N. Sangamon ,60607,2267984,,,,,,,Haymarket Center,,,,,,,,,,,www.hcenter.org,Bakahia Madison,Bakahia Madison,,,,,,
2178,DFSS_AgencySiteLies_2012.csv,Healing Temple Healing Temple,4941 W. Chicago ,60651,2876964,,,,,,,Healing Temple,,,,,,,,,,,,Elizabeth Lockhart,Carole Smoot,,,,,,
2179,DFSS_AgencySiteLies_2012.csv,Hektoen Institute Early Head Start Program at Stroger Hospital,1900 W Polk ,60612,8646560,,,,,,,Hektoen Institute,,,,,,,,,,,,Grace Ortiz,Grace Ortiz,,,,,,
2180,DFSS_AgencySiteLies_2012.csv,Henry Booth House All About Kids Learning Academy,514 E. 75th St. ,60619,8922800,,,,,,,Henry Booth House,,,,,,,,,,,www.henryboothhouse.org,Scott Perkins,Tess McKenzie ,,,,,,
2181,DFSS_AgencySiteLies_2012.csv,Henry Booth House Allison's,34 E. 115th St. ,60628,8404502,,,,,,,Henry Booth House,,,,,,,,,,,www.henryboothhouse.org,Scott Perkins,Allison Perkins ,,,,,,
2182,DFSS_AgencySiteLies_2012.csv,Henry Booth House Allison's Infant Toddler,5522 S Racine ,60636,4363193,,,,,,,Henry Booth House,,,,,,,,,,,www.henryboothhouse.org,Scott Perkins,LaParish Woody ,,,,,,
2183,DFSS_AgencySiteLies_2012.csv,Henry Booth House Angel Wings,5365 W Noth ,60639,7450262,,,,,,,Henry Booth House,,,,,,,,,,,www.henryboothhouse.org,Scott Perkins,Lisa Collins,,,,,,
2184,DFSS_AgencySiteLies_2012.csv,Henry Booth House Brite New Minds,112 E 51ST St. ,60615,,,,,,,,Henry Booth House,,,,,,,,,,,www.henryboothhouse.org,Scott Perkins,,,,,,,
2185,DFSS_AgencySiteLies_2012.csv,Henry Booth House Bunnyland Land Day Care,545 W 119TH St. ,60628,5685200,,,,,,,Henry Booth House,,,,,,,,,,,www.henryboothhouse.org,Scott Perkins,Ms. Boykin,,,,,,
2186,DFSS_AgencySiteLies_2012.csv,Henry Booth House Color For Tots,2550 E. 73rd St. ,60649,3638687,,,,,,,Henry Booth House,,,,,,,,,,,www.henryboothhouse.org,Scott Perkins,Cassandra Williams ,,,,,,
2187,DFSS_AgencySiteLies_2012.csv,Henry Booth House Gina's Unbelievable,7239 S. Dobson ,60619,3242010,,,,,,,Henry Booth House,,,,,,,,,,,www.henryboothhouse.org,Scott Perkins,Gina Thomas ,,,,,,
2188,DFSS_AgencySiteLies_2012.csv,Henry Booth House Granny's Day Care Center,645 W 127TH St. ,60628,2644800,,,,,,,Henry Booth House,,,,,,,,,,,www.henryboothhouse.org,Scott Perkins,Ms. Priscilla Bolling ,,,,,,
2189,DFSS_AgencySiteLies_2012.csv,Henry Booth House Hegewisch,2725 E 130th St. ,60633,,,,,,,,Henry Booth House,,,,,,,,,,,www.henryboothhouse.org,Scott Perkins,,,,,,,
2190,DFSS_AgencySiteLies_2012.csv,Henry Booth House Hippity Hop Tiny Tots,11223 S. Halsted St. ,60628,7853340,,,,,,,Henry Booth House,,,,,,,,,,,www.henryboothhouse.org,Scott Perkins,Ms. Tuggle ,,,,,,
2191,DFSS_AgencySiteLies_2012.csv,Henry Booth House Itsy Bitsy People Palace. Inc,7419 S. Cottage Grove Ave. ,60619,8467396,,,,,,,Henry Booth House,,,,,,,,,,,www.henryboothhouse.org,Scott Perkins,Ms. Whiting ,,,,,,
2192,DFSS_AgencySiteLies_2012.csv,Henry Booth House Jelly Bean Learining Center-8501 S ASHLAND,8501 S Ashland ,60620,2395437,,,,,,,Henry Booth House,,,,,,,,,,,www.henryboothhouse.org,Scott Perkins,Ms. Donna Taylor ,,,,,,
2193,DFSS_AgencySiteLies_2012.csv,Henry Booth House Jelly Bean-358-370 E 71st,358-370 E 71st. ,60636,8738888,,,,,,,Henry Booth House,,,,,,,,,,,www.henryboothhouse.org,Scott Perkins,Donna Taylor ,,,,,,
2194,DFSS_AgencySiteLies_2012.csv,Henry Booth House Jones Academy,4344 S. Wentworth Ave. ,60609,5363757,,,,,,,Henry Booth House,,,,,,,,,,,www.henryboothhouse.org,Scott Perkins,Felicia Jones,,,,,,
2195,DFSS_AgencySiteLies_2012.csv,Henry Booth House Kids Place II,1318 W 95TH St. ,60643,4456500,,,,,,,Henry Booth House,,,,,,,,,,,www.henryboothhouse.org,Scott Perkins,Ms. Porter ,,,,,,
2196,DFSS_AgencySiteLies_2012.csv,Henry Booth House Kids R First 1155 W 81st,1155 W. 81st St. ,60620,7838080,,,,,,,Henry Booth House,,,,,,,,,,,www.henryboothhouse.org,Scott Perkins,Wilborn ,,,,,,
2197,DFSS_AgencySiteLies_2012.csv,Henry Booth House Kids R First 7838 S Halsted,7838 S Halsted ,60620,4889443,,,,,,,Henry Booth House,,,,,,,,,,,www.henryboothhouse.org,Scott Perkins,Ms. Jones ,,,,,,
2198,DFSS_AgencySiteLies_2012.csv,Henry Booth House Lakeview Development Center,1531 W Lawrence ,60640,,,,,,,,Henry Booth House,,,,,,,,,,,www.henryboothhouse.org,Scott Perkins,,,,,,,
2199,DFSS_AgencySiteLies_2012.csv,Henry Booth House Little Angels Family DayCare,6701 S. Emerald Ave. ,60621,4888777,,,,,,,Henry Booth House,,,,,,,,,,,www.henryboothhouse.org,Scott Perkins,NaShone Greer,,,,,,
2200,DFSS_AgencySiteLies_2012.csv,Henry Booth House Little Folks Day Care,2527 E 73RD St. ,60649,,,,,,,,Henry Booth House,,,,,,,,,,,www.henryboothhouse.org,Scott Perkins,,,,,,,
2201,DFSS_AgencySiteLies_2012.csv,Henry Booth House Little Hands & Feet,7801 S Wolcott ,60620,9948561,,,,,,,Henry Booth House,,,,,,,,,,,www.henryboothhouse.org,Scott Perkins,Ms. Doyle ,,,,,,
2202,DFSS_AgencySiteLies_2012.csv,Henry Booth House Little Hands and Feet II (87th),1414 W 87TH St. ,60620,2392322,,,,,,,Henry Booth House,,,,,,,,,,,www.henryboothhouse.org,Scott Perkins,Ms. Jackson ,,,,,,
2203,DFSS_AgencySiteLies_2012.csv,Henry Booth House Little Leaders of Tomorrow I - Mayfield,301 N. Mayfield Ave. ,60644,3788302,,,,,,,Henry Booth House,,,,,,,,,,,www.henryboothhouse.org,Scott Perkins,Ms. Navy,,,,,,
2204,DFSS_AgencySiteLies_2012.csv,Henry Booth House Living Witness,4259 N Laramie ,60641,,,,,,,,Henry Booth House,,,,,,,,,,,www.henryboothhouse.org,Scott Perkins,,,,,,,
2205,DFSS_AgencySiteLies_2012.csv,Henry Booth House Loop,2001 S Michigan ,60616,2258828,,,,,,,Henry Booth House,,,,,,,,,,,www.henryboothhouse.org,Scott Perkins,Ms. Gregg,,,,,,
2206,DFSS_AgencySiteLies_2012.csv,Henry Booth House Love N Learn Academy,723-725 E 75TH St. ,60619,7230338,,,,,,,Henry Booth House,,,,,,,,,,,www.henryboothhouse.org,Scott Perkins,Ms. Blanton & Ms. Johnson,,,,,,
2207,DFSS_AgencySiteLies_2012.csv,Henry Booth House Near South,2929 S. Wabash ,60616,7910424,,,,,,,Henry Booth House,,,,,,,,,,,www.henryboothhouse.org,Scott Perkins,Ms. Newsome,,,,,,
2208,DFSS_AgencySiteLies_2012.csv,Henry Booth House New Pisgah,8130 S Racine ,60620,8735392,,,,,,,Henry Booth House,,,,,,,,,,,www.henryboothhouse.org,Scott Perkins,Mr. S. Smith,,,,,,
2209,DFSS_AgencySiteLies_2012.csv,Henry Booth House Home of Life Community North Kenwood Day Care Center,857 E Pershing ,60653,,,,,,,,Henry Booth House,,,,,,,,,,,www.henryboothhouse.org,Scott Perkins,,,,,,,
2210,DFSS_AgencySiteLies_2012.csv,Henry Booth House Patti Cake,939 W 87TH St. ,60620,8749460,,,,,,,Henry Booth House,,,,,,,,,,,www.henryboothhouse.org,Scott Perkins,Ms. Harris ,,,,,,
2211,DFSS_AgencySiteLies_2012.csv,Henry Booth House Pink's Child Care Academy,8236 S Kedzie ,60652,8637465,,,,,,,Henry Booth House,,,,,,,,,,,www.henryboothhouse.org,Scott Perkins,Ms. Jones ,,,,,,
2212,DFSS_AgencySiteLies_2012.csv,Henry Booth House Precious Little Ones,5327 S Michigan Ave. ,60615,,,,,,,,Henry Booth House,,,,,,,,,,,www.henryboothhouse.org,Scott Perkins,,,,,,,
2213,DFSS_AgencySiteLies_2012.csv,Henry Booth House Prodigy Child Learning Center,1921 E. 79th St. ,60649,2213100,,,,,,,Henry Booth House,,,,,,,,,,,www.henryboothhouse.org,Scott Perkins,Shonzette Cheeks,,,,,,
2214,DFSS_AgencySiteLies_2012.csv,Henry Booth House The World Is Yours,8026 S Cottage Grove Ave. ,60619,,,,,,,,Henry Booth House,,,,,,,,,,,www.henryboothhouse.org,Scott Perkins,,,,,,,
2215,DFSS_AgencySiteLies_2012.csv,Henry Booth House Wee Care Nursery,1845 E 79TH St. ,60649,2214442,,,,,,,Henry Booth House,,,,,,,,,,,www.henryboothhouse.org,Scott Perkins,Ms. Williams-Morgan,,,,,,
2216,DFSS_AgencySiteLies_2012.csv,Henry Booth House Wee Wee Center for Creative,2434 W 71ST St. ,60629,4710869,,,,,,,Henry Booth House,,,,,,,,,,,www.henryboothhouse.org,Scott Perkins,Ms. Duckery,,,,,,
2217,DFSS_AgencySiteLies_2012.csv,Henry Booth House West Austin,4920 W Madison ,60644,,,,,,,,Henry Booth House,,,,,,,,,,,www.henryboothhouse.org,Scott Perkins,,,,,,,
2218,DFSS_AgencySiteLies_2012.csv,Henry Booth House Whiz Kids Nursery 518 W 103 Rd ST,518 W 103rd St. ,60628,2339445,,,,,,,Henry Booth House,,,,,,,,,,,www.henryboothhouse.org,Scott Perkins,Ms. Craft,,,,,,
2219,DFSS_AgencySiteLies_2012.csv,Henry Booth House Young Achievers Academy,520 E 79TH St. ,60619,,,,,,,,Henry Booth House,,,,,,,,,,,www.henryboothhouse.org,Scott Perkins,,,,,,,
2220,DFSS_AgencySiteLies_2012.csv,Home of Life Community Dev. Corp. HLCDC Dev. II,4650 W. Madison ,60644,6268655,,,,,,,Home of Life Community Dev. Corp.,,,,,,,,,,,www.homeoflife.org,Delores Sheppard,Diane Congress,,,,,,
2221,DFSS_AgencySiteLies_2012.csv,Home of Life Community Dev. Corp. HOME OF LIFE JUST FOR YOU (773)-626-8655,4647 W. Washington ,60644,,,,,,,,Home of Life Community Dev. Corp.,,,,,,,,,,,www.homeoflife.org,Delores Sheppard,Diane Congress,,,,,,
2222,DFSS_AgencySiteLies_2012.csv,Howard Area Community Center HOWARD AREA,7510 N. Ashland ,60626,2626622,,,,,,,Howard Area Community Center,,,,,,,,,,,www.howardarea.org,Bruce Rasey,Stephania Koliarakis,,,,,,
2223,DFSS_AgencySiteLies_2012.csv,Korean American Community Services Korean American Community Services,4300 N. California ,60618,5838281,,,,,,,Korean American Community Services,,,,,,,,,,,www.kacschicago.org,In chul Choi,Hye K. Choi,,,,,,
2224,DFSS_AgencySiteLies_2012.csv,Lutheran Social Services of Illinois ARRA Home Based Initiative - Roseland Christian Ministries,10 W 35th St 15th Floor ,60616,9494789,,,,,,,Lutheran Social Services of Illinois,,,,,,,,,,,www.lssi.org,John Schnier,,,,,,,
2225,DFSS_AgencySiteLies_2012.csv,Lutheran Social Services of Illinois ENGLEWOOD MESSIAH,1910 W. 64th Street ,60636,4365110,,,,,,,Lutheran Social Services of Illinois,,,,,,,,,,,www.lssi.org,John Schnier,Delphine Whittlesey,,,,,,
2226,DFSS_AgencySiteLies_2012.csv,Lutheran Social Services of Illinois NORTH AUSTIN HEAD START,1500 N. Mason ,60651,2371930,,,,,,,Lutheran Social Services of Illinois,,,,,,,,,,,www.lssi.org,John Schnier,Doris Holden,,,,,,
2227,DFSS_AgencySiteLies_2012.csv,Lutheran Social Services of Illinois ROGERS PARK,1754 W. Devon ,60660,6354600,,,,,,,Lutheran Social Services of Illinois,,,,,,,,,,,www.lssi.org,John Schnier,Deloris McDowell ,,,,,,
2228,DFSS_AgencySiteLies_2012.csv,Lutheran Social Services of Illinois TRINIDAD LUTHERAN,2921 W. Division ,60622,6354600,,,,,,,Lutheran Social Services of Illinois,,,,,,,,,,,www.lssi.org,John Schnier,Emilia Espinal ,,,,,,
2229,DFSS_AgencySiteLies_2012.csv,Lutheran Social Services of Illinois WINTHROP CHILDREN'S CENTER,4848 N. Winthrop ,60640,8783210,,,,,,,Lutheran Social Services of Illinois,,,,,,,,,,,www.lssi.org,John Schnier,,,,,,,
2230,DFSS_AgencySiteLies_2012.csv,Marcy Newberry Association Austin Town Hall,5610 W. Lake ,60644,2611505,,,,,,,Marcy Newberry Association,,,,,,,,,,,www.marcy-newberry.org,Gertrude Ricks,Marsha Ballenger,,,,,,
2231,DFSS_AgencySiteLies_2012.csv,Marcy Newberry Association FOSCO,1312 S. Racine ,60608,7466024,,,,,,,Marcy Newberry Association,,,,,,,,,,,www.marcy-newberry.org,Gertrude Ricks,Kimberly Johnson ,,,,,,
2232,DFSS_AgencySiteLies_2012.csv,Marcy Newberry Association Learning Tree 1,8128 S Kedzie ,60652,7788802,,,,,,,Marcy Newberry Association,,,,,,,,,,,www.marcy-newberry.org,Gertrude Ricks,Joanne Williams ,,,,,,
2233,DFSS_AgencySiteLies_2012.csv,Marcy Newberry Association Learning Tree 2,8322 S Pulaski Rd. ,60652,8843345,,,,,,,Marcy Newberry Association,,,,,,,,,,,www.marcy-newberry.org,Gertrude Ricks,Joanne Williams ,,,,,,
2234,DFSS_AgencySiteLies_2012.csv,Marcy Newberry Association Marcy Center,1539 S. Springfield ,60623,7622300,,,,,,,Marcy Newberry Association,,,,,,,,,,,www.marcy-newberry.org,Gertrude Ricks,Barbara Tucker ,,,,,,
2235,DFSS_AgencySiteLies_2012.csv,Marcy Newberry Association Newberry Center,1073 W. Maxwell ,60608,8297555,,,,,,,Marcy Newberry Association,,,,,,,,,,,www.marcy-newberry.org,Gertrude Ricks,Vernon Lyle,,,,,,
2236,DFSS_AgencySiteLies_2012.csv,Marcy Newberry Association St. John, 5701 W. Midway Park ,60644,3795533,,,,,,,Marcy Newberry Association,,,,,,,,,,,www.marcy-newberry.org,Gertrude Ricks,Willie Mae Cole,,,,,,
2237,DFSS_AgencySiteLies_2012.csv,Mary Crane League Children's Learn and Play,6512 S. Halsted ,60621,9667162,,,,,,,Mary Crane League,,,,,,,,,,,www.marycrane.org,Lavetter Terry,Mashanda Scott ,,,,,,
2238,DFSS_AgencySiteLies_2012.csv,Mary Crane League Mary Crane Center (East),2974 N. Clybourn ,60618,9388130,,,,,,,Mary Crane League,,,,,,,,,,,www.marycrane.org,Lavetter Terry,Martuice Williams ,,,,,,
2239,DFSS_AgencySiteLies_2012.csv,Mary Crane League Mary Crane Center (Lake & Pulaski),316 N. Pulaski ,60624,2655954,,,,,,,Mary Crane League,,,,,,,,,,,www.marycrane.org,Lavetter Terry,Marcia Newsome ,,,,,,
2240,DFSS_AgencySiteLies_2012.csv,Mary Crane League Mary Crane Center (Molade),1120 N. Lamon ,60651,2877365,,,,,,,Mary Crane League,,,,,,,,,,,www.marycrane.org,Lavetter Terry,Kathleen Pesek ,,,,,,
2241,DFSS_AgencySiteLies_2012.csv,Mary Crane League Mary Crane Center (Morse),1545 W. Morse ,60626,2621390,,,,,,,Mary Crane League,,,,,,,,,,,www.marycrane.org,Lavetter Terry,Traci Medina,,,,,,
2242,DFSS_AgencySiteLies_2012.csv,Mary Crane League Mary Crane Center (North),2905 N. Leavitt ,60618,9388130,,,,,,,Mary Crane League,,,,,,,,,,,www.marycrane.org,Lavetter Terry,Martuice Williams ,,,,,,
2243,DFSS_AgencySiteLies_2012.csv,Mary Crane League Mary Crane Center (West),2820 N. Leavitt ,60618,9388130,,,,,,,Mary Crane League,,,,,,,,,,,www.marycrane.org,Lavetter Terry,Martuice Williams ,,,,,,
2244,DFSS_AgencySiteLies_2012.csv,Mary Crane League Mary Crane Center (St. Martin De Porres),6423 S. Woodlawn ,60637,9388130,,,,,,,Mary Crane League,,,,,,,,,,,www.marycrane.org,Lavetter Terry,Victoria Harbin,,,,,,
2245,DFSS_AgencySiteLies_2012.csv,Metropolitan Family Services Midway Children's Center,3215 W. 63rd St. ,60629,8842350,,,,,,,Metropolitan Family Services,,,,,,,,,,,www.metrofamily.org,Laurie Sedio,Guadalupe Valdine,,,,,,
2246,DFSS_AgencySiteLies_2012.csv,Metropolitan Family Services Midway Head Start,6422 S. Kedzie ,60629,7374790,,,,,,,Metropolitan Family Services,,,,,,,,,,,www.metrofamily.org,Laurie Sedio,Rhonda Freeman,,,,,,
2247,DFSS_AgencySiteLies_2012.csv,Metropolitan Family Services North Children's Center,3249 N Central Ave. ,60634,3713770,,,,,,,Metropolitan Family Services,,,,,,,,,,,www.metrofamily.org,Fernando Freire,Dawn Delgado,,,,,,
2248,DFSS_AgencySiteLies_2012.csv,North Avenue Day Nursery North Avenue Day Nursery,2001 W. Pierce ,60622,3424499,,,,,,,North Avenue Day Nursery,,,,,,,,,,,www.nadnkids.org,Steve Koll,Steve Koll,,,,,,
2249,DFSS_AgencySiteLies_2012.csv,Northwestern University Settlement House NORTHWESTERN UNIVERSITY SETTLEMENT HOUSE,1400 W. Augusta ,60622,2787471,,,,,,,Northwestern University Settlement House,,,,,,,,,,,www.nush.org,Jose Alatorre, Linda McLaren,,,,,,
2250,DFSS_AgencySiteLies_2012.csv,Onward Neighborhood House ABC Preschool,3800 N. Austin Avenue ,60634,6859033,,,,,,,Onward Neighborhood House,,,,,,,,,,,www.onwardhouse.org,Mario Garcia,Patricia Bentz ,,,,,,
2251,DFSS_AgencySiteLies_2012.csv,Onward Neighborhood House Lee's Cuddles N Care,6100 W. North Avenue ,60639,7458054,,,,,,,Onward Neighborhood House,,,,,,,,,,,www.onwardhouse.org,Mario Garcia,Anndrella Lee ,,,,,,
2252,DFSS_AgencySiteLies_2012.csv,Onward Neighborhood House McKinney Early Learning Academy,5745 W Division St. ,60651,,,,,,,,Onward Neighborhood House,,,,,,,,,,,www.onwardhouse.org,Mario Garcia,,,,,,,
2253,DFSS_AgencySiteLies_2012.csv,Onward Neighborhood House New Beginnings,5445 W. North Ave. ,60639,3855365,,,,,,,Onward Neighborhood House,,,,,,,,,,,www.onwardhouse.org,Mario Garcia,Verlene Vanderbilt,,,,,,
2254,DFSS_AgencySiteLies_2012.csv,Onward Neighborhood House Onward Neighborhood House - Belmont/Cragin,5423 W Diversey Ave. ,60639,6223215,,,,,,,Onward Neighborhood House,,,,,,,,,,,www.onwardhouse.org,Mario Garcia,Santa Rivera,,,,,,
2255,DFSS_AgencySiteLies_2012.csv,Onward Neighborhood House Onward Neighborhood House - West Town,600 N. Leavitt St. ,60612,6666726,,,,,,,Onward Neighborhood House,,,,,,,,,,,www.onwardhouse.org,Mario Garcia,Darica Charles,,,,,,
2256,DFSS_AgencySiteLies_2012.csv,Onward Neighborhood House Tiny Town for Tots,5654 W. Division St. ,60651,6260048,,,,,,,Onward Neighborhood House,,,,,,,,,,,www.onwardhouse.org,Mario Garcia,Ricky Spain,,,,,,
2257,DFSS_AgencySiteLies_2012.csv,Salvation Army All Things Are Posible,4014 W. Chicago Ave. ,60651,4892464,,,,,,,Salvation Army,,,,,,,,,,,www.usc.salvationarmy.com,Claudia Rowland, Shelandria Galsper ,,,,,,
2258,DFSS_AgencySiteLies_2012.csv,Salvation Army Building Blocks,1120 W 69th St. ,60621,4882222,,,,,,,Salvation Army,,,,,,,,,,,www.usc.salvationarmy.com,Claudia Rowland,Mitchelle Redd ,,,,,,
2259,DFSS_AgencySiteLies_2012.csv,Salvation Army Columbus Park,500 S. CENTRAL ,60644,9214162,,,,,,,Salvation Army,,,,,,,,,,,www.usc.salvationarmy.com,Claudia Rowland,Felice Lewis ,,,,,,
2260,DFSS_AgencySiteLies_2012.csv,Salvation Army Creative Little Ones,2809 W 59th St. ,60629,4762562,,,,,,,Salvation Army,,,,,,,,,,,www.usc.salvationarmy.com,Claudia Rowland,Audy Sejour,,,,,,
2261,DFSS_AgencySiteLies_2012.csv,Salvation Army Edsel Albert Ammons Nursery,549 E 76th St. ,60619,4837040,,,,,,,Salvation Army,,,,,,,,,,,www.usc.salvationarmy.com,Claudia Rowland,Debbie Reynolds,,,,,,
2262,DFSS_AgencySiteLies_2012.csv,Salvation Army FAMILY OUTREACH INITIATIVE (SAL ARMY,845 W. 69th St. ,60621,8324716,,,,,,,Salvation Army,,,,,,,,,,,www.usc.salvationarmy.com,Claudia Rowland,Rosie Mohammad ,,,,,,
2263,DFSS_AgencySiteLies_2012.csv,Salvation Army Incarnation,1345 N. KARLOV ,60651,2764118,,,,,,,Salvation Army,,,,,,,,,,,www.usc.salvationarmy.com,Claudia Rowland,Zoraida Fernandini ,,,,,,
2264,DFSS_AgencySiteLies_2012.csv,Salvation Army New Hope,4255 W. Division ,60651,7724908,,,,,,,Salvation Army,,,,,,,,,,,www.usc.salvationarmy.com,Claudia Rowland,Catherine Eason ,,,,,,
2265,DFSS_AgencySiteLies_2012.csv,Salvation Army Red Shield,945 W. 69th St. ,60621,3583224,,,,,,,Salvation Army,,,,,,,,,,,www.usc.salvationarmy.com,Claudia Rowland,Lillie Denton,,,,,,
2266,DFSS_AgencySiteLies_2012.csv,Salvation Army South Shore Bible/Maranatha Head Start,1631 E. 71st St. ,60649,4937500,,,,,,,Salvation Army,,,,,,,,,,,www.usc.salvationarmy.com,Claudia Rowland,Jaqueline Carter,,,,,,
2267,DFSS_AgencySiteLies_2012.csv,Salvation Army Teen Parenting Program,1548 W Adams ,60607,4210327,,,,,,,Salvation Army,,,,,,,,,,,www.usc.salvationarmy.com,Claudia Rowland,Jasmin Marshall,,,,,,
2268,DFSS_AgencySiteLies_2012.csv,South Central Community Services South Central Community Service,8316 S. Ellis Ave. ,60618,4830900,,,,,,,South Central Community Services,,,,,,,,,,,www.sccsinc.org,Felicia Blasingame,Marsha Hightower,,,,,,
2269,DFSS_AgencySiteLies_2012.csv,South East Asia Center South East Asia Center (Ainslie),1134 W. Ainslie ,60640,9897433,,,,,,,South East Asia Center,,,,,,,,,,,www.se-asiacenter.org,Peter Porr,Fe Mendoza,,,,,,
2270,DFSS_AgencySiteLies_2012.csv,South East Asia Center South East Asia Center (Broadway),5120 N. Broadway Ave. ,60640,9897433,,,,,,,South East Asia Center,,,,,,,,,,,www.se-asiacenter.org,Peter Porr,Loipin Chin,,,,,,
2271,DFSS_AgencySiteLies_2012.csv,South East Asia Center South Shore United South East Asia Center (Foster),1112 W. Foster ,60640,9897433,,,,,,,South East Asia Center,,,,,,,,,,,www.se-asiacenter.org,Peter Porr,Tsering Ngalutsang,,,,,,
2272,DFSS_AgencySiteLies_2012.csv,South Shore United Methodist South Shore United Child Care Center,7350 S. Jeffery ,60649,3244430,,,,,,,South Shore United Methodist,,,,,,,,,,,,Marcell Hooks,Marcell Hooks,,,,,,
2273,DFSS_AgencySiteLies_2012.csv,Thresholds Thresholds Mothers' Project,1110 W. Belmont ,60613,5373290,,,,,,,Thresholds,,,,,,,,,,,www.thresholds.org,Ayana Kiklas,Ayana Kiklas,,,,,,
2274,DFSS_AgencySiteLies_2012.csv,Trinity Resources Unlimited Inc High Mountain,919 N. Lavergne ,60651,6263997,,,,,,,Trinity Resources Unlimited Inc,,,,,,,,,,,,Marion Hayes,Marion Hayes,,,,,,
2275,DFSS_AgencySiteLies_2012.csv,Trinity Resources Unlimited Inc Hope for Youth,5900 W. Iowa ,60651,6260322,,,,,,,Trinity Resources Unlimited Inc,,,,,,,,,,,,Marion Hayes,Yolonda Johnson,,,,,,
2276,DFSS_AgencySiteLies_2012.csv,Trinity United Church of Christ Dr. Deton J. Brooks Head Start,6921 S. Stony Island ,60649,9661603,,,,,,,Trinity United Church of Christ,,,,,,,,,,,www.tucc.org,Janet Moore,Cherie Brown,,,,,,
2277,DFSS_AgencySiteLies_2012.csv,Trinity United Church of Christ Dr. Jeremiah Wright  Jr. Early Care and Learning Center,532 W 95th St. ,60628,9661503,,,,,,,Trinity United Church of Christ,,,,,,,,,,,www.tucc.org,Janet Moore,Ekoi Florence,,,,,,
2278,DFSS_AgencySiteLies_2012.csv,Westside Holistic Family Services WESTSIDE HOLISTIC FAMILY SERVICES,4909 W. Division ,60651,9218777,,,,,,,Westside Holistic Family Services,,,,,,,,,,,,Jo Anne Anderson,Florence Merritt,,,,,,
2279,DFSS_AgencySiteLies_2012.csv,Woodlawn A.M.E. Church WOODLAWN AME CHURCH,6456 S. Evans ,60637,6671402,,,,,,,Woodlawn A.M.E. Church,,,,,,,,,,,www.woodlawnamechurch.org,Samara Akins,Samara Akins,,,,,,
2280,DFSS_AgencySiteLies_2012.csv,YMCA of Metropolitan Chicago Dr. Effie O Ellis,10 S. Kedzie ,60612,5339011,,,,,,,YMCA of Metropolitan Chicago,,,,,,,,,,,www.ymcachicago.org,Dorothy Cole-Gary,Anelyn Jablo ,,,,,,
2281,DFSS_AgencySiteLies_2012.csv,YMCA of Metropolitan Chicago Garfield,7 N. Homan ,60624,2653900,,,,,,,YMCA of Metropolitan Chicago,,,,,,,,,,,www.ymcachicago.org,Dorothy Cole-Gary,Paulette Hernandez ,,,,,,
2282,DFSS_AgencySiteLies_2012.csv,YMCA of Metropolitan Chicago High Ridge,2424 W. Touhy ,60645,2628300,,,,,,,YMCA of Metropolitan Chicago,,,,,,,,,,,www.ymcachicago.org,Dorothy Cole-Gary,Linda Acevedo,,,,,,
2283,DFSS_AgencySiteLies_2012.csv,YMCA of Metropolitan Chicago Jeanne Kenney Day Care Center,7600 S. Parnell ,60620,8861216,,,,,,,YMCA of Metropolitan Chicago,,,,,,,,,,,www.ymcachicago.org,Dorothy Cole-Gary,Arlene Lewis,,,,,,
2284,DFSS_AgencySiteLies_2012.csv,YMCA of Metropolitan Chicago Logan Square - First Lutheran,3500 W. Fullerton ,60647,8625960,,,,,,,YMCA of Metropolitan Chicago,,,,,,,,,,,www.ymcachicago.org,Dorothy Cole-Gary,Nilsa Ramirez ,,,,,,
2285,DFSS_AgencySiteLies_2012.csv,YMCA of Metropolitan Chicago Marshall,3250 W. Adams ,60624,2650145,,,,,,,YMCA of Metropolitan Chicago,,,,,,,,,,,www.ymcachicago.org,Dorothy Cole-Gary,Beverly Ross ,,,,,,
2286,DFSS_AgencySiteLies_2012.csv,YMCA of Metropolitan Chicago McCormick Tribune,1834 N. Lawndale ,60647,2352525,,,,,,,YMCA of Metropolitan Chicago,,,,,,,,,,,www.ymcachicago.org,Dorothy Cole-Gary,Maria Franco ,,,,,,
2287,DFSS_AgencySiteLies_2012.csv,YMCA of Metropolitan Chicago North Lawndale,3449 W. Arthington ,60624,6380773,,,,,,,YMCA of Metropolitan Chicago,,,,,,,,,,,www.ymcachicago.org,Dorothy Cole-Gary,Leslie Hampton ,,,,,,
2288,DFSS_AgencySiteLies_2012.csv,YMCA of Metropolitan Chicago Rauner,2700 S. Western Ave. ,60608,8473115,,,,,,,YMCA of Metropolitan Chicago,,,,,,,,,,,www.ymcachicago.org,Dorothy Cole-Gary,Sonya Sifuentes ,,,,,,
2289,DFSS_AgencySiteLies_2012.csv,YMCA of Metropolitan Chicago South Chicago,3039 E. 91st St. ,60617,7219100,,,,,,,YMCA of Metropolitan Chicago,,,,,,,,,,,www.ymcachicago.org,Dorothy Cole-Gary,Sherry Ceroomes ,,,,,,
2290,DFSS_AgencySiteLies_2012.csv,YMCA of Metropolitan Chicago South Side,6330 S. Stony Island ,60637,7739470,,,,,,,YMCA of Metropolitan Chicago,,,,,,,,,,,www.ymcachicago.org,Dorothy Cole-Gary,Bobbie Dickens ,,,,,,
2291,DFSS_AgencySiteLies_2012.csv,YMCA of Metropolitan Chicago Wabash,3763 S. Wabash Ave. ,60653,2850020,,,,,,,YMCA of Metropolitan Chicago,,,,,,,,,,,www.ymcachicago.org,Dorothy Cole-Gary,LaVonna Loving,,,,,,
