Id,Source,Site name,Address,Zip,Phone,Fax,Program Name,Length of Day,IDHS Provider ID,Agency,Neighborhood,Funded Enrollment,Program Option,Number per Site EHS,Number per Site HS,Director,Head Start Fund,Eearly Head Start Fund,CC fund,Progmod,Website,Executive Director,Center Director,ECE Available Programs,NAEYC Valid Until,NAEYC Program Id,Email Address,Ounce of Prevention Description,Purple binder service type,Column,Column2
2292,ECE Chicago Find a School scrape.csv, A-Karrasel Nursery Sch,3030 N. Kedzie ,60618,4636151,,,,,,Avondale,,,,,,,,,,,,,CP,,,,,,,
2293,ECE Chicago Find a School scrape.csv, Addams,10810 Ave. H ,60617,5356210,,,,,,East Side,,,,,,,,,,,,,PFA-REG,,,,,,,
2294,ECE Chicago Find a School scrape.csv, Agassiz(Blended),2851 N. Seminary ,60657,5345725,,,,,,Lake View,,,,,,,,,,,,,PFA-REG,,,,,,,
2295,ECE Chicago Find a School scrape.csv, Agassiz(Blended),2851 N. Seminary ,60657,5345725,,,,,,Lake View,,,,,,,,,,,,,TB,,,,,,,
2296,ECE Chicago Find a School scrape.csv, Albany Park Comm Ctr,3401 W. Ainslie ,60625,5095657,,,,,,Albany Park,,,,,,,,,,,,,CP,,,,,,,
2297,ECE Chicago Find a School scrape.csv, Albany Park Comm Ctr. East,5101 N. Kimball ,60625,5835111,,,,,,North Park,,,,,,,,,,,,,CP,,,,,,,
2298,ECE Chicago Find a School scrape.csv, Alcott,2625 N. Orchard ,60614,5345460,,,,,,Lincoln Park,,,,,,,,,,,,,TB,,,,,,,
2299,ECE Chicago Find a School scrape.csv, Aldridge,630 E. 131St St. ,60627,5355614,,,,,,Riverdale,,,,,,,,,,,,,HS-FD,,,,,,,
2300,ECE Chicago Find a School scrape.csv, Altgeld,7007 S. Loomis ,60636,5353250,,,,,,West Englewood,,,,,,,,,,,,,HS-HD,,,,,,,
2301,ECE Chicago Find a School scrape.csv, Ariel Comm,1119 E. 46th St. ,60653,5351996,,,,,,Kenwood,,,,,,,,,,,,,PFA-REG,,,,,,,
2302,ECE Chicago Find a School scrape.csv, Armour,950 W. 33rd Place ,60608,5354530,,,,,,Bridgeport,,,,,,,,,,,,,PFA-REG,,,,,,,
2303,ECE Chicago Find a School scrape.csv, Armstrong,2110 W. Greenleaf ,60645,5342150,,,,,,West Ridge,,,,,,,,,,,,,PFA-REG,,,,,,,
2304,ECE Chicago Find a School scrape.csv, Ashburn School,8300 S. St. Louis ,60652,5357860,,,,,,Ashburn,,,,,,,,,,,,,PFA-REG,,,,,,,
2305,ECE Chicago Find a School scrape.csv, Attucks,5055 S. State St. ,60609,5351270,,,,,,Douglas,,,,,,,,,,,,,PFA-REG,,,,,,,
2306,ECE Chicago Find a School scrape.csv, Audubon,3500 N. Hoyne ,60618,5345470,,,,,,North Center,,,,,,,,,,,,,PFA-REG TS,,,,,,,
2307,ECE Chicago Find a School scrape.csv, Audubon,3500 N. Hoyne ,60618,5345470,,,,,,North Center,,,,,,,,,,,,,TB,,,,,,,
2308,ECE Chicago Find a School scrape.csv, Avalon Park,8045 S. Kenwood ,60619,5356615,,,,,,Avalon Park,,,,,,,,,,,,,PFA-REG,,,,,,,
2309,ECE Chicago Find a School scrape.csv, Avondale,2945 N. Sawyer ,60618,5345244,,,,,,Avondale,,,,,,,,,,,,,PFA-REG TS,,,,,,,
2310,ECE Chicago Find a School scrape.csv, B & G Club General R.E. Wood,2950 W. 25th St ,60623,7627383,,,,,,South Lawndale,,,,,,,,,,,,,CP,,,,,,,
2311,ECE Chicago Find a School scrape.csv, B & G Ida Mae Fletcher,3140 W Ogden ,60623,8475172,,,,,,North Lawndale,,,,,,,,,,,,,CP,,,,,,,
2312,ECE Chicago Find a School scrape.csv, B & G James Jordan,2102 W. Monroe ,60612,4324294,,,,,,Near West Side,,,,,,,,,,,,,CP,,,,,,,
2313,ECE Chicago Find a School scrape.csv, B & G John Yancey,6245 S. Wabash ,60637,3634733,,,,,,Washington Park,,,,,,,,,,,,,CP,,,,,,,
2314,ECE Chicago Find a School scrape.csv, Banneker,6656 S. Normal ,60621,5353020,,,,,,Englewood,,,,,,,,,,,,,PFA-REG,,,,,,,
2315,ECE Chicago Find a School scrape.csv, Barnard,10354 S. Charles St. ,60643,5352625,,,,,,Beverly,,,,,,,,,,,,,PFA-REG,,,,,,,
2316,ECE Chicago Find a School scrape.csv, Barry,4634 W. Diversey ,60641,5343455,,,,,,Hermosa,,,,,,,,,,,,,PFA-REG TS,,,,,,,
2317,ECE Chicago Find a School scrape.csv, Barton,7650 S. Wolcott Ave. ,60620,5353260,,,,,,Auburn Gresham,,,,,,,,,,,,,HS-FD,,,,,,,
2318,ECE Chicago Find a School scrape.csv, Bass,1140 W. 66th St. ,60621,5353275,,,,,,Englewood,,,,,,,,,,,,,PFA-REG,,,,,,,
2319,ECE Chicago Find a School scrape.csv, Bateman,4220 N. Richmond ,60618,5345055,,,,,,Irving Park,,,,,,,,,,,,,PFA-REG,,,,,,,
2320,ECE Chicago Find a School scrape.csv, Beard,6445 W. Strong ,60656,5341228,,,,,,Norwood Park,,,,,,,,,,,,,PFA-REG,,,,,,,
2321,ECE Chicago Find a School scrape.csv, Beasley,5255 S. State St ,60609,5351230,,,,,,Washington Park,,,,,,,,,,,,,CPC-FD,,,,,,,
2322,ECE Chicago Find a School scrape.csv, Beaubien,5025 N. Laramie ,60630,5343500,,,,,,Jefferson Park,,,,,,,,,,,,,PFA-REG TS,,,,,,,
2323,ECE Chicago Find a School scrape.csv, Beethoven,4421 S. State St. ,60609,5351480,,,,,,Fuller Park,,,,,,,,,,,,,HS-FD,,,,,,,
2324,ECE Chicago Find a School scrape.csv, Beidler,3151 W. Walnut ,60612,5346811,,,,,,East Garfield Park,,,,,,,,,,,,,HS-HD,,,,,,,
2325,ECE Chicago Find a School scrape.csv, Belding,4207 W. Irving Park ,60641,5343590,,,,,,Irving Park,,,,,,,,,,,,,PFA-REG,,,,,,,
2326,ECE Chicago Find a School scrape.csv, Belding,4257 N. Tripp ,60641,5343590,,,,,,Irving Park,,,,,,,,,,,,,PFA-REG,,,,,,,
2327,ECE Chicago Find a School scrape.csv, Belmont-Cragin,6041 W. Diversey  ,60639,5343318,,,,,,Belmont Cragin,,,,,,,,,,,,,PFA-REG TS,,,,,,,
2328,ECE Chicago Find a School scrape.csv, Bennett,10115 S. Prairie ,60628,5355460,,,,,,Roseland,,,,,,,,,,,,,PFA-REG,,,,,,,
2329,ECE Chicago Find a School scrape.csv, Bethel New Life,1120 N. Lamon ,60651,6267760,,,,,,Austin,,,,,,,,,,,,,CP,,,,,,,
2330,ECE Chicago Find a School scrape.csv, Bethune,3030 W. Arthington ,60612,5346890,,,,,,East Garfield Park,,,,,,,,,,,,,HS-HD,,,,,,,
2331,ECE Chicago Find a School scrape.csv, Blaine,1420 W. Grace ,60613,5345750,,,,,,Lake View,,,,,,,,,,,,,TB,,,,,,,
2332,ECE Chicago Find a School scrape.csv, Blaine,1420 W. Grace ,60613,5345750,,,,,,Lake View,,,,,,,,,,,,,PFA-REG,,,,,,,
2333,ECE Chicago Find a School scrape.csv, Bond,7050 S. May ,60621,5353480,,,,,,Englewood,,,,,,,,,,,,,HS-HD,,,,,,,
2334,ECE Chicago Find a School scrape.csv, Bontemps,1241 W. 58th St ,60636,5359175,,,,,,West Englewood,,,,,,,,,,,,,PFA-REG,,,,,,,
2335,ECE Chicago Find a School scrape.csv, Boone,6710 N. Washtenaw ,60645,5342160,,,,,,West Ridge,,,,,,,,,,,,,PFA-REG TS,,,,,,,
2336,ECE Chicago Find a School scrape.csv, Bouchet,7355 S. Jefferey Blvd. ,60649,5350501,,,,,,South Shore,,,,,,,,,,,,,PFA-REG,,,,,,,
2337,ECE Chicago Find a School scrape.csv, Bradwell,7736 S. Burnhan ,60649,5356600,,,,,,South Shore,,,,,,,,,,,,,HS-HD,,,,,,,
2338,ECE Chicago Find a School scrape.csv, Brennemann,4251 N. Clarendon ,60613,5345766,,,,,,Uptown,,,,,,,,,,,,,PFA-REG,,,,,,,
2339,ECE Chicago Find a School scrape.csv, Brentano,2723 N. Fairfield ,60647,5344100,,,,,,Logan Square,,,,,,,,,,,,,PFA-REG,,,,,,,
2340,ECE Chicago Find a School scrape.csv, Bridge,3800 N. New England ,60634,5343718,,,,,,Dunning,,,,,,,,,,,,,PFA-REG,,,,,,,
2341,ECE Chicago Find a School scrape.csv, Bright,10740 S. Calhoun ,60617,5356215,,,,,,South Deering,,,,,,,,,,,,,PFA-REG,,,,,,,
2342,ECE Chicago Find a School scrape.csv, Brighton Park,3825 S. Washtenaw Ave. ,60632,5357235,,,,,,Brighton Park,,,,,,,,,,,,,PFA-REG,,,,,,,
2343,ECE Chicago Find a School scrape.csv, Brown,54 N. Hermitage ,60612,5347250,,,,,,Near West Side,,,,,,,,,,,,,PFA-REG,,,,,,,
2344,ECE Chicago Find a School scrape.csv, Brown Academy,12607 S. Union ,60628,5355385,,,,,,West Pullman,,,,,,,,,,,,,HS-HD,,,,,,,
2345,ECE Chicago Find a School scrape.csv, Brownell,6741 S. Michigan ,60637,5353030,,,,,,Greater Grand Crossing,,,,,,,,,,,,,PFA-REG,,,,,,,
2346,ECE Chicago Find a School scrape.csv, Brunson,932 N. Central Av ,60651,5346025,,,,,,Austin,,,,,,,,,,,,,HS-HD,,,,,,,
2347,ECE Chicago Find a School scrape.csv, Budlong,2701 W. Foster ,60625,5342591,,,,,,Lincoln Square,,,,,,,,,,,,,PFA-REG,,,,,,,
2348,ECE Chicago Find a School scrape.csv, Burbank,2035 N. Mobile ,60639,5343000,,,,,,Belmont Cragin,,,,,,,,,,,,,PFA-REG,,,,,,,
2349,ECE Chicago Find a School scrape.csv, Burke,5356 S. King Dr. ,60615,5351325,,,,,,Washington Park,,,,,,,,,,,,,HS-HD,,,,,,,
2350,ECE Chicago Find a School scrape.csv, Burley,1630 W. Barry ,60657,5345475,,,,,,Lake View,,,,,,,,,,,,,PFA-REG,,,,,,,
2351,ECE Chicago Find a School scrape.csv, Burley,1630 W. Barry ,60657,5345475,,,,,,Lake View,,,,,,,,,,,,,TB,,,,,,,
2352,ECE Chicago Find a School scrape.csv, Burnside,650 E. 91st Pl. ,60619,5353300,,,,,,Chatham,,,,,,,,,,,,,PFA-REG,,,,,,,
2353,ECE Chicago Find a School scrape.csv, Burr,1621 W. Wabansia ,60622,5344090,,,,,,West Town,,,,,,,,,,,,,TB,,,,,,,
2354,ECE Chicago Find a School scrape.csv, Burr,1621 W. Wabansia ,60622,5344090,,,,,,West Town,,,,,,,,,,,,,PFA-REG,,,,,,,
2355,ECE Chicago Find a School scrape.csv, Burroughs,3542 S. Washtenaw Ave. ,60632,5357226,,,,,,Brighton Park,,,,,,,,,,,,,PFA-REG TS,,,,,,,
2356,ECE Chicago Find a School scrape.csv, Caldwell (Blended),8546 S. Cregier ,60617,5356300,,,,,,Avalon Park,,,,,,,,,,,,,PFA-REG,,,,,,,
2357,ECE Chicago Find a School scrape.csv, Calhoun,2833 W. Adams Street ,60612,5346940,,,,,,East Garfield Park,,,,,,,,,,,,,PFA-REG,,,,,,,
2358,ECE Chicago Find a School scrape.csv, Cameron,1234 N. Monticello ,60651,5344290,,,,,,Humboldt Park,,,,,,,,,,,,,HS-HD,,,,,,,
2359,ECE Chicago Find a School scrape.csv, Cardenas Modular,2406 S. Central Park Ave ,60623,5341475,,,,,,South Lawndale,,,,,,,,,,,,,HS-HD,,,,,,,
2360,ECE Chicago Find a School scrape.csv, Carnegie,1414 E. 61st Pl. ,60637,5350530,,,,,,Woodlawn,,,,,,,,,,,,,PFA-REG,,,,,,,
2361,ECE Chicago Find a School scrape.csv, Carole Robertson,2929 W. 19th St. ,60623,5211600,,,,,,South Lawndale,,,,,,,,,,,,,CP,,,,,,,
2362,ECE Chicago Find a School scrape.csv, Carole Robertson I/T,2929 W. 19th St. ,60623,5211600,,,,,,South Lawndale,,,,,,,,,,,,,CP,,,,,,,
2363,ECE Chicago Find a School scrape.csv, Carole Robertson Jubilee,3701 W. Ogden ,60623,5211680,,,,,,North Lawndale,,,,,,,,,,,,,CP,,,,,,,
2364,ECE Chicago Find a School scrape.csv, Carole Robertson Jubilee I/T,3701 W. Ogden ,60623,5211680,,,,,,North Lawndale,,,,,,,,,,,,,CP,,,,,,,
2365,ECE Chicago Find a School scrape.csv, Carroll/ Rosenwald Br,2541 W. 80th St ,60652,5359355,,,,,,Ashburn,,,,,,,,,,,,,PFA-REG,,,,,,,
2366,ECE Chicago Find a School scrape.csv, Carson (Dual Lang.),5516 S. Maplewood ,60629,5359222,,,,,,Gage Park,,,,,,,,,,,,,HS-HD,,,,,,,
2367,ECE Chicago Find a School scrape.csv, Carter,5740 S. Michgan Ave. ,60637,5350860,,,,,,Washington Park,,,,,,,,,,,,,PFA-REG,,,,,,,
2368,ECE Chicago Find a School scrape.csv, Casals,3501 W. Potomac ,60651,5344444,,,,,,Humboldt Park,,,,,,,,,,,,,PFA-REG,,,,,,,
2369,ECE Chicago Find a School scrape.csv, Cather,2908 W. Washington ,60612,5346780,,,,,,East Garfield Park,,,,,,,,,,,,,HS-HD,,,,,,,
2370,ECE Chicago Find a School scrape.csv, Catholic Charities-Cordi-Marian,1100 S. May St. ,60607,6663787,,,,,,Near West Side,,,,,,,,,,,,,CP,,,,,,,
2371,ECE Chicago Find a School scrape.csv, Catholic Charities-Cordi-Marian I/T,1100 S. May St. ,60607,6663787,,,,,,Near West Side,,,,,,,,,,,,,CP,,,,,,,
2372,ECE Chicago Find a School scrape.csv, Catholic Charities-Grace Mission,5332 S. Western ,60609,4761900,,,,,,Gage Park,,,,,,,,,,,,,CP,,,,,,,
2373,ECE Chicago Find a School scrape.csv, Catholic Charities-Our Lady of Lourdes,1449 S. Keeler ,60623,5213126,,,,,,North Lawndale,,,,,,,,,,,,,CP,,,,,,,
2374,ECE Chicago Find a School scrape.csv, Catholic Charities-Our Lady of Lourdes I/T,1449 S. Keeler ,60623,5213126,,,,,,North Lawndale,,,,,,,,,,,,,CP,,,,,,,
2375,ECE Chicago Find a School scrape.csv, Catholic Charities-St Mark,1041 N. Campbell ,60622,7726606,,,,,,West Town,,,,,,,,,,,,,CP,,,,,,,
2376,ECE Chicago Find a School scrape.csv, Catholic Charities-St Mel Holy Ghost,4215 W. West End ,60624,5331556,,,,,,West Garfield Park,,,,,,,,,,,,,CP,,,,,,,
2377,ECE Chicago Find a School scrape.csv, Centers For New Horizons Altgeld,941 E. 132nd St ,60627,4683055,,,,,,Riverdale,,,,,,,,,,,,,CP,,,,,,,
2378,ECE Chicago Find a School scrape.csv, Centers For New Horizons Altgeld II,941 E. 132nd St ,60627,4683055,,,,,,Riverdale,,,,,,,,,,,,,CP,,,,,,,
2379,ECE Chicago Find a School scrape.csv, Centers For New Horizons E.L. Hoard ELC,3948 S. State  ,60609,5362187,,,,,,Grand Boulevard,,,,,,,,,,,,,CP,,,,,,,
2380,ECE Chicago Find a School scrape.csv, Centers For New Horizons Ida B. Wells ELC,3641 S. Rhodes  ,60653,3733640,,,,,,Douglas,,,,,,,,,,,,,CP,,,,,,,
2381,ECE Chicago Find a School scrape.csv, Centers For New Horizons James Pitts ELC,226 E. 43rd St  ,60653,6240061,,,,,,Grand Boulevard,,,,,,,,,,,,,CP,,,,,,,
2382,ECE Chicago Find a School scrape.csv, Centers For New Horizons Robert Taylor,5140 S. Federal  ,60609,5360510,,,,,,Washington Park,,,,,,,,,,,,,CP,,,,,,,
2383,ECE Chicago Find a School scrape.csv, Centers For New Horizons Stateway,3663 S. Wabash ,60609,3735673,,,,,,Douglas,,,,,,,,,,,,,CP,,,,,,,
2384,ECE Chicago Find a School scrape.csv, Centers For New Horizons Washington Pk,6225 S. Wabash ,60637,6672065,,,,,,Washington Park,,,,,,,,,,,,,CP,,,,,,,
2385,ECE Chicago Find a School scrape.csv, Central Batist Bridgeport,3053 S. Normal ,60616,8425566,,,,,,Bridgeport,,,,,,,,,,,,,CP,,,,,,,
2386,ECE Chicago Find a School scrape.csv, Central Batist Bridgeport I/T,3053 S. Normal ,60616,8425566,,,,,,Bridgeport,,,,,,,,,,,,,CP,,,,,,,
2387,ECE Chicago Find a School scrape.csv, Chalmers,2745 W. Roosevelt Rd. ,60608,5341720,,,,,,North Lawndale,,,,,,,,,,,,,HS-HD,,,,,,,
2388,ECE Chicago Find a School scrape.csv, Chappell,2135 W. Foster ,60625,5342390,,,,,,Lincoln Square,,,,,,,,,,,,,PFA-REG,,,,,,,
2389,ECE Chicago Find a School scrape.csv, Chase,2021 N. Point St. ,60647,5344185,,,,,,Logan Square,,,,,,,,,,,,,HS-HD,,,,,,,
2390,ECE Chicago Find a School scrape.csv, Chavez (Yr Round),4747 S. Marshfield ,60609,5354600,,,,,,New City,,,,,,,,,,,,,PFA-REG,,,,,,,
2391,ECE Chicago Find a School scrape.csv, Chesterfield Tom Thumb,9214 S. Cottage Grove ,60619,8473985,,,,,,Chatham,,,,,,,,,,,,,CP,,,,,,,
2392,ECE Chicago Find a School scrape.csv, Chicago Academy,3400 N. Austin ,60634,5343885,,,,,,Dunning,,,,,,,,,,,,,PFA-REG,,,,,,,
2393,ECE Chicago Find a School scrape.csv, Chicago Child Care Society,5467 S. University ,60615,2562450,,,,,,Hyde Park,,,,,,,,,,,,,CP,,,,,,,
2394,ECE Chicago Find a School scrape.csv, Chicago Commons Guadalupano,1814 S. Paulina ,60608,6663883,,,,,,Lower West Side,,,,,,,,,,,,,CP,,,,,,,
2395,ECE Chicago Find a School scrape.csv, Chicago Commons NEW CITY,4600 S. McDowell ,60609,3761657,,,,,,New City,,,,,,,,,,,,,CP,,,,,,,
2396,ECE Chicago Find a School scrape.csv, Chicago Commons NIA,744 N. Monticelo ,60624,8263770,,,,,,Humboldt Park,,,,,,,,,,,,,CP,,,,,,,
2397,ECE Chicago Find a School scrape.csv, Chicago Commons PauloFreire,1653 W. 43rd St ,60609,8266260,,,,,,New City,,,,,,,,,,,,,CP,,,,,,,
2398,ECE Chicago Find a School scrape.csv, Chicago Commons Taylor Center,1633 N. Hamlin  ,60647,2278551,,,,,,Humboldt Park,,,,,,,,,,,,,CP,,,,,,,
2399,ECE Chicago Find a School scrape.csv, Chicago International Charter-Basil Campus,1824 W. Garfield Blvd. ,60609,8630652,,,,,,New City,,,,,,,,,,,,,CP,,,,,,,
2400,ECE Chicago Find a School scrape.csv, Chicago State University,9501 S. King Dr. ,60628,9952556,,,,,,Roseland,,,,,,,,,,,,,CP,,,,,,,
2401,ECE Chicago Find a School scrape.csv, Chicago Urban Day School,1248 W. 69th St. ,60636,4833555,,,,,,West Englewood,,,,,,,,,,,,,CP,,,,,,,
2402,ECE Chicago Find a School scrape.csv, Chicago Youth Centers Centro Nuestro,1501 N. Harding ,60651,2785837,,,,,,Humboldt Park,,,,,,,,,,,,,CP,,,,,,,
2403,ECE Chicago Find a School scrape.csv, Children's Dev Inst Morgan Pk,10928 S. Halsted ,60628,9950600,,,,,,Morgan Park,,,,,,,,,,,,,CP,,,,,,,
2404,ECE Chicago Find a School scrape.csv, Children's Dev Inst Morgan Pk I/T,10928 S. Halsted ,60628,9950600,,,,,,Morgan Park,,,,,,,,,,,,,CP,,,,,,,
2405,ECE Chicago Find a School scrape.csv, Children's Dev Inst So Shore,7037 S. Stony Island ,60649,3633200,,,,,,South Shore,,,,,,,,,,,,,CP,,,,,,,
2406,ECE Chicago Find a School scrape.csv, Children's Dev Inst So Shore I/T,7037 S. Stony Island ,60649,3633200,,,,,,South Shore,,,,,,,,,,,,,CP,,,,,,,
2407,ECE Chicago Find a School scrape.csv, Children's Home Englewood Family Center,5958 S. Marshfield ,60636,4766998,,,,,,West Englewood,,,,,,,,,,,,,CP,,,,,,,
2408,ECE Chicago Find a School scrape.csv, Children's Home Viva Family Center,2516 W. Division ,60602,2526313,,,,,,West Town,,,,,,,,,,,,,CP,,,,,,,
2409,ECE Chicago Find a School scrape.csv, Children's Place Family Center,1800 N. Humboldt ,60622,3959193,,,,,,Logan Square,,,,,,,,,,,,,CP,,,,,,,
2410,ECE Chicago Find a School scrape.csv, ChildServ Humboldt,4909 W. Division ,60651,8677350,,,,,,Austin,,,,,,,,,,,,,CP,,,,,,,
2411,ECE Chicago Find a School scrape.csv, ChildServ Lawndale,4909 W. Division ,60651,8677350,,,,,,North Lawndale,,,,,,,,,,,,,CP,,,,,,,
2412,ECE Chicago Find a School scrape.csv, ChildServ St. Matthew,1000 N. Orleans  ,60610,9443403,,,,,,Near North Side,,,,,,,,,,,,,CP,,,,,,,
2413,ECE Chicago Find a School scrape.csv, ChildServ West Englewood,1711 W. Garfield Blvd. ,60636,8677350,,,,,,West Englewood,,,,,,,,,,,,,CP,,,,,,,
2414,ECE Chicago Find a School scrape.csv, Chinese Amer Svc Lea 3,310 W. 24th Place ,60616,7910509,,,,,,Armour Square,,,,,,,,,,,,,CP,,,,,,,
2415,ECE Chicago Find a School scrape.csv, Chipper Preschool,8225 S. Kedzie ,60652,7785757,,,,,,Ashburn,,,,,,,,,,,,,CP,,,,,,,
2416,ECE Chicago Find a School scrape.csv, Chopin,2450 W. Rice ,60622,5344080,,,,,,West Town,,,,,,,,,,,,,HS-HD,,,,,,,
2417,ECE Chicago Find a School scrape.csv, Christopher House Buena Park,4303 N. Kenmore ,60613,8830788,,,,,,Uptown,,,,,,,,,,,,,CP,,,,,,,
2418,ECE Chicago Find a School scrape.csv, Christopher House Eastwood,850 W. Eastwood ,60640,2719403,,,,,,Uptown,,,,,,,,,,,,,CP,,,,,,,
2419,ECE Chicago Find a School scrape.csv, Christopher House Greenview,2507 N. Greenview ,60614,4721083,,,,,,Lincoln Park,,,,,,,,,,,,,CP,,,,,,,
2420,ECE Chicago Find a School scrape.csv, Christopher House Lakeshore,850 W. Eastwood ,60640,2719403,,,,,,Uptown,,,,,,,,,,,,,CP,,,,,,,
2421,ECE Chicago Find a School scrape.csv, Christopher House Logan Sq,2610 N. Francisco ,60647,2354073,,,,,,Logan Square,,,,,,,,,,,,,CP,,,,,,,
2422,ECE Chicago Find a School scrape.csv, Christopher House Palmer Sq,2140 N. Richmond ,60647,7728693,,,,,,Logan Square,,,,,,,,,,,,,CP,,,,,,,
2423,ECE Chicago Find a School scrape.csv, Christopher House Uptown,4701 N. Winthorp ,60640,7694540,,,,,,Uptown,,,,,,,,,,,,,CP,,,,,,,
2424,ECE Chicago Find a School scrape.csv, Christopher House Uptown I/T,4701 N. Winthorp ,60640,7694540,,,,,,Uptown,,,,,,,,,,,,,CP,,,,,,,
2425,ECE Chicago Find a School scrape.csv, City Colleges Daley,7500 S. Pulaski ,60652,8387562,,,,,,West Lawn,,,,,,,,,,,,,CP,,,,,,,
2426,ECE Chicago Find a School scrape.csv, City Colleges Daley Semester Program,7500 S. Pulaski ,60652,8387562,,,,,,West Lawn,,,,,,,,,,,,,CP,,,,,,,
2427,ECE Chicago Find a School scrape.csv, City Colleges Kennedy King,6800 S. Wentworth ,60621,6025481,,,,,,Greater Grand Crossing,,,,,,,,,,,,,CP,,,,,,,
2428,ECE Chicago Find a School scrape.csv, City Colleges Malcolm X,1900 W. VanBuren ,60612,8507176,,,,,,Near West Side,,,,,,,,,,,,,CP,,,,,,,
2429,ECE Chicago Find a School scrape.csv, City Colleges Olive Harvey,10001 S. Woodlawn ,60628,2916315,,,,,,Pullman,,,,,,,,,,,,,CP,,,,,,,
2430,ECE Chicago Find a School scrape.csv, City Colleges Truman,1145 W. Wilson ,60640,9074741,,,,,,Uptown,,,,,,,,,,,,,CP,,,,,,,
2431,ECE Chicago Find a School scrape.csv, Claremont,2300 W. 64th St ,60636,5358110,,,,,,Chicago Lawn,,,,,,,,,,,,,HS-HD,,,,,,,
2432,ECE Chicago Find a School scrape.csv, Clark,1045 S. Monitor Ave ,60644,5346225,,,,,,Austin,,,,,,,,,,,,,PFA-REG,,,,,,,
2433,ECE Chicago Find a School scrape.csv, Clay,13231 S.Burley ,60633,5355600,,,,,,Hegewisch,,,,,,,,,,,,,PFA-REG,,,,,,,
2434,ECE Chicago Find a School scrape.csv, Cleveland,3121 W. Byron ,60618,5345130,,,,,,Irving Park,,,,,,,,,,,,,PFA-REG,,,,,,,
2435,ECE Chicago Find a School scrape.csv, Clinton,6110 N. Fairfield ,60659,5342025,,,,,,West Ridge,,,,,,,,,,,,,PFA-REG,,,,,,,
2436,ECE Chicago Find a School scrape.csv, Cockrell,30 E. 61St ,60637,5350650,,,,,,Washington Park,,,,,,,,,,,,,HS-HD,,,,,,,
2437,ECE Chicago Find a School scrape.csv," Colemon, Johnnie",1441 W. 119th St. ,60643,5353975,,,,,,West Pullman,,,,,,,,,,,,,PFA-REG,,,,,,,
2438,ECE Chicago Find a School scrape.csv, Coles,8441 S. Yates ,60617,5356550,,,,,,South Chicago,,,,,,,,,,,,,PFA-REG,,,,,,,
2439,ECE Chicago Find a School scrape.csv, Columbia Explorers,4520 S. Kedzie ,60632,5354050,,,,,,Brighton Park,,,,,,,,,,,,,HS-HD,,,,,,,
2440,ECE Chicago Find a School scrape.csv, Columbus,1003 N. Leavitt ,60622,5344350,,,,,,West Town,,,,,,,,,,,,,PFA-REG,,,,,,,
2441,ECE Chicago Find a School scrape.csv, Cook,8150 S. Bishop ,60620,5353315,,,,,,Auburn Gresham,,,,,,,,,,,,,PFA-REG,,,,,,,
2442,ECE Chicago Find a School scrape.csv, Coonley,4046 N. Leavitt ,60618,5345140,,,,,,North Center,,,,,,,,,,,,,PFA-REG,,,,,,,
2443,ECE Chicago Find a School scrape.csv, Cooper,1624 W. 19Th St. ,60608,5347205,,,,,,Lower West Side,,,,,,,,,,,,,HS-HD,,,,,,,
2444,ECE Chicago Find a School scrape.csv, Corkery,2510 S. Kildare  ,60623,5341650,,,,,,South Lawndale,,,,,,,,,,,,,HS-HD,,,,,,,
2445,ECE Chicago Find a School scrape.csv, Courtenay,1726 W. Berteau ,60613,5345790,,,,,,Lake View,,,,,,,,,,,,,PFA-REG,,,,,,,
2446,ECE Chicago Find a School scrape.csv, Creative Mansion,4745 S. Ellis ,60615,2686066,,,,,,Kenwood,,,,,,,,,,,,,CP,,,,,,,
2447,ECE Chicago Find a School scrape.csv, Crown,2128 S. St. Louis Ave ,60623,5341680,,,,,,North Lawndale,,,,,,,,,,,,,PFA-REG,,,,,,,
2448,ECE Chicago Find a School scrape.csv, Cuffe,8324 S. Racine ,60620,5358250,,,,,,Auburn Gresham,,,,,,,,,,,,,PFA-REG,,,,,,,
2449,ECE Chicago Find a School scrape.csv, Curtis,32 E. 115Th St. ,60628,5355050,,,,,,Roseland,,,,,,,,,,,,,HS-HD,,,,,,,
2450,ECE Chicago Find a School scrape.csv, Daley,5024 S. Wolcott ,60609,5359091,,,,,,New City,,,,,,,,,,,,,HS-HD,,,,,,,
2451,ECE Chicago Find a School scrape.csv, Darwin,3116 W. Belden ,60647,5344110,,,,,,Logan Square,,,,,,,,,,,,,PFA-REG,,,,,,,
2452,ECE Chicago Find a School scrape.csv, Davis,3014 W. 39th Pl ,60632,5354540,,,,,,Brighton Park,,,,,,,,,,,,,HS-HD,,,,,,,
2453,ECE Chicago Find a School scrape.csv, Dawes,3810 W. 81st Pl. ,60652,5352350,,,,,,Ashburn,,,,,,,,,,,,,PFA-REG,,,,,,,
2454,ECE Chicago Find a School scrape.csv, De Diego,1313 N. Claremont ,60622,5344451,,,,,,West Town,,,,,,,,,,,,,PFA-REG,,,,,,,
2455,ECE Chicago Find a School scrape.csv, Delano,3905 W. Wilcox ,60624,5346450,,,,,,West Garfield Park,,,,,,,,,,,,,CPC-FD,,,,,,,
2456,ECE Chicago Find a School scrape.csv, Deneen,7257 S. State ,60619,5353035,,,,,,Greater Grand Crossing,,,,,,,,,,,,,HS-HD,,,,,,,
2457,ECE Chicago Find a School scrape.csv, Dett,2306 W. Maypole ,60612,5347160,,,,,,Near West Side,,,,,,,,,,,,,HS-FD,,,,,,,
2458,ECE Chicago Find a School scrape.csv, Dever,3436 N. Osceola ,60634,5343090,,,,,,Dunning,,,,,,,,,,,,,PFA-REG,,,,,,,
2459,ECE Chicago Find a School scrape.csv, Dewey CPC,638 W. 54Th Pl. ,60609,5351671,,,,,,New City,,,,,,,,,,,,,CPC-HD,,,,,,,
2460,ECE Chicago Find a School scrape.csv, Dewey CPC,638 W. 54Th Pl. ,60609,5351671,,,,,,New City,,,,,,,,,,,,,CPC-FD,,,,,,,
2461,ECE Chicago Find a School scrape.csv, Dirksen,8601 W. Foster  ,60656,5341090,,,,,,O'Hare,,,,,,,,,,,,,PFA-REG TS,,,,,,,
2462,ECE Chicago Find a School scrape.csv, Disney Magnet,4140 N. Marine Dr. ,60613,5345840,,,,,,Uptown,,,,,,,,,,,,,PFA-REG,,,,,,,
2463,ECE Chicago Find a School scrape.csv, Disney Magnet,3815 N. Kedvale Ave. ,60613,5345840,,,,,,Uptown,,,,,,,,,,,,,PFA-REG,,,,,,,
2464,ECE Chicago Find a School scrape.csv, Disney Magnet,4140 N. Marine Dr. ,60613,5345840,,,,,,Uptown,,,,,,,,,,,,,TB,,,,,,,
2465,ECE Chicago Find a School scrape.csv, Disney Magnet,3815 N. Kedvale Ave. ,60613,5345840,,,,,,Uptown,,,,,,,,,,,,,TB,,,,,,,
2466,ECE Chicago Find a School scrape.csv, Dixon,8306 S. St. Lawrence ,60619,5353834,,,,,,Chatham,,,,,,,,,,,,,PFA-REG,,,,,,,
2467,ECE Chicago Find a School scrape.csv, Dodge,2651 W. Washington ,60612,5346640,,,,,,East Garfield Park,,,,,,,,,,,,,HS-FD,,,,,,,
2468,ECE Chicago Find a School scrape.csv, Dominguez,3000 S. Lawndale Ave ,60623,5341600,,,,,,South Lawndale,,,,,,,,,,,,,PFA-REG,,,,,,,
2469,ECE Chicago Find a School scrape.csv, Doolittle East EC,535 E. 35th St ,60616,5351040,,,,,,Douglas,,,,,,,,,,,,,HS-HD,,,,,,,
2470,ECE Chicago Find a School scrape.csv, Dore,6108 S. Natoma ,60638,5352080,,,,,,Clearing,,,,,,,,,,,,,PFA-REG,,,,,,,
2471,ECE Chicago Find a School scrape.csv, Dorsey Developmental Institute,2050 E 93th St. ,60617,3754300,,,,,,Calumet Heights,,,,,,,,,,,,,CP,,,,,,,
2472,ECE Chicago Find a School scrape.csv, Dorsey Developmental Institute III,2938 E. 91st St. ,60617,9330053,,,,,,South Chicago,,,,,,,,,,,,,CP,,,,,,,
2473,ECE Chicago Find a School scrape.csv, Dubois,330 E. 133Rd St. ,60627,5355582,,,,,,Riverdale,,,,,,,,,,,,,HS-HD,,,,,,,
2474,ECE Chicago Find a School scrape.csv, Dulles,6311 S. Calumet ,60637,5350690,,,,,,Greater Grand Crossing,,,,,,,,,,,,,HS-HD,,,,,,,
2475,ECE Chicago Find a School scrape.csv, Dumas,6650 S. Ellis ,60637,5350750,,,,,,Woodlawn,,,,,,,,,,,,,PFA-REG,,,,,,,
2476,ECE Chicago Find a School scrape.csv, Dunne,10845 S. Union ,60628,5355517,,,,,,Roseland,,,,,,,,,,,,,PFA-REG,,,,,,,
2477,ECE Chicago Find a School scrape.csv, Durkin Park School,8445 S. Kolin ,60652,5352322,,,,,,Ashburn,,,,,,,,,,,,,PFA-REG,,,,,,,
2478,ECE Chicago Find a School scrape.csv, Dvorak,3615 W. 16Th St. ,60623,5341690,,,,,,North Lawndale,,,,,,,,,,,,,HS-HD,,,,,,,
2479,ECE Chicago Find a School scrape.csv, Earle,6121 S. Hermitage ,60636,5359130,,,,,,West Englewood,,,,,,,,,,,,,PFA-REG,,,,,,,
2480,ECE Chicago Find a School scrape.csv, Easter Seals Gilchrist Marchman,2345 W. North Ave ,60647,2764000,,,,,,West Town,,,,,,,,,,,,,CP,,,,,,,
2481,ECE Chicago Find a School scrape.csv, Easter Seals Windy City Kids,600 W. Madison ,60648,5756550,,,,,,Near West Side,,,,,,,,,,,,,CP,,,,,,,
2482,ECE Chicago Find a School scrape.csv, Eberhart,3400 W. 65th Pl ,60629,5359190,,,,,,Chicago Lawn,,,,,,,,,,,,,HS-HD,,,,,,,
2483,ECE Chicago Find a School scrape.csv, Ebinger,7350 W Pratt ,60631,5341070,,,,,,Edison Park,,,,,,,,,,,,,PFA-REG,,,,,,,
2484,ECE Chicago Find a School scrape.csv, Edison,6220 N. Olcott ,60631,5340960,,,,,,Norwood Park,,,,,,,,,,,,,PFA-REG,,,,,,,
2485,ECE Chicago Find a School scrape.csv, Edwards,4950 S. LaPorte ,60632,5352011,,,,,,Archer Heights,,,,,,,,,,,,,HS-HD,,,,,,,
2486,ECE Chicago Find a School scrape.csv, El Hogar California,2325 S. California ,60608,5231629,,,,,,South Lawndale,,,,,,,,,,,,,CP,,,,,,,
2487,ECE Chicago Find a School scrape.csv, El Hogar Loomis,1718 S. Loomis ,60608,5630662,,,,,,Lower West Side,,,,,,,,,,,,,CP,,,,,,,
2488,ECE Chicago Find a School scrape.csv, El Hogar New Loomis,1718 S. Loomis ,60608,5630662,,,,,,Lower West Side,,,,,,,,,,,,,CP,,,,,,,
2489,ECE Chicago Find a School scrape.csv, El Hogar New Loomis I/T,1718 S. Loomis ,60608,5630662,,,,,,Lower West Side,,,,,,,,,,,,,CP,,,,,,,
2490,ECE Chicago Find a School scrape.csv, El Hogar Racine,1854 S. Racine ,60608,2430011,,,,,,Lower West Side,,,,,,,,,,,,,CP,,,,,,,
2491,ECE Chicago Find a School scrape.csv, El Hogar Racine I/T,1854 S. Racine ,60608,2430011,,,,,,Lower West Side,,,,,,,,,,,,,CP,,,,,,,
2492,ECE Chicago Find a School scrape.csv, Ellington,243 N. Parkside ,60644,5346361,,,,,,Austin,,,,,,,,,,,,,HS-HD,,,,,,,
2493,ECE Chicago Find a School scrape.csv, Emmet,5500 W. Madison ,60644,5346050,,,,,,Austin,,,,,,,,,,,,,PFA-REG,,,,,,,
2494,ECE Chicago Find a School scrape.csv, Ericson,3600 West 5th Ave ,60624,5346660,,,,,,East Garfield Park,,,,,,,,,,,,,PFA-REG,,,,,,,
2495,ECE Chicago Find a School scrape.csv, Erie House,1701 W. Superior ,60622,5635800,,,,,,West Town,,,,,,,,,,,,,CP,,,,,,,
2496,ECE Chicago Find a School scrape.csv, Erie House I/T,1701 W. Superior ,60622,5635800,,,,,,West Town,,,,,,,,,,,,,CP,,,,,,,
2497,ECE Chicago Find a School scrape.csv, Esmond (Blended),1865 W. Montvale ,60643,5352650,,,,,,Morgan Park,,,,,,,,,,,,,HS-HD,,,,,,,
2498,ECE Chicago Find a School scrape.csv, Everett,3419 S. Bell Av. ,60608,5354550,,,,,,McKinley Park,,,,,,,,,,,,,PFA-REG,,,,,,,
2499,ECE Chicago Find a School scrape.csv, Eyes on the Future,1329 W. Loyola ,60626,9730771,,,,,,Rogers Park,,,,,,,,,,,,,CP,,,,,,,
2500,ECE Chicago Find a School scrape.csv, Eyes on the Future II,1773 W. Lunt ,60626,7628045,,,,,,Rogers Park,,,,,,,,,,,,,CP,,,,,,,
2501,ECE Chicago Find a School scrape.csv, Ezzard Charles,7946 S Ashland  ,60620,4870227,,,,,,Auburn Gresham,,,,,,,,,,,,,CP,,,,,,,
2502,ECE Chicago Find a School scrape.csv, Falconer,3020 N. Lamon ,60641,5343560,,,,,,Belmont Cragin,,,,,,,,,,,,,PFA-REG TS,,,,,,,
2503,ECE Chicago Find a School scrape.csv, Farnsworth,5414 N. Linder ,60630,5343535,,,,,,Jefferson Park,,,,,,,,,,,,,PFA-REG,,,,,,,
2504,ECE Chicago Find a School scrape.csv, Farragut,2345 S. Christiana ,60623,5341300,,,,,,South Lawndale,,,,,,,,,,,,,PFA-REG,,,,,,,
2505,ECE Chicago Find a School scrape.csv, Ferguson CPC,1420 N. Hudson ,60610,5348580,,,,,,Near North Side,,,,,,,,,,,,,CPC-FD,,,,,,,
2506,ECE Chicago Find a School scrape.csv, Finkl,2332 S. Western ,60608,5355850,,,,,,Lower West Side,,,,,,,,,,,,,HS-HD,,,,,,,
2507,ECE Chicago Find a School scrape.csv, Firman Community Svcs East,4910 S. King Drive ,60615,3733400,,,,,,Grand Boulevard,,,,,,,,,,,,,CP,,,,,,,
2508,ECE Chicago Find a School scrape.csv, Firman Community Svcs West,37 W. 47Th St ,60609,3733400,,,,,,Grand Boulevard,,,,,,,,,,,,,CP,,,,,,,
2509,ECE Chicago Find a School scrape.csv, First Congregational Church DC,1305 N. Hamlin ,60651,3848118,,,,,,Humboldt Park,,,,,,,,,,,,,CP,,,,,,,
2510,ECE Chicago Find a School scrape.csv, First Congregational Church DC I/T,1305 N. Hamlin ,60651,3848118,,,,,,Humboldt Park,,,,,,,,,,,,,CP,,,,,,,
2511,ECE Chicago Find a School scrape.csv, Fiske,6145 S. Ingleside ,60637,5350990,,,,,,Woodlawn,,,,,,,,,,,,,HS-HD,,,,,,,
2512,ECE Chicago Find a School scrape.csv, Fleming/ Grimes Br.,4918 W. 64Th St. ,60638,5352405,,,,,,Clearing,,,,,,,,,,,,,PFA-REG,,,,,,,
2513,ECE Chicago Find a School scrape.csv, Foster Park,8530 S. Wood St. ,60620,5352725,,,,,,Auburn Gresham,,,,,,,,,,,,,PFA-REG,,,,,,,
2514,ECE Chicago Find a School scrape.csv, Fuller,4214 S. St Lawrence ,60653,5351687,,,,,,Grand Boulevard,,,,,,,,,,,,,HS-HD,,,,,,,
2515,ECE Chicago Find a School scrape.csv, Fulton,5300 S. Hermitage ,60609,5359000,,,,,,New City,,,,,,,,,,,,,HS-HD,,,,,,,
2516,ECE Chicago Find a School scrape.csv, Funston,2010 N. Central Park ,60647,5344125,,,,,,Logan Square,,,,,,,,,,,,,HS-HD,,,,,,,
2517,ECE Chicago Find a School scrape.csv, Gads Hill Child Care,2653 W. Ogden ,60608,5211196,,,,,,North Lawndale,,,,,,,,,,,,,CP,,,,,,,
2518,ECE Chicago Find a School scrape.csv, Gads Hill Child Care I/T,2653 W. Ogden ,60608,5211196,,,,,,North Lawndale,,,,,,,,,,,,,CP,,,,,,,
2519,ECE Chicago Find a School scrape.csv, Gale,1631 W. Jonquil Tr. ,60626,5342100,,,,,,Rogers Park,,,,,,,,,,,,,HS-HD,,,,,,,
2520,ECE Chicago Find a School scrape.csv, Galileo Scholastic,820 S. Carpenter ,60607,5347070,,,,,,Near West Side,,,,,,,,,,,,,PFA-REG,,,,,,,
2521,ECE Chicago Find a School scrape.csv, Gallistel,10347 S. Ewing Ave. ,60617,5356540,,,,,,East Side,,,,,,,,,,,,,PFA-REG TS,,,,,,,
2522,ECE Chicago Find a School scrape.csv, Gary,3740 W. 31St St. ,60623,5341455,,,,,,South Lawndale,,,,,,,,,,,,,HS-HD,,,,,,,
2523,ECE Chicago Find a School scrape.csv, Gillespie,9301 S. State St. ,60619,5355065,,,,,,Roseland,,,,,,,,,,,,,PFA-REG,,,,,,,
2524,ECE Chicago Find a School scrape.csv, Goethe,2236 N. Rockwell ,60647,5344135,,,,,,Logan Square,,,,,,,,,,,,,PFA-REG,,,,,,,
2525,ECE Chicago Find a School scrape.csv, Goldblatt,4257 W. Adams ,60624,5346860,,,,,,West Garfield Park,,,,,,,,,,,,,HS-HD,,,,,,,
2526,ECE Chicago Find a School scrape.csv, Goodlow,2040 W. 62nd St. ,60636,5359365,,,,,,West Englewood,,,,,,,,,,,,,PFA-REG,,,,,,,
2527,ECE Chicago Find a School scrape.csv, Goudy,5120 N. Winthrop ,60640,5342480,,,,,,Uptown,,,,,,,,,,,,,HS-HD,,,,,,,
2528,ECE Chicago Find a School scrape.csv, Graham,745 W. 45th St. ,60609,5351308,,,,,,New City,,,,,,,,,,,,,HS-HD,,,,,,,
2529,ECE Chicago Find a School scrape.csv, Gray,3730 N. Laramie ,60641,5343520,,,,,,Portage Park,,,,,,,,,,,,,PFA-REG TS,,,,,,,
2530,ECE Chicago Find a School scrape.csv, Greeley,832 W. Sheridan ,60613,5345800,,,,,,Lake View,,,,,,,,,,,,,PFA-REG,,,,,,,
2531,ECE Chicago Find a School scrape.csv, Gregory,3715 W. Polk Street ,60624,5346820,,,,,,East Garfield Park,,,,,,,,,,,,,PFA-REG,,,,,,,
2532,ECE Chicago Find a School scrape.csv, Gresham,8524 S. Green ,60620,5353350,,,,,,Auburn Gresham,,,,,,,,,,,,,HS-HD,,,,,,,
2533,ECE Chicago Find a School scrape.csv, Grissom,12810 S. Escanaba ,60633,5355380,,,,,,Hegewisch,,,,,,,,,,,,,PFA-REG,,,,,,,
2534,ECE Chicago Find a School scrape.csv, Guggenheim,7141 S. Morgan ,60621,5353587,,,,,,Englewood,,,,,,,,,,,,,HS-HD,,,,,,,
2535,ECE Chicago Find a School scrape.csv, Gunsaulus Acad,4420 S. Sacramento ,60632,5357215,,,,,,Brighton Park,,,,,,,,,,,,,PFA-REG,,,,,,,
2536,ECE Chicago Find a School scrape.csv, Haines,247 W. 23rd Pl. ,60616,5349200,,,,,,Armour Square,,,,,,,,,,,,,PFA-REG,,,,,,,
2537,ECE Chicago Find a School scrape.csv, Hale,6140 S. Melvina ,60638,5352265,,,,,,Clearing,,,,,,,,,,,,,PFA-REG,,,,,,,
2538,ECE Chicago Find a School scrape.csv," Haley, Alex",11411 S. Eggleston ,60628,5355345,,,,,,Roseland,,,,,,,,,,,,,HS-HD,,,,,,,
2539,ECE Chicago Find a School scrape.csv, Hamilton,1650 W. Cornelia ,60657,5345484,,,,,,Lake View,,,,,,,,,,,,,TB,,,,,,,
2540,ECE Chicago Find a School scrape.csv, Hamline (Yr Round),4652 S. Bishop ,60609,5354520,,,,,,New City,,,,,,,,,,,,,HS-HD,,,,,,,
2541,ECE Chicago Find a School scrape.csv, Hammond,2819 W. 21st Pl ,60623,5354580,,,,,,South Lawndale,,,,,,,,,,,,,PFA-REG,,,,,,,
2542,ECE Chicago Find a School scrape.csv," Hampton, Lionel",3434 W. 77th ,60652,5354030,,,,,,Ashburn,,,,,,,,,,,,,PFA-REG,,,,,,,
2543,ECE Chicago Find a School scrape.csv, Hansberry CPC,4055 W Arthington ,60624,5346931,,,,,,North Lawndale,,,,,,,,,,,,,CPC-FD,,,,,,,
2544,ECE Chicago Find a School scrape.csv, Hanson Park,2318 N. Lorel ,60639,5342926,,,,,,Belmont Cragin,,,,,,,,,,,,,PFA-REG,,,,,,,
2545,ECE Chicago Find a School scrape.csv, Hanson Park,5411 W. Fullerton ,60639,5343100,,,,,,Belmont Cragin,,,,,,,,,,,,,PFA-REG,,,,,,,
2546,ECE Chicago Find a School scrape.csv, Happy Holiday Nursery,401 E. 111th St ,60628,8217009,,,,,,Roseland,,,,,,,,,,,,,CP,,,,,,,
2547,ECE Chicago Find a School scrape.csv, Harte,1556 E. 56th St. ,60637,5350870,,,,,,Hyde Park,,,,,,,,,,,,,PFA-REG,,,,,,,
2548,ECE Chicago Find a School scrape.csv, Harvard,7525 S. Harvard ,60620,5353045,,,,,,Greater Grand Crossing,,,,,,,,,,,,,PFA-REG,,,,,,,
2549,ECE Chicago Find a School scrape.csv, Haugan,4540 N. Hamlin ,60625,5345040,,,,,,Albany Park,,,,,,,,,,,,,PFA-REG,,,,,,,
2550,ECE Chicago Find a School scrape.csv, Hay,1018 N. Laramie ,60651,5346000,,,,,,Austin,,,,,,,,,,,,,HS-HD,,,,,,,
2551,ECE Chicago Find a School scrape.csv, Hayt,1518 W. Granville ,60660,5342040,,,,,,Edgewater,,,,,,,,,,,,,PFA-REG,,,,,,,
2552,ECE Chicago Find a School scrape.csv, Healy,3040 S. Parnell ,60616,5349170,,,,,,Bridgeport,,,,,,,,,,,,,PFA-REG,,,,,,,
2553,ECE Chicago Find a School scrape.csv, Hearst,4640 S. Lamon ,60638,5352376,,,,,,Garfield Ridge,,,,,,,,,,,,,PFA-REG,,,,,,,
2554,ECE Chicago Find a School scrape.csv, Hedges,4747 S. Winchester ,60609,5357360,,,,,,New City,,,,,,,,,,,,,PFA-REG TS,,,,,,,
2555,ECE Chicago Find a School scrape.csv, Hefferan,4409 W. Wilcox St ,60624,5346192,,,,,,West Garfield Park,,,,,,,,,,,,,PFA-REG,,,,,,,
2556,ECE Chicago Find a School scrape.csv, Henderson,5650 S. Wolcott ,60636,5359080,,,,,,West Englewood,,,,,,,,,,,,,PFA-REG,,,,,,,
2557,ECE Chicago Find a School scrape.csv, Hendricks,4316 S. Princeton ,60609,5351696,,,,,,Fuller Park,,,,,,,,,,,,,PFA-REG,,,,,,,
2558,ECE Chicago Find a School scrape.csv, Henry,4250 N. St. Louis ,60618,5345060,,,,,,Irving Park,,,,,,,,,,,,,PFA-REG,,,,,,,
2559,ECE Chicago Find a School scrape.csv, Henry Booth House Gentry,2326 S.Dearborn ,60616,7910051,,,,,,Near South Side,,,,,,,,,,,,,CP,,,,,,,
2560,ECE Chicago Find a School scrape.csv, Henry Booth Near South,2929 S. Wabash ,60616,7910424,,,,,,Douglas,,,,,,,,,,,,,CP,,,,,,,
2561,ECE Chicago Find a School scrape.csv, Henson (Olive),1326 S. Avers Ave ,60623,5341804,,,,,,North Lawndale,,,,,,,,,,,,,HS-HD,,,,,,,
2562,ECE Chicago Find a School scrape.csv, Herbert,2131 W. Monroe ,60612,5347806,,,,,,Near West Side,,,,,,,,,,,,,HS-HD,,,,,,,
2563,ECE Chicago Find a School scrape.csv, Herzl (CPC),1401 S. Hamlin ,60623,5341751,,,,,,North Lawndale,,,,,,,,,,,,,CPC-FD,,,,,,,
2564,ECE Chicago Find a School scrape.csv, Hibbard,3244 W. Ainslie ,60625,5345191,,,,,,Albany Park,,,,,,,,,,,,,PFA-REG,,,,,,,
2565,ECE Chicago Find a School scrape.csv, Higgins,11710 S. Morgan ,60643,5355625,,,,,,West Pullman,,,,,,,,,,,,,HS-HD,,,,,,,
2566,ECE Chicago Find a School scrape.csv, Hinton,644 W. 71st Street ,60621,5353875,,,,,,Englewood,,,,,,,,,,,,,HS-FD,,,,,,,
2567,ECE Chicago Find a School scrape.csv, Hitch,5625 N. Mcvicker ,60646,5341189,,,,,,Norwood Park,,,,,,,,,,,,,PFA-REG,,,,,,,
2568,ECE Chicago Find a School scrape.csv, Holden,1104 W. 31st Street ,60608,5357200,,,,,,Bridgeport,,,,,,,,,,,,,PFA-REG,,,,,,,
2569,ECE Chicago Find a School scrape.csv, Holmes,955 W. Garfield ,60621,5359025,,,,,,Englewood,,,,,,,,,,,,,HS-HD,,,,,,,
2570,ECE Chicago Find a School scrape.csv, Home of Life II,4650 W. Madison ,60644,6268655,,,,,,Austin,,,,,,,,,,,,,CP,,,,,,,
2571,ECE Chicago Find a School scrape.csv, Home of Life II I/T,4650 W. Madison ,60644,6268655,,,,,,Austin,,,,,,,,,,,,,CP,,,,,,,
2572,ECE Chicago Find a School scrape.csv, Home of Life Just For You,4650 W. Madison ,60644,6268655,,,,,,Austin,,,,,,,,,,,,,CP,,,,,,,
2573,ECE Chicago Find a School scrape.csv, Howard Area EC Center,7638 N. Paulina ,60626,2624309,,,,,,Rogers Park,,,,,,,,,,,,,CP,,,,,,,
2574,ECE Chicago Find a School scrape.csv, Howe,720 N. Lorel ,60644,5346060,,,,,,Austin,,,,,,,,,,,,,PFA-REG,,,,,,,
2575,ECE Chicago Find a School scrape.csv," Hughes, C.",4247 W. 15Th St. ,60623,5341762,,,,,,North Lawndale,,,,,,,,,,,,,PFA-REG,,,,,,,
2576,ECE Chicago Find a School scrape.csv," Hughes, L.",240 W. 104th St. ,60628,5355075,,,,,,Roseland,,,,,,,,,,,,,HS-HD,,,,,,,
2577,ECE Chicago Find a School scrape.csv, Hull House - Parkway,500 E. 67th St. ,60619,4931306,,,,,,Woodlawn,,,,,,,,,,,,,CP,,,,,,,
2578,ECE Chicago Find a School scrape.csv, Hull House - Uptown,4520 N. Beacon  ,60640,5613500,,,,,,Uptown,,,,,,,,,,,,,CP,,,,,,,
2579,ECE Chicago Find a School scrape.csv, Hurley,3849 W. 69Th St ,60629,5352068,,,,,,West Lawn,,,,,,,,,,,,,HS-HD,,,,,,,
2580,ECE Chicago Find a School scrape.csv, Inter-American,851 W. Waveland  ,60657,5345490,,,,,,Lake View,,,,,,,,,,,,,PFA-REG,,,,,,,
2581,ECE Chicago Find a School scrape.csv, Irving,749 S. Oakley Blvd ,60612,5347295,,,,,,Near West Side,,,,,,,,,,,,,PFA-REG,,,,,,,
2582,ECE Chicago Find a School scrape.csv, Irving Park Early Learning Ctr,3023 W. Montrose ,60618,5397422,,,,,,Irving Park,,,,,,,,,,,,,CP,,,,,,,
2583,ECE Chicago Find a School scrape.csv," Jackson,M",917 W. 88Th St. ,60620,5353341,,,,,,Auburn Gresham,,,,,,,,,,,,,PFA-REG,,,,,,,
2584,ECE Chicago Find a School scrape.csv, Jahn,3149 N. Wolcott ,60657,5345500,,,,,,Lake View,,,,,,,,,,,,,PFA-REG,,,,,,,
2585,ECE Chicago Find a School scrape.csv, Jenner,1119 N. Cleveland ,60610,5348440,,,,,,Near North Side,,,,,,,,,,,,,HS-HD,,,,,,,
2586,ECE Chicago Find a School scrape.csv, Jensen Schol Acad,3030 W. Harrison ,60612,5346840,,,,,,East Garfield Park,,,,,,,,,,,,,PFA-REG,,,,,,,
2587,ECE Chicago Find a School scrape.csv, Johnson,1420 S. Albany ,60623,5341829,,,,,,North Lawndale,,,,,,,,,,,,,HS-HD,,,,,,,
2588,ECE Chicago Find a School scrape.csv, Joplin,7931 S. Honore St. ,60620,5353425,,,,,,Auburn Gresham,,,,,,,,,,,,,PFA-REG,,,,,,,
2589,ECE Chicago Find a School scrape.csv, Jordan,7414 N. Wolcott ,60626,5342220,,,,,,Rogers Park,,,,,,,,,,,,,HS-HD,,,,,,,
2590,ECE Chicago Find a School scrape.csv, Jungman,1746 S. Miller ,60608,5347375,,,,,,Lower West Side,,,,,,,,,,,,,HS-HD,,,,,,,
2591,ECE Chicago Find a School scrape.csv, Kanoon,2233 S. Kedzie ,60623,5341736,,,,,,South Lawndale,,,,,,,,,,,,,PFA-REG,,,,,,,
2592,ECE Chicago Find a School scrape.csv, Keller,3020 W. 108th St. ,60655,5352636,,,,,,Mount Greenwood,,,,,,,,,,,,,CP,,,,,,,
2593,ECE Chicago Find a School scrape.csv, Kellman Corp Comm,751 S. Sacramento Blvd ,60612,5346602,,,,,,East Garfield Park,,,,,,,,,,,,,PFA-REG,,,,,,,
2594,ECE Chicago Find a School scrape.csv, Kenyatta's Day Care Center,2334 E. 75th St. ,60649,2213777,,,,,,South Shore,,,,,,,,,,,,,CP,,,,,,,
2595,ECE Chicago Find a School scrape.csv, Kershaw,6450 S. Lowe ,60621,5353050,,,,,,Englewood,,,,,,,,,,,,,HS-HD,,,,,,,
2596,ECE Chicago Find a School scrape.csv, Kiddie Korner,645 W. 127th St. ,60628,8215437,,,,,,West Pullman,,,,,,,,,,,,,CP,,,,,,,
2597,ECE Chicago Find a School scrape.csv," Kidwatch Plus, Inc.",3901 N. Ridgeway ,60618,5395431,,,,,,Irving Park,,,,,,,,,,,,,CP,,,,,,,
2598,ECE Chicago Find a School scrape.csv, Kilmer,6700 N. Greenview ,60626,5342115,,,,,,Rogers Park,,,,,,,,,,,,,PFA-REG,,,,,,,
2599,ECE Chicago Find a School scrape.csv, King,740 S. Campbell Ave ,60612,5347898,,,,,,Near West Side,,,,,,,,,,,,,PFA-REG,,,,,,,
2600,ECE Chicago Find a School scrape.csv, Kinzie,5625 S. Mobile ,60638,5352425,,,,,,Garfield Ridge,,,,,,,,,,,,,PFA-REG,,,,,,,
2601,ECE Chicago Find a School scrape.csv, KKP - Kiddy Kare I,4444 S. Kedzie ,60632,2476642,,,,,,Brighton Park,,,,,,,,,,,,,CP,,,,,,,
2602,ECE Chicago Find a School scrape.csv, KKP - Kidz Colony,6287 S. Archer ,60638,7670844,,,,,,Garfield Ridge,,,,,,,,,,,,,CP,,,,,,,
2603,ECE Chicago Find a School scrape.csv, KKP - Little Learners Daycare,5923 W. 63rd St. ,60609,5815541,,,,,,Clearing,,,,,,,,,,,,,CP,,,,,,,
2604,ECE Chicago Find a School scrape.csv, KKP - Little Tykes I,1711 W. 35th St. ,60609,2548396,,,,,,McKinley Park,,,,,,,,,,,,,CP,,,,,,,
2605,ECE Chicago Find a School scrape.csv, KKP - Little Tykes II,1723 W. 35th St. ,60609,5791793,,,,,,McKinley Park,,,,,,,,,,,,,CP,,,,,,,
2606,ECE Chicago Find a School scrape.csv, Kohn,10414 S. State  ,60628,5355489,,,,,,Roseland,,,,,,,,,,,,,HS-HD,,,,,,,
2607,ECE Chicago Find a School scrape.csv, Kozminski Com Acad,936 E. 54th St. ,60615,5350980,,,,,,Hyde Park,,,,,,,,,,,,,PFA-REG,,,,,,,
2608,ECE Chicago Find a School scrape.csv, Lafayette,2714 W. Augusta Bl. ,60622,5344326,,,,,,West Town,,,,,,,,,,,,,HS-HD,,,,,,,
2609,ECE Chicago Find a School scrape.csv, Lara,4619 S. Wolcott ,60609,5354389,,,,,,New City,,,,,,,,,,,,,PFA-REG,,,,,,,
2610,ECE Chicago Find a School scrape.csv, Lasalle Lang Acad,1148 N. Honore ,60614,5344284,,,,,,Lincoln Park,,,,,,,,,,,,,PFA-REG,,,,,,,
2611,ECE Chicago Find a School scrape.csv, Laurance Amour,630 S. Ashland ,60607,9426501,,,,,,Near West Side,,,,,,,,,,,,,CP,,,,,,,
2612,ECE Chicago Find a School scrape.csv, Lavizzo,138 W. 109Th St ,60628,5355300,,,,,,Roseland,,,,,,,,,,,,,HS-HD,,,,,,,
2613,ECE Chicago Find a School scrape.csv, Lawndale,3500 W. Douglas ,60623,5341635,,,,,,North Lawndale,,,,,,,,,,,,,HS-HD,,,,,,,
2614,ECE Chicago Find a School scrape.csv, Lawrence,9928 S. Crandon ,60617,5356320,,,,,,South Deering,,,,,,,,,,,,,PFA-REG,,,,,,,
2615,ECE Chicago Find a School scrape.csv, Lee,6448 S. Tripp ,60629,5352255,,,,,,West Lawn,,,,,,,,,,,,,PFA-REG,,,,,,,
2616,ECE Chicago Find a School scrape.csv, Leland,5221 W. Congress ,60644,5346340,,,,,,Austin,,,,,,,,,,,,,PFA-REG,,,,,,,
2617,ECE Chicago Find a School scrape.csv, Lenart,8101 S. LaSalle ,60620,5350040,,,,,,Chatham,,,,,,,,,,,,,PFA-REG,,,,,,,
2618,ECE Chicago Find a School scrape.csv, Lewis,1431 N. Leamington ,60651,5343060,,,,,,Austin,,,,,,,,,,,,,PFA-REG,,,,,,,
2619,ECE Chicago Find a School scrape.csv, Libby,5338 S. Loomis ,60609,5359350,,,,,,New City,,,,,,,,,,,,,PFA-REG,,,,,,,
2620,ECE Chicago Find a School scrape.csv, Linne,3221 N. Sacramento ,60618,5345262,,,,,,Avondale,,,,,,,,,,,,,HS-HD,,,,,,,
2621,ECE Chicago Find a School scrape.csv, Little Village,2620 S. Lawndale ,60623,5341880,,,,,,South Lawndale,,,,,,,,,,,,,HS-HD,,,,,,,
2622,ECE Chicago Find a School scrape.csv, Lloyd,2103 N. Lamon ,60639,5343070,,,,,,Belmont Cragin,,,,,,,,,,,,,HS-HD,,,,,,,
2623,ECE Chicago Find a School scrape.csv, Love Learning Center,362 E. 61st St ,60637,7520243,,,,,,Washington Park,,,,,,,,,,,,,CP,,,,,,,
2624,ECE Chicago Find a School scrape.csv, Lovett,6333 W. Bloomingdale ,60639,5343130,,,,,,Austin,,,,,,,,,,,,,PFA-REG,,,,,,,
2625,ECE Chicago Find a School scrape.csv, Lozano,1424 N. Cleaver ,60622,5344150,,,,,,West Town,,,,,,,,,,,,,PFA-REG,,,,,,,
2626,ECE Chicago Find a School scrape.csv, Lutheran Day Nursery,1802 N. Fairfield ,60647,4864222,,,,,,Logan Square,,,,,,,,,,,,,CP,,,,,,,
2627,ECE Chicago Find a School scrape.csv, Lutheran Family Mission Day Care III,5251 W. North Ave. ,60637,6372344,,,,,,Austin,,,,,,,,,,,,,CP,,,,,,,
2628,ECE Chicago Find a School scrape.csv, Lutheran Family Mission Fam Cnt,4920 W Madison ,60644,9214960,,,,,,Austin,,,,,,,,,,,,,CP,,,,,,,
2629,ECE Chicago Find a School scrape.csv, Lutheran Social Services-North Austin,1500 N. Mason ,60651,2371930,,,,,,Austin,,,,,,,,,,,,,CP,,,,,,,
2630,ECE Chicago Find a School scrape.csv, Lutheran Social Services-Roger Park,1754 W. Devon ,60660,2623366,,,,,,Rogers Park,,,,,,,,,,,,,CP,,,,,,,
2631,ECE Chicago Find a School scrape.csv, Lutheran Social Services-Winthrop,4848 N. Winthrop ,60640,8783210,,,,,,Uptown,,,,,,,,,,,,,CP,,,,,,,
2632,ECE Chicago Find a School scrape.csv, Madison,7433 S. Dorchester ,60619,5350551,,,,,,South Shore,,,,,,,,,,,,,HS-HD,,,,,,,
2633,ECE Chicago Find a School scrape.csv, Marconi,230 N. Kolmar  ,60624,5346210,,,,,,West Garfield Park,,,,,,,,,,,,,PFA-REG,,,,,,,
2634,ECE Chicago Find a School scrape.csv, Marcy Newberry Austin Town,5610 W. Lake St. ,60644,2611505,,,,,,Austin,,,,,,,,,,,,,CP,,,,,,,
2635,ECE Chicago Find a School scrape.csv, Marcy Newberry Marcy Center,1539 S. Springfield ,60623,7622300,,,,,,North Lawndale,,,,,,,,,,,,,CP,,,,,,,
2636,ECE Chicago Find a School scrape.csv, Marillac Social Center,212 S. Francisco Ave ,60612,7227440,,,,,,East Garfield Park,,,,,,,,,,,,,CP,,,,,,,
2637,ECE Chicago Find a School scrape.csv, Marin/ Lowell,3320 W. Evergreen ,60651,5344300,,,,,,Humboldt Park,,,,,,,,,,,,,PFA-REG,,,,,,,
2638,ECE Chicago Find a School scrape.csv, Marquette,6550 S. Richmond ,60629,5359260,,,,,,Chicago Lawn,,,,,,,,,,,,,PFA-REG,,,,,,,
2639,ECE Chicago Find a School scrape.csv, Marsh,9810 S. Exchange ,60617,5356430,,,,,,South Deering,,,,,,,,,,,,,PFA-REG,,,,,,,
2640,ECE Chicago Find a School scrape.csv, Mary Crane,2905 N. Leavitt ,60618,3485528,,,,,,North Center,,,,,,,,,,,,,CP,,,,,,,
2641,ECE Chicago Find a School scrape.csv, Mary Crane East 0-3,2974 N. Clybourn ,60618,3485528,,,,,,North Center,,,,,,,,,,,,,CP,,,,,,,
2642,ECE Chicago Find a School scrape.csv, Mary Crane North,2905 N. Leavitt ,60618,3485528,,,,,,North Center,,,,,,,,,,,,,CP,,,,,,,
2643,ECE Chicago Find a School scrape.csv, Mary Crane North 0-3,2905 N. Leavitt ,60618,3485528,,,,,,North Center,,,,,,,,,,,,,CP,,,,,,,
2644,ECE Chicago Find a School scrape.csv, Mason,4216 W. 19th St. ,60623,5341530,,,,,,North Lawndale,,,,,,,,,,,,,HS-FD,,,,,,,
2645,ECE Chicago Find a School scrape.csv, May,512 S. Lavergne  ,60644,5346140,,,,,,Austin,,,,,,,,,,,,,HS-HD,,,,,,,
2646,ECE Chicago Find a School scrape.csv, Mayo,249 E. 37th St. ,60653,5351260,,,,,,Douglas,,,,,,,,,,,,,HS-HD,,,,,,,
2647,ECE Chicago Find a School scrape.csv, McAuliffe,1841 N. Springfield ,60647,5344400,,,,,,Hermosa,,,,,,,,,,,,,PFA-REG,,,,,,,
2648,ECE Chicago Find a School scrape.csv, McCann's Daycare Center,8612 S. Stony Island ,60617,3757932,,,,,,Avalon Park,,,,,,,,,,,,,CP,,,,,,,
2649,ECE Chicago Find a School scrape.csv, McClellan,3527 S. Wallace ,60609,5351732,,,,,,Bridgeport,,,,,,,,,,,,,HS-HD,,,,,,,
2650,ECE Chicago Find a School scrape.csv, McCormick,2712 S. Sawyer  ,60623,5357252,,,,,,South Lawndale,,,,,,,,,,,,,HS-HD,,,,,,,
2651,ECE Chicago Find a School scrape.csv, McCutcheon,4846 N. Sheridan Rd ,60640,5342680,,,,,,Uptown,,,,,,,,,,,,,HS-HD,,,,,,,
2652,ECE Chicago Find a School scrape.csv, McDowell,1419 E. 89th St. ,60619,5356404,,,,,,Calumet Heights,,,,,,,,,,,,,HS-FD,,,,,,,
2653,ECE Chicago Find a School scrape.csv, McKay,7059 S. Washtenaw ,60629,5359340,,,,,,Chicago Lawn,,,,,,,,,,,,,HS-HD,,,,,,,
2654,ECE Chicago Find a School scrape.csv, McNair Acad Ctr,4820 W. Walton ,60651,5348980,,,,,,Austin,,,,,,,,,,,,,HS-HD,,,,,,,
2655,ECE Chicago Find a School scrape.csv, McPherson,4728 N. Wolcott Ave ,60640,5342625,,,,,,Lincoln Square,,,,,,,,,,,,,HS-HD,,,,,,,
2656,ECE Chicago Find a School scrape.csv, Melody,412 S. Keeler ,60624,5346850,,,,,,West Garfield Park,,,,,,,,,,,,,PFA-REG,,,,,,,
2657,ECE Chicago Find a School scrape.csv, Metcalfe,12339 S. Normal ,60628,5355590,,,,,,West Pullman,,,,,,,,,,,,,PFA-REG,,,,,,,
2658,ECE Chicago Find a School scrape.csv, Metropolitan Family Services,3215 W. 63rd St ,60629,7374790,,,,,,Chicago Lawn,,,,,,,,,,,,,CP,,,,,,,
2659,ECE Chicago Find a School scrape.csv, Metropolitan Family Services 0-3,3215 W. 63rd St ,60629,7374790,,,,,,Chicago Lawn,,,,,,,,,,,,,CP,,,,,,,
2660,ECE Chicago Find a School scrape.csv, Mireles,9000 S. Exchange ,60617,5356360,,,,,,South Chicago,,,,,,,,,,,,,PFA-REG,,,,,,,
2661,ECE Chicago Find a School scrape.csv, Mitchell,2233 W. Ohio ,60612,5347655,,,,,,West Town,,,,,,,,,,,,,PFA-REG,,,,,,,
2662,ECE Chicago Find a School scrape.csv, Monroe,3651 W. Schubert ,60647,5344155,,,,,,Logan Square,,,,,,,,,,,,,HS-HD,,,,,,,
2663,ECE Chicago Find a School scrape.csv, Monroe,3651 W. Shubert ,60647,5344155,,,,,,Logan Square,,,,,,,,,,,,,PFA-REG,,,,,,,
2664,ECE Chicago Find a School scrape.csv, Moos,1711 N. California ,60647,5344340,,,,,,West Town,,,,,,,,,,,,,PFA-REG,,,,,,,
2665,ECE Chicago Find a School scrape.csv, Morgan,8407 S. Kerfoot ,60620,5353366,,,,,,Auburn Gresham,,,,,,,,,,,,,HS-HD,,,,,,,
2666,ECE Chicago Find a School scrape.csv, Morrill,6011 S. Rockwell  ,60629,5359288,,,,,,Chicago Lawn,,,,,,,,,,,,,PFA-REG,,,,,,,
2667,ECE Chicago Find a School scrape.csv, Morton,431 N. Troy ,60612,5346791,,,,,,Humboldt Park,,,,,,,,,,,,,HS-HD,,,,,,,
2668,ECE Chicago Find a School scrape.csv, Mosaic (Portage Park),5332 W. Addison ,60641,7777411,,,,,,Portage Park,,,,,,,,,,,,,CP,,,,,,,
2669,ECE Chicago Find a School scrape.csv, Mother's Touch I,2501 W. 71St ,60629,4363177,,,,,,Chicago Lawn,,,,,,,,,,,,,CP,,,,,,,
2670,ECE Chicago Find a School scrape.csv, Mother's Touch II,2547 W. 69th Street ,60629,4712532,,,,,,Chicago Lawn,,,,,,,,,,,,,CP,,,,,,,
2671,ECE Chicago Find a School scrape.csv, Mozart,2200 N. Hamlin ,60647,5344160,,,,,,Logan Square,,,,,,,,,,,,,PFA-REG TS,,,,,,,
2672,ECE Chicago Find a School scrape.csv, Mt Greenwood,10841 S. Homan ,60655,5352786,,,,,,Mount Greenwood,,,,,,,,,,,,,PFA-REG,,,,,,,
2673,ECE Chicago Find a School scrape.csv, Murphy,3539 W. Grace ,60618,5345223,,,,,,Irving Park,,,,,,,,,,,,,PFA-REG,,,,,,,
2674,ECE Chicago Find a School scrape.csv, Murray Lang Acad,5335 S. Kenwood ,60615,5350585,,,,,,Hyde Park,,,,,,,,,,,,,PFA-REG,,,,,,,
2675,ECE Chicago Find a School scrape.csv, Nash,4837 W. Erie ,60644,5346125,,,,,,Austin,,,,,,,,,,,,,HS-HD,,,,,,,
2676,ECE Chicago Find a School scrape.csv, National Teachers Acad,55 West Cermak ,60616,5349970,,,,,,Near South Side,,,,,,,,,,,,,HS-FD,,,,,,,
2677,ECE Chicago Find a School scrape.csv, NE Ill Univ Child Care Center,5500 N. St Louis ,60625,5390570,,,,,,North Park,,,,,,,,,,,,,CP,,,,,,,
2678,ECE Chicago Find a School scrape.csv, Near North Sp. Ed Ctr.,739 N. Ada St. ,60622,5347846,,,,,,West Town,,,,,,,,,,,,,CP,,,,,,,
2679,ECE Chicago Find a School scrape.csv, Nettelhorst,3252 N. Broadway ,60657,5345810,,,,,,Lake View,,,,,,,,,,,,,PFA-REG,,,,,,,
2680,ECE Chicago Find a School scrape.csv, Nettelhorst,3252 N. Broadway ,60657,5345810,,,,,,Lake View,,,,,,,,,,,,,TB,,,,,,,
2681,ECE Chicago Find a School scrape.csv, New Field,1707 W. Morse ,60626,5342760,,,,,,Rogers Park,,,,,,,,,,,,,HS-HD,,,,,,,
2682,ECE Chicago Find a School scrape.csv, New Hope Lutheran School,6416 S. Washtenaw ,60629,7769849,,,,,,Chicago Lawn,,,,,,,,,,,,,CP,,,,,,,
2683,ECE Chicago Find a School scrape.csv, Newberry Magnet,700 W. Willow ,60614,5348000,,,,,,Lincoln Park,,,,,,,,,,,,,TB,,,,,,,
2684,ECE Chicago Find a School scrape.csv, Nicholson,6006 S. Peoria ,60621,5353285,,,,,,Englewood,,,,,,,,,,,,,HS-FD,,,,,,,
2685,ECE Chicago Find a School scrape.csv, Nightingale,5250 S. Rockwell ,60632,5359270,,,,,,Gage Park,,,,,,,,,,,,,PFA-REG,,,,,,,
2686,ECE Chicago Find a School scrape.csv, Nixon,2121 N. Keeler ,60639,5344375,,,,,,Hermosa,,,,,,,,,,,,,HS-HD,,,,,,,
2687,ECE Chicago Find a School scrape.csv, NLU - Effie O. Ellis HS,10 S. Kedzie ,60612,5339011,,,,,,East Garfield Park,,,,,,,,,,,,,CP,,,,,,,
2688,ECE Chicago Find a School scrape.csv, Nobel,4127 W. Hirsch ,60651,5344365,,,,,,Humboldt Park,,,,,,,,,,,,,PFA-REG,,,,,,,
2689,ECE Chicago Find a School scrape.csv, North Avenue,2001 W. Pierce St. ,60622,3424499,,,,,,West Town,,,,,,,,,,,,,CP,,,,,,,
2690,ECE Chicago Find a School scrape.csv, North Avenue I/T,2001 W. Pierce St. ,60622,3424499,,,,,,West Town,,,,,,,,,,,,,CP,,,,,,,
2691,ECE Chicago Find a School scrape.csv, North Kenwood Day Care Ctr.,857 E. Pershing Rd. ,60653,2682223,,,,,,Oakland,,,,,,,,,,,,,CP,,,,,,,
2692,ECE Chicago Find a School scrape.csv, North River,4416 N. Troy ,60625,5340590,,,,,,Albany Park,,,,,,,,,,,,,PFA-REG,,,,,,,
2693,ECE Chicago Find a School scrape.csv, Northwest Institute,4040 W. Division ,60651,2788261,,,,,,Humboldt Park,,,,,,,,,,,,,CP,,,,,,,
2694,ECE Chicago Find a School scrape.csv, Northwestern Univ Settlement Hse.,1400 W. Augusta Blvd. ,60622,2787471,,,,,,West Town,,,,,,,,,,,,,CP,,,,,,,
2695,ECE Chicago Find a School scrape.csv, Norwood Park,5900 N. Nina ,60631,5341198,,,,,,Norwood Park,,,,,,,,,,,,,PFA-REG,,,,,,,
2696,ECE Chicago Find a School scrape.csv, O'Keeffe,6941 S. Merrill ,60649,5350600,,,,,,South Shore,,,,,,,,,,,,,HS-HD,,,,,,,
2697,ECE Chicago Find a School scrape.csv, O'Toole,6550 S. Seeley ,60636,5359040,,,,,,West Englewood,,,,,,,,,,,,,HS-HD,,,,,,,
2698,ECE Chicago Find a School scrape.csv, Ogden,1443 N. Ogden ,60610,5348110,,,,,,Near North Side,,,,,,,,,,,,,TB,,,,,,,
2699,ECE Chicago Find a School scrape.csv, Oglesby,7646 S. Green ,60620,5353060,,,,,,Auburn Gresham,,,,,,,,,,,,,PFA-REG,,,,,,,
2700,ECE Chicago Find a School scrape.csv, Onahan,6634 W. Raven St. ,60631,5341180,,,,,,Norwood Park,,,,,,,,,,,,,PFA-REG,,,,,,,
2701,ECE Chicago Find a School scrape.csv, Onward House,600 N. Leavitt ,60612,6666729,,,,,,West Town,,,,,,,,,,,,,CP,,,,,,,
2702,ECE Chicago Find a School scrape.csv, Oriole Park,5424 N. Oketo ,60656,5341201,,,,,,Norwood Park,,,,,,,,,,,,,PFA-REG,,,,,,,
2703,ECE Chicago Find a School scrape.csv, Otis,525 N. Armour ,60622,5347665,,,,,,West Town,,,,,,,,,,,,,PFA-REG,,,,,,,
2704,ECE Chicago Find a School scrape.csv, Ounce -Garfield Head Start,30 W. Garfield ,60609,3730234,,,,,,Washington Park,,,,,,,,,,,,,CP,,,,,,,
2705,ECE Chicago Find a School scrape.csv, Ounce of Prev EC Center,5044 S Wabash ,60615,9242334,,,,,,Grand Boulevard,,,,,,,,,,,,,CP,,,,,,,
2706,ECE Chicago Find a School scrape.csv, Ounce of Prev EC Center I/T,5044 S Wabash ,60615,9242334,,,,,,Grand Boulevard,,,,,,,,,,,,,CP,,,,,,,
2707,ECE Chicago Find a School scrape.csv, Overton CPC,4935 S. Indiana ,60615,5351811,,,,,,Grand Boulevard,,,,,,,,,,,,,CPC-FD,,,,,,,
2708,ECE Chicago Find a School scrape.csv, Owens,12450 S. State St. ,60628,5355661,,,,,,West Pullman,,,,,,,,,,,,,PFA-REG,,,,,,,
2709,ECE Chicago Find a School scrape.csv, Palmer,5051 N. Kenneth ,60630,5343704,,,,,,Albany Park,,,,,,,,,,,,,PFA-REG,,,,,,,
2710,ECE Chicago Find a School scrape.csv, Panda Montessori Academy,6921 N. Ridge ,60645,3386755,,,,,,Rogers Park,,,,,,,,,,,,,CP,,,,,,,
2711,ECE Chicago Find a School scrape.csv, Park Manor,7037 S. Rhodes  ,60637,5353070,,,,,,Greater Grand Crossing,,,,,,,,,,,,,PFA-REG,,,,,,,
2712,ECE Chicago Find a School scrape.csv, Parker CPC,328 W. 69Th  ,60621,5353853,,,,,,Englewood,,,,,,,,,,,,,CPC-FD,,,,,,,
2713,ECE Chicago Find a School scrape.csv, Parkman,245 W. 51St. St. ,60609,5351739,,,,,,Fuller Park,,,,,,,,,,,,,PFA-REG,,,,,,,
2714,ECE Chicago Find a School scrape.csv, Parkside,6938 S. East End Av. ,60649,5350940,,,,,,South Shore,,,,,,,,,,,,,PFA-REG,,,,,,,
2715,ECE Chicago Find a School scrape.csv, Pathways to Learning,3416 W. 79th St. ,60652,4369244,,,,,,Ashburn,,,,,,,,,,,,,CP,,,,,,,
2716,ECE Chicago Find a School scrape.csv, Peabody,1444 W. Augusta ,60622,5344170,,,,,,West Town,,,,,,,,,,,,,HS-HD,,,,,,,
2717,ECE Chicago Find a School scrape.csv, Peck,4026 W. 59th Street ,60629,5352450,,,,,,West Elsdon,,,,,,,,,,,,,TS HS-HD,,,,,,,
2718,ECE Chicago Find a School scrape.csv, Peirce,1423 W. Bryn Mawr ,60660,5342440,,,,,,Edgewater,,,,,,,,,,,,,PFA-REG,,,,,,,
2719,ECE Chicago Find a School scrape.csv, Penn (Blended),1616 S. Avers ,60623,5341665,,,,,,North Lawndale,,,,,,,,,,,,,HS-HD,,,,,,,
2720,ECE Chicago Find a School scrape.csv, Perez,1241 W. 19Th St. ,60608,5347650,,,,,,Lower West Side,,,,,,,,,,,,,HS-HD,,,,,,,
2721,ECE Chicago Find a School scrape.csv, Pershing,3113 S. Rhodes ,60616,5349272,,,,,,Douglas,,,,,,,,,,,,,PFA-REG CP,,,,,,,
2722,ECE Chicago Find a School scrape.csv, Peterson,5510 N. Christiana ,60625,5345070,,,,,,North Park,,,,,,,,,,,,,PFA-REG TS,,,,,,,
2723,ECE Chicago Find a School scrape.csv, Piccolo,1040 N. Keeler ,60651,5344425,,,,,,Humboldt Park,,,,,,,,,,,,,HS-HD,,,,,,,
2724,ECE Chicago Find a School scrape.csv, Pickard,2301 W. 21st Pl. ,60608,5357280,,,,,,Lower West Side,,,,,,,,,,,,,HS-HD,,,,,,,
2725,ECE Chicago Find a School scrape.csv, Pilsen,1420 W. 17Th St. ,60608,5347675,,,,,,Lower West Side,,,,,,,,,,,,,HS-HD,,,,,,,
2726,ECE Chicago Find a School scrape.csv, Pirie,650 E. 85Th St ,60619,5353435,,,,,,Chatham,,,,,,,,,,,,,PFA-REG,,,,,,,
2727,ECE Chicago Find a School scrape.csv, Portage Park,5330 .W Berteau ,60641,5343576,,,,,,Portage Park,,,,,,,,,,,,,PFA-REG,,,,,,,
2728,ECE Chicago Find a School scrape.csv, Prescott,1632 W. Wrightwood ,60614,5345505,,,,,,Lincoln Park,,,,,,,,,,,,,PFA-REG,,,,,,,
2729,ECE Chicago Find a School scrape.csv, Pritzker,2009 W. Schiller St ,60622,5344415,,,,,,West Town,,,,,,,,,,,,,PFA-REG,,,,,,,
2730,ECE Chicago Find a School scrape.csv, Progressive Com DC Ctr,56 E. 48th St. ,60615,9246561,,,,,,Grand Boulevard,,,,,,,,,,,,,CP,,,,,,,
2731,ECE Chicago Find a School scrape.csv, Prussing,4650 N. Menard ,60630,5343460,,,,,,Portage Park,,,,,,,,,,,,,PFA-REG,,,,,,,
2732,ECE Chicago Find a School scrape.csv, Pulaski,2230 W. Mclean ,60647,5344391,,,,,,Logan Square,,,,,,,,,,,,,PFA-REG,,,,,,,
2733,ECE Chicago Find a School scrape.csv, Pullman,11311 S. Forrestville ,60628,5355395,,,,,,Pullman,,,,,,,,,,,,,PFA-REG,,,,,,,
2734,ECE Chicago Find a School scrape.csv, Randolph,7316 S. Hoyne ,60636,5359015,,,,,,West Englewood,,,,,,,,,,,,,PFA-REG,,,,,,,
2735,ECE Chicago Find a School scrape.csv, Ravenswood,4332 N. Paulina St. ,60613,5345525,,,,,,Lake View,,,,,,,,,,,,,PFA-REG,,,,,,,
2736,ECE Chicago Find a School scrape.csv, Ravenswood,4332 N. Paulina St. ,60613,5345525,,,,,,Lake View,,,,,,,,,,,,,PFA-REG,,,,,,,
2737,ECE Chicago Find a School scrape.csv, Ravenswood Community CCC,4908 N. Damen ,60625,2714495,,,,,,Lincoln Square,,,,,,,,,,,,,CP,,,,,,,
2738,ECE Chicago Find a School scrape.csv, Ray,5631 S Kimbark ,60637,5350970,,,,,,Hyde Park,,,,,,,,,,,,,TB,,,,,,,
2739,ECE Chicago Find a School scrape.csv, Ray,5631 S Kimbark ,60637,5350970,,,,,,Hyde Park,,,,,,,,,,,,,PFA-REG,,,,,,,
2740,ECE Chicago Find a School scrape.csv, Reavis (Blended),834 E. 50Th St. ,60615,5351060,,,,,,Kenwood,,,,,,,,,,,,,HS-HD,,,,,,,
2741,ECE Chicago Find a School scrape.csv, Reilly,3650 W. School ,60618,5345250,,,,,,Avondale,,,,,,,,,,,,,PFA-REG TB,,,,,,,
2742,ECE Chicago Find a School scrape.csv, Reinberg,3425 N. Major ,60634,5343465,,,,,,Portage Park,,,,,,,,,,,,,PFA-REG,,,,,,,
2743,ECE Chicago Find a School scrape.csv, Revere,1010 E. 72nd St. ,60619,5350618,,,,,,Greater Grand Crossing,,,,,,,,,,,,,HS-HD,,,,,,,
2744,ECE Chicago Find a School scrape.csv, Robinson,4225 S. Lake Park ,60653,5351777,,,,,,Oakland,,,,,,,,,,,,,HS-HD,,,,,,,
2745,ECE Chicago Find a School scrape.csv, Rogers,7345 N. Washtenaw ,60645,5342125,,,,,,West Ridge,,,,,,,,,,,,,PFA-REG TS,,,,,,,
2746,ECE Chicago Find a School scrape.csv, Rudolph,110 N Paulina ,60612,5347460,,,,,,Near West Side,,,,,,,,,,,,,PFA-FD,,,,,,,
2747,ECE Chicago Find a School scrape.csv, Ruggles,7831 S. Prairie ,60619,5353085,,,,,,Greater Grand Crossing,,,,,,,,,,,,,HS-HD,,,,,,,
2748,ECE Chicago Find a School scrape.csv, Ruiz,2410 S. Leavitt ,60608,5354825,,,,,,Lower West Side,,,,,,,,,,,,,PFA-REG,,,,,,,
2749,ECE Chicago Find a School scrape.csv, Ryder,8716 S. Wallace ,60620,5353843,,,,,,Auburn Gresham,,,,,,,,,,,,,HS-HD,,,,,,,
2750,ECE Chicago Find a School scrape.csv, Ryerson,646 N. Lawndale ,60624,5346700,,,,,,Humboldt Park,,,,,,,,,,,,,HS-HD,,,,,,,
2751,ECE Chicago Find a School scrape.csv, Salazar,160 W. Wendell ,60610,5348310,,,,,,Near North Side,,,,,,,,,,,,,PFA-FD,,,,,,,
2752,ECE Chicago Find a School scrape.csv, Salvation Army Columbus Park,500 S. Central ,60644,9214162,,,,,,Austin,,,,,,,,,,,,,CP,,,,,,,
2753,ECE Chicago Find a School scrape.csv, Salvation Army La Villita,3621 W. 24th St. ,60623,7332355,,,,,,South Lawndale,,,,,,,,,,,,,CP,,,,,,,
2754,ECE Chicago Find a School scrape.csv, Salvation Army Lawn,5900 S. Spaulding ,60629,7332533,,,,,,Chicago Lawn,,,,,,,,,,,,,CP,,,,,,,
2755,ECE Chicago Find a School scrape.csv, Salvation Army New Hope,4255 W. Division  ,60651,7724908,,,,,,Humboldt Park,,,,,,,,,,,,,CP,,,,,,,
2756,ECE Chicago Find a School scrape.csv, Salvation Army Red Shield,69th and Sangamon ,60621,7332533,,,,,,West Englewood,,,,,,,,,,,,,CP,,,,,,,
2757,ECE Chicago Find a School scrape.csv, Salvation Army Shiloah,9211 S. Justine  ,60620,8814142,,,,,,Washington Heights,,,,,,,,,,,,,CP,,,,,,,
2758,ECE Chicago Find a School scrape.csv, Salvation Army Temple,1 N. Ogden ,60607,2262649,,,,,,Near West Side,,,,,,,,,,,,,CP,,,,,,,
2759,ECE Chicago Find a School scrape.csv, Sandoval,5534 S. St Louis ,60629,5350457,,,,,,Gage Park,,,,,,,,,,,,,HS-HD,,,,,,,
2760,ECE Chicago Find a School scrape.csv, Saucedo,2850 W. 24Th Blvd ,60623,5341770,,,,,,South Lawndale,,,,,,,,,,,,,HS-HD,,,,,,,
2761,ECE Chicago Find a School scrape.csv, Sayre Lang Acad,1850 N. Newland ,60635,5343351,,,,,,Austin,,,,,,,,,,,,,PFA-REG,,,,,,,
2762,ECE Chicago Find a School scrape.csv, Scammon,4201 W. Henderson ,60641,5343475,,,,,,Irving Park,,,,,,,,,,,,,PFA-REG,,,,,,,
2763,ECE Chicago Find a School scrape.csv, Schmid,9755 S. Greenwood  ,60628,5356235,,,,,,Pullman,,,,,,,,,,,,,PFA-REG,,,,,,,
2764,ECE Chicago Find a School scrape.csv, Schubert,2727 N. Long ,60639,5343080,,,,,,Belmont Cragin,,,,,,,,,,,,,PFA-REG TS,,,,,,,
2765,ECE Chicago Find a School scrape.csv, Seward,4600 S. Hermitage ,60609,5354890,,,,,,New City,,,,,,,,,,,,,HS-HD,,,,,,,
2766,ECE Chicago Find a School scrape.csv," Sexton, A .O.",6020 S. Langley ,60637,5350640,,,,,,Woodlawn,,,,,,,,,,,,,HS-HD,,,,,,,
2767,ECE Chicago Find a School scrape.csv, Sherman,1000 W. 52nd St. ,60609,5351757,,,,,,New City,,,,,,,,,,,,,PFA-REG,,,,,,,
2768,ECE Chicago Find a School scrape.csv, Sherwood (Blended),245 W. 57Th St. ,60621,5350829,,,,,,Englewood,,,,,,,,,,,,,HS-HD,,,,,,,
2769,ECE Chicago Find a School scrape.csv, Shields,4250 S. Rockwell ,60632,5357285,,,,,,Brighton Park,,,,,,,,,,,,,HS-HD,,,,,,,
2770,ECE Chicago Find a School scrape.csv, Shoop,1460 W. 112Th St. ,60643,5352715,,,,,,Morgan Park,,,,,,,,,,,,,PFA-REG,,,,,,,
2771,ECE Chicago Find a School scrape.csv, Skinner,111 S. Throop ,60607,5347790,,,,,,Near West Side,,,,,,,,,,,,,TB,,,,,,,
2772,ECE Chicago Find a School scrape.csv, Small Stride Academy,10317 S. Western ,60643,2390040,,,,,,Beverly,,,,,,,,,,,,,CP,,,,,,,
2773,ECE Chicago Find a School scrape.csv, Smith,744 E. 103rd St. ,60628,5355689,,,,,,Pullman,,,,,,,,,,,,,PFA-REG,,,,,,,
2774,ECE Chicago Find a School scrape.csv, Smyser,4310 N. Melvina ,60634,5343711,,,,,,Portage Park,,,,,,,,,,,,,PFA-REG TS,,,,,,,
2775,ECE Chicago Find a School scrape.csv, Solomon,6206 N. Hamlin ,60659,5345226,,,,,,North Park,,,,,,,,,,,,,PFA-REG,,,,,,,
2776,ECE Chicago Find a School scrape.csv, Songhai,11725 S. Perry ,60628,5355547,,,,,,West Pullman,,,,,,,,,,,,,HS-HD,,,,,,,
2777,ECE Chicago Find a School scrape.csv, South Central Holistic Pre-K,8316 S. Ellis ,60619,4830900,,,,,,Chatham,,,,,,,,,,,,,CP,,,,,,,
2778,ECE Chicago Find a School scrape.csv, South East Asia Ainslie,1134 W. Ainslie St ,60640,9896927,,,,,,Uptown,,,,,,,,,,,,,CP,,,,,,,
2779,ECE Chicago Find a School scrape.csv, South East Asia Com Broadway,5120 N. Broadway ,60640,9890960,,,,,,Uptown,,,,,,,,,,,,,CP,,,,,,,
2780,ECE Chicago Find a School scrape.csv, South Harper 0-3,8358 S. Stony Island ,60617,7340303,,,,,,Avalon Park,,,,,,,,,,,,,CP,,,,,,,
2781,ECE Chicago Find a School scrape.csv, South Harper Montessori Sch,8358 S. Stony Island ,60617,7340303,,,,,,Avalon Park,,,,,,,,,,,,,CP,,,,,,,
2782,ECE Chicago Find a School scrape.csv, South Loop,1915 S. Federal ,60605,5349066,,,,,,Near South Side,,,,,,,,,,,,,TB,,,,,,,
2783,ECE Chicago Find a School scrape.csv, South Shore Academy,1415 E. 70Th St. ,60637,5348690,,,,,,South Shore,,,,,,,,,,,,,PFA-REG,,,,,,,
2784,ECE Chicago Find a School scrape.csv, Spencer,214 N. Lavergne ,60644,5346150,,,,,,Austin,,,,,,,,,,,,,HS-HD,,,,,,,
2785,ECE Chicago Find a School scrape.csv, Spry,2400 S. Marshall Bl ,60623,5341700,,,,,,South Lawndale,,,,,,,,,,,,,PFA-REG,,,,,,,
2786,ECE Chicago Find a School scrape.csv, St Augustine - Flamboyan,3401 W. McLean Ave. ,60647,2763423,,,,,,Logan Square,,,,,,,,,,,,,CP,,,,,,,
2787,ECE Chicago Find a School scrape.csv, St Augustine - Nayarit HS,2610 W. 25th Pl. ,60608,8783653,,,,,,South Lawndale,,,,,,,,,,,,,CP,,,,,,,
2788,ECE Chicago Find a School scrape.csv, St Augustine College - Canillatas,1333-45 W. Argyle ,60640,8783231,,,,,,Uptown,,,,,,,,,,,,,CP,,,,,,,
2789,ECE Chicago Find a School scrape.csv, St Vincent Depaul,2145 N. Halsted ,60614,9436776,,,,,,Lincoln Park,,,,,,,,,,,,,CP,,,,,,,
2790,ECE Chicago Find a School scrape.csv, St Vincent Depaul I/T,2145 N. Halsted ,60614,9436776,,,,,,Lincoln Park,,,,,,,,,,,,,CP,,,,,,,
2791,ECE Chicago Find a School scrape.csv, St. Paul-Chaney Ford Child Care,4526 S. Wabash  ,60653,2858721,,,,,,Grand Boulevard,,,,,,,,,,,,,CP,,,,,,,
2792,ECE Chicago Find a School scrape.csv, Stagg,7424 S. Morgan ,60621,5353565,,,,,,Englewood,,,,,,,,,,,,,HS-HD,,,,,,,
2793,ECE Chicago Find a School scrape.csv, Stevenson,8010 S. Kostner ,60652,5352280,,,,,,Ashburn,,,,,,,,,,,,,PFA-REG,,,,,,,
2794,ECE Chicago Find a School scrape.csv, Stewart,4525 N. Kenmore ,60640,5342640,,,,,,Uptown,,,,,,,,,,,,,HS-HD,,,,,,,
2795,ECE Chicago Find a School scrape.csv, Stock,7507 W. Birchwood ,60631,5341215,,,,,,Edison Park,,,,,,,,,,,,,PFA-REG TS,,,,,,,
2796,ECE Chicago Find a School scrape.csv, Stockton CPC Br.,4425 N. Magnolia Ave ,60640,5342510,,,,,,Uptown,,,,,,,,,,,,,HS-HD,,,,,,,
2797,ECE Chicago Find a School scrape.csv, Stowe (Blended),3444 W. Wabansia ,60647,5344175,,,,,,Humboldt Park,,,,,,,,,,,,,HS-HD,,,,,,,
2798,ECE Chicago Find a School scrape.csv, Sullivan,8255 S. Houston ,60617,5356585,,,,,,South Chicago,,,,,,,,,,,,,PFA-REG,,,,,,,
2799,ECE Chicago Find a School scrape.csv, Sumner,4320 W. Fifth Ave ,60624,5346730,,,,,,West Garfield Park,,,,,,,,,,,,,PFA-REG,,,,,,,
2800,ECE Chicago Find a School scrape.csv, Swift,5900 N. Winthrop ,60660,5342695,,,,,,Edgewater,,,,,,,,,,,,,PFA-REG,,,,,,,
2801,ECE Chicago Find a School scrape.csv, Talcott,1840 W. Ohio ,60622,5347130,,,,,,West Town,,,,,,,,,,,,,PFA-REG,,,,,,,
2802,ECE Chicago Find a School scrape.csv, Talman,5450 S. Talman ,60632,5357850,,,,,,Gage Park,,,,,,,,,,,,,PFA-REG,,,,,,,
2803,ECE Chicago Find a School scrape.csv, Tanner (Blended),7350 S. Evans ,60619,5353870,,,,,,Greater Grand Crossing,,,,,,,,,,,,,HS-HD,,,,,,,
2804,ECE Chicago Find a School scrape.csv, Taylor,9912 S. Avenue H ,60617,5356240,,,,,,East Side,,,,,,,,,,,,,PFA-REG,,,,,,,
2805,ECE Chicago Find a School scrape.csv, Teddy Bear 1,2649 W. 51st St ,60632,4760700,,,,,,Gage Park,,,,,,,,,,,,,CP,,,,,,,
2806,ECE Chicago Find a School scrape.csv, Teddy Bear 2,3800 W. 84th Street ,60652,2842141,,,,,,Ashburn,,,,,,,,,,,,,CP,,,,,,,
2807,ECE Chicago Find a School scrape.csv, Teddy Bear 3,6401 S. Pulaski ,60629,2842292,,,,,,West Lawn,,,,,,,,,,,,,CP,,,,,,,
2808,ECE Chicago Find a School scrape.csv, Teddy Bear 5,5160 S. Pulaski ,60632,2847030,,,,,,West Elsdon,,,,,,,,,,,,,CP,,,,,,,
2809,ECE Chicago Find a School scrape.csv, Teddy Bear VI,150 S. Wacker ,60606,6412327,,,,,,Loop,,,,,,,,,,,,,CP,,,,,,,
2810,ECE Chicago Find a School scrape.csv, Terry Town Nursery School,817 N. Hamlin ,60651,4894271,,,,,,Humboldt Park,,,,,,,,,,,,,CP,,,,,,,
2811,ECE Chicago Find a School scrape.csv," Thorp, J.N.",8914 S. Buffalo ,60617,5356250,,,,,,South Chicago,,,,,,,,,,,,,HS-HD,,,,,,,
2812,ECE Chicago Find a School scrape.csv, Thresholds Mothers' Project,1110 W. Belmont  ,60657,4720328,,,,,,Lake View,,,,,,,,,,,,,CP,,,,,,,
2813,ECE Chicago Find a School scrape.csv, Thresholds Mothers' Project I/T,1110 W. Belmont  ,60657,4720328,,,,,,Lake View,,,,,,,,,,,,,CP,,,,,,,
2814,ECE Chicago Find a School scrape.csv, Tilton,223 N. Keeler Av. ,60624,5346746,,,,,,West Garfield Park,,,,,,,,,,,,,PFA-REG,,,,,,,
2815,ECE Chicago Find a School scrape.csv, Tiny Tot Villa,8121 S. King Drive ,60619,4836521,,,,,,Chatham,,,,,,,,,,,,,CP,,,,,,,
2816,ECE Chicago Find a School scrape.csv, Trinity UCC - Denton Brooks,6921 S. Stony Island  ,60649,9552818,,,,,,South Shore,,,,,,,,,,,,,CP,,,,,,,
2817,ECE Chicago Find a School scrape.csv, Trumbull,5200 N. Ashland ,60640,5342430,,,,,,Edgewater,,,,,,,,,,,,,PFA-REG,,,,,,,
2818,ECE Chicago Find a School scrape.csv, Twain,5134 S. Lotus Ave ,60638,5352290,,,,,,Garfield Ridge,,,,,,,,,,,,,PFA-REG,,,,,,,
2819,ECE Chicago Find a School scrape.csv, UIC Children's Cent I East,728 W. Roosevelt Rd ,60607,4135331,,,,,,Near West Side,,,,,,,,,,,,,CP,,,,,,,
2820,ECE Chicago Find a School scrape.csv, UIC Children's Cent II West,1919 W. Taylor ,60612,4135326,,,,,,Near West Side,,,,,,,,,,,,,CP,,,,,,,
2821,ECE Chicago Find a School scrape.csv," Vick, Barbara Ctr.",2554 W. 113Th St ,60655,5352671,,,,,,Morgan Park,,,,,,,,,,,,,PFA-REG TS,,,,,,,
2822,ECE Chicago Find a School scrape.csv, Volta,4950 N. Avers ,60625,5345080,,,,,,Albany Park,,,,,,,,,,,,,PFA-REG,,,,,,,
2823,ECE Chicago Find a School scrape.csv, Von Humboldt CPC,1345 N. Rockwell ,60622,5344668,,,,,,West Town,,,,,,,,,,,,,CPC-FD,,,,,,,
2824,ECE Chicago Find a School scrape.csv, Wadsworth,6420 S. University ,60637,5350730,,,,,,Woodlawn,,,,,,,,,,,,,PFA-REG PFA-FD,,,,,,,
2825,ECE Chicago Find a School scrape.csv, Walsh,2015 S. Peoria ,60608,5347950,,,,,,Lower West Side,,,,,,,,,,,,,PFA-REG,,,,,,,
2826,ECE Chicago Find a School scrape.csv, Ward,2701 S. Shields ,60616,5349050,,,,,,Armour Square,,,,,,,,,,,,,PFA-REG,,,,,,,
2827,ECE Chicago Find a School scrape.csv," Ward, Laura",410 N. Monticello ,60624,5346440,,,,,,Humboldt Park,,,,,,,,,,,,,HS-HD,,,,,,,
2828,ECE Chicago Find a School scrape.csv, Warren,9239 S. Jeffery ,60617,5356625,,,,,,Calumet Heights,,,,,,,,,,,,,PFA-REG,,,,,,,
2829,ECE Chicago Find a School scrape.csv, Washington G.,3611 E. 114Th St. ,60617,5355010,,,,,,East Side,,,,,,,,,,,,,PFA-REG,,,,,,,
2830,ECE Chicago Find a School scrape.csv," Washington, H.",9130 S. University ,60617,5356225,,,,,,Burnside,,,,,,,,,,,,,PFA-REG,,,,,,,
2831,ECE Chicago Find a School scrape.csv, Waters,4540 N. Campbell ,60625,5345090,,,,,,Lincoln Square,,,,,,,,,,,,,PFA-REG,,,,,,,
2832,ECE Chicago Find a School scrape.csv, Waters,4540 N. Campbell ,60625,5345090,,,,,,Lincoln Square,,,,,,,,,,,,,TB,,,,,,,
2833,ECE Chicago Find a School scrape.csv, Wentworth,6950 S. Sangamon ,60621,5353394,,,,,,Englewood,,,,,,,,,,,,,PFA-REG,,,,,,,
2834,ECE Chicago Find a School scrape.csv, West Park Acad,1425 N. Tripp ,60651,5344940,,,,,,Humboldt Park,,,,,,,,,,,,,PFA-REG,,,,,,,
2835,ECE Chicago Find a School scrape.csv, West Pullman,11941 S. Parnell Ave ,60628,5355500,,,,,,West Pullman,,,,,,,,,,,,,PFA-REG,,,,,,,
2836,ECE Chicago Find a School scrape.csv, Westcott,409 W. 80Th St. ,60620,5353394,,,,,,Chatham,,,,,,,,,,,,,PFA-REG,,,,,,,
2837,ECE Chicago Find a School scrape.csv, Wheatley CPC,902 E. 133rd Pl ,60627,5355718,,,,,,Riverdale,,,,,,,,,,,,,CPC-FD,,,,,,,
2838,ECE Chicago Find a School scrape.csv, Whistler,11533 S. Ada ,60643,5355560,,,,,,West Pullman,,,,,,,,,,,,,PFA-REG,,,,,,,
2839,ECE Chicago Find a School scrape.csv, Whitney,2815 S. Komensky ,60623,5341560,,,,,,South Lawndale,,,,,,,,,,,,,PFA-REG,,,,,,,
2840,ECE Chicago Find a School scrape.csv, Whittier,1900 W. 23rd St. ,60608,5354590,,,,,,Lower West Side,,,,,,,,,,,,,HS-HD,,,,,,,
2841,ECE Chicago Find a School scrape.csv, Williams,2710 S.Dearborn ,60616,5349226,,,,,,Douglas,,,,,,,,,,,,,HS-HD,,,,,,,
2842,ECE Chicago Find a School scrape.csv, Woodlawn EC Development Ctr,950 E 61st St ,60637,6673300,,,,,,Woodlawn,,,,,,,,,,,,,CP,,,,,,,
2843,ECE Chicago Find a School scrape.csv, Woodlawn EC Development Ctr I/T,950 E 61st St ,60637,6673300,,,,,,Woodlawn,,,,,,,,,,,,,CP,,,,,,,
2844,ECE Chicago Find a School scrape.csv, Woodlawn T.W.O. Infant Toddler,1445 E. 65th St. ,60637,4931311,,,,,,Woodlawn,,,,,,,,,,,,,CP,,,,,,,
2845,ECE Chicago Find a School scrape.csv, Woods,6206 S. Racine ,60636,5359250,,,,,,West Englewood,,,,,,,,,,,,,PFA-REG,,,,,,,
2846,ECE Chicago Find a School scrape.csv, Woodson South,4511 S. Evans Ave ,60653,5351280,,,,,,Grand Boulevard,,,,,,,,,,,,,HS-FD,,,,,,,
2847,ECE Chicago Find a School scrape.csv, Yates,1839 N. Richmond ,60647,5344550,,,,,,Logan Square,,,,,,,,,,,,,HS-HD,,,,,,,
2848,ECE Chicago Find a School scrape.csv, YMCA Austin,501 N. Central ,60644,2879120,,,,,,Austin,,,,,,,,,,,,,CP,,,,,,,
2849,ECE Chicago Find a School scrape.csv, YMCA Duncan,1001 W. Roosevelt Rd ,60608,7385443,,,,,,Near West Side,,,,,,,,,,,,,CP,,,,,,,
2850,ECE Chicago Find a School scrape.csv, YMCA Garfield,7 N. Homan Av. ,60624,2653900,,,,,,East Garfield Park,,,,,,,,,,,,,CP,,,,,,,
2851,ECE Chicago Find a School scrape.csv, YMCA Garfield I/T,7 N. Homan Av. ,60624,2653900,,,,,,East Garfield Park,,,,,,,,,,,,,CP,,,,,,,
2852,ECE Chicago Find a School scrape.csv, YMCA High Ridge,2424 W Touhy ,60645,2716120,,,,,,West Ridge,,,,,,,,,,,,,CP,,,,,,,
2853,ECE Chicago Find a School scrape.csv, YMCA Marshall HS Infant/Toddler,3520 W. Adams ,60647,2650145,,,,,,East Garfield Park,,,,,,,,,,,,,CP,,,,,,,
2854,ECE Chicago Find a School scrape.csv, YMCA McCormick Tribune,1834 N. Lawndale ,60647,2352525,,,,,,West Town,,,,,,,,,,,,,CP,,,,,,,
2855,ECE Chicago Find a School scrape.csv, YMCA New City,1515 N. Halsted ,60622,4407272,,,,,,Near North,,,,,,,,,,,,,CP,,,,,,,
2856,ECE Chicago Find a School scrape.csv, YMCA North Lawndale,3449 W. Arthington ,60624,6380773,,,,,,North Lawndale,,,,,,,,,,,,,CP,,,,,,,
2857,ECE Chicago Find a School scrape.csv, YMCA North Lawndale 0-3,3449 W. Arthington ,60624,6380773,,,,,,North Lawndale,,,,,,,,,,,,,CP,,,,,,,
2858,ECE Chicago Find a School scrape.csv, YMCA South Chicago,3039 E. 91st St. ,60617,7219100,,,,,,South Chicago,,,,,,,,,,,,,CP,,,,,,,
2859,ECE Chicago Find a School scrape.csv, YMCA South Side,6330 S Stony Island ,60637,9470700,,,,,,Woodlawn,,,,,,,,,,,,,CP,,,,,,,
2860,ECE Chicago Find a School scrape.csv, Young,1434 N. Parkside ,60651,5346200,,,,,,Austin,,,,,,,,,,,,,HS-HD,,,,,,,
2861,ECE Chicago Find a School scrape.csv, Young Scholars Develop Inst,3038 W. 59th St. ,60629,9181944,,,,,,Gage Park,,,,,,,,,,,,,CP,,,,,,,
2862,ECE Chicago Find a School scrape.csv, YWCA Coretta Scott King,436 E. 39th Street ,60653,5380212,,,,,,Douglas,,,,,,,,,,,,,CP,,,,,,,
2863,ECE Chicago Find a School scrape.csv, YWCA Harris,6200 S. Drexel ,60637,6670014,,,,,,Woodlawn,,,,,,,,,,,,,CP,,,,,,,
2864,ECE Chicago Find a School scrape.csv, YWCA Northside,5244 N. Lakewood ,60640,2716120,,,,,,Edgewater,,,,,,,,,,,,,CP,,,,,,,
2865,ECE Chicago Find a School scrape.csv, Zapata,2728 S. Kostner ,60623,5341390,,,,,,South Lawndale,,,,,,,,,,,,,HS-HD,,,,,,,
